HIERARCHY
ROOT Hips
{
	OFFSET -0.001795 -0.223333 0.028219
	CHANNELS 6 Xposition Yposition Zposition Zrotation Yrotation Xrotation 
	JOINT LeftUpLeg
	{
		OFFSET 0.069520 -0.091406 -0.006815
		CHANNELS 3 Zrotation Yrotation Xrotation
		JOINT LeftLeg
		{
			OFFSET 0.034277 -0.375199 -0.004496
			CHANNELS 3 Zrotation Yrotation Xrotation
			JOINT LeftFoot
			{
				OFFSET -0.013596 -0.397961 -0.043693
				CHANNELS 3 Zrotation Yrotation Xrotation
				JOINT LeftToe
				{
					OFFSET 0.026358 -0.055791 0.119288
					CHANNELS 3 Zrotation Yrotation Xrotation
					End Site
					{
						OFFSET 0.000000 0.000000 0.000000
					}
				}
			}
		}
	}
	JOINT RightUpLeg
	{
		OFFSET -0.067670 -0.090522 -0.004320
		CHANNELS 3 Zrotation Yrotation Xrotation
		JOINT RightLeg
		{
			OFFSET -0.038290 -0.382569 -0.008850
			CHANNELS 3 Zrotation Yrotation Xrotation
			JOINT RightFoot
			{
				OFFSET 0.015774 -0.398415 -0.042312
				CHANNELS 3 Zrotation Yrotation Xrotation
				JOINT RightToe
				{
					OFFSET -0.025372 -0.048144 0.123348
					CHANNELS 3 Zrotation Yrotation Xrotation
					End Site
					{
						OFFSET 0.000000 0.000000 0.000000
					}
				}
			}
		}
	}
	JOINT Spine
	{
		OFFSET -0.002533 0.108963 -0.026696
		CHANNELS 3 Zrotation Yrotation Xrotation
		JOINT Spine1
		{
			OFFSET 0.005487 0.135180 0.001092
			CHANNELS 3 Zrotation Yrotation Xrotation
			JOINT Spine2
			{
				OFFSET 0.001457 0.052922 0.025425
				CHANNELS 3 Zrotation Yrotation Xrotation
				JOINT Neck
				{
					OFFSET -0.002778 0.213870 -0.042857
					CHANNELS 3 Zrotation Yrotation Xrotation
					JOINT Head
					{
						OFFSET 0.005152 0.064970 0.051349
						CHANNELS 3 Zrotation Yrotation Xrotation
						End Site
						{
							OFFSET 0.000000 0.000000 0.000000
						}
					}
				}
				JOINT LeftShoulder
				{
					OFFSET 0.078845 0.121749 -0.034090
					CHANNELS 3 Zrotation Yrotation Xrotation
					JOINT LeftArm
					{
						OFFSET 0.090977 0.030469 -0.008868
						CHANNELS 3 Zrotation Yrotation Xrotation
						JOINT LeftForeArm
						{
							OFFSET 0.259612 -0.012772 -0.027456
							CHANNELS 3 Zrotation Yrotation Xrotation
							JOINT LeftHand
							{
								OFFSET 0.249234 0.008986 -0.001171
								CHANNELS 3 Zrotation Yrotation Xrotation
								End Site
								{
									OFFSET 0.000000 0.000000 0.000000
								}
							}
						}
					}
				}
				JOINT RightShoulder
				{
					OFFSET -0.081759 0.118833 -0.038615
					CHANNELS 3 Zrotation Yrotation Xrotation
					JOINT RightArm
					{
						OFFSET -0.096012 0.032551 -0.009143
						CHANNELS 3 Zrotation Yrotation Xrotation
						JOINT RightForeArm
						{
							OFFSET -0.253742 -0.013329 -0.021401
							CHANNELS 3 Zrotation Yrotation Xrotation
							JOINT RightHand
							{
								OFFSET -0.255298 0.007772 -0.005559
								CHANNELS 3 Zrotation Yrotation Xrotation
								End Site
								{
									OFFSET 0.000000 0.000000 0.000000
								}
							}
						}
					}
				}
			}
		}
	}
}
MOTION
Frames: 41
Frame Time: 0.050000
-0.003941 0.927531 0.109657 -2.622479 10.691868 0.241302 5.598845 0.008652 14.956488 -0.931815 -0.420704 12.199234 2.226193 3.640283 -1.648612 0.000000 0.000000 0.000000 -3.804849 1.203171 -32.215707 9.734214 -3.785238 29.258803 -6.264749 -15.410511 11.517544 0.000000 0.000000 0.000000 2.848856 -0.780215 9.952041 6.667814 -0.792855 -24.876134 -4.062124 -9.562976 28.793202 -1.859412 1.997660 -24.461502 0.000000 0.000000 0.000000 -27.710542 5.822335 -4.509321 -46.544186 -5.841153 -5.993686 -21.608885 -35.366421 9.369092 0.000000 0.000000 0.000000 21.573159 0.606611 -1.641871 51.902569 -0.093775 -7.401281 6.499395 25.197044 2.357339 0.000000 0.000000 0.000000 
-0.006429 0.941459 0.159455 -2.884812 9.490312 0.085526 7.245502 -0.183276 9.244980 -3.593348 -0.419687 25.351870 1.328528 5.057897 5.121279 0.000000 0.000000 0.000000 -2.599120 1.599024 -29.006775 10.297973 -3.901501 29.218958 -6.056495 -15.108864 8.075396 0.000000 0.000000 0.000000 3.594501 -0.882787 10.324879 7.625030 -1.067141 -24.723429 -4.104341 -7.719106 27.502639 -3.216422 3.012672 -23.253995 0.000000 0.000000 0.000000 -29.285059 6.258225 -5.489732 -45.394821 -3.140936 -6.560917 -21.687028 -33.955478 8.798240 0.000000 0.000000 0.000000 20.137816 1.990819 -0.444947 51.856938 0.970698 -6.910208 7.700261 25.795849 2.703959 0.000000 0.000000 0.000000 
-0.008560 0.953464 0.201426 -2.639018 8.906687 -1.144044 8.531413 -0.290677 -0.085831 -8.554473 0.848604 43.724836 4.748236 12.215942 9.483835 0.000000 0.000000 0.000000 -0.463959 1.859104 -23.158203 8.022358 -2.684138 26.456655 -6.577352 -16.213757 6.188112 0.000000 0.000000 0.000000 3.338030 -1.067422 12.887547 7.071581 -0.911333 -25.214590 -2.418343 -6.234418 27.372299 -2.252958 2.575110 -22.156378 0.000000 0.000000 0.000000 -30.547152 5.690336 -5.701728 -44.216814 -1.427243 -6.888367 -22.143493 -32.695818 8.459764 0.000000 0.000000 0.000000 19.424014 2.861821 0.397916 50.235979 2.959203 -6.021933 8.878416 28.313932 3.342092 0.000000 0.000000 0.000000 
-0.009606 0.965374 0.238156 -1.969673 7.763153 -1.649973 8.587212 -0.439505 -10.202134 -13.401877 4.002340 57.194452 7.602700 16.612198 8.228701 0.000000 0.000000 0.000000 0.814189 1.726548 -17.694071 6.153081 -1.621421 22.304855 -6.584802 -16.367620 4.899071 0.000000 0.000000 0.000000 2.281320 -1.071222 14.803298 7.151829 -0.951942 -25.173841 -1.233568 -2.776194 27.229484 -1.571136 2.644730 -22.742461 0.000000 0.000000 0.000000 -31.090317 4.576611 -6.146635 -43.483199 -0.497864 -6.748344 -21.748708 -31.231314 7.668123 0.000000 0.000000 0.000000 19.942189 3.481748 1.459489 48.695550 5.475318 -5.081745 8.329411 31.462121 3.806168 0.000000 0.000000 0.000000 
-0.009514 0.977697 0.273937 -1.289803 6.258936 -1.413306 8.111933 -0.811670 -20.481765 -17.603890 8.089466 62.730475 10.986592 22.165059 4.974570 0.000000 0.000000 0.000000 1.017700 1.347532 -12.964478 5.077959 -1.000910 18.306076 -6.024646 -15.262327 4.146749 0.000000 0.000000 0.000000 1.207645 -0.991162 16.164553 6.633900 -0.838709 -25.275189 0.315581 0.534863 27.328769 -0.871876 2.658613 -23.415361 0.000000 0.000000 0.000000 -30.921077 3.806797 -6.564002 -43.380666 0.278811 -6.716301 -21.536854 -30.563104 7.228912 0.000000 0.000000 0.000000 19.432948 4.734826 2.768577 47.538044 7.711990 -4.314859 8.754243 33.956434 4.438301 0.000000 0.000000 0.000000 
-0.008034 0.988266 0.310972 -0.399099 5.506997 -1.222785 8.222619 -1.197075 -29.930561 -19.604009 9.877145 61.334055 12.069648 24.026493 5.647178 0.000000 0.000000 0.000000 0.499399 0.790075 -7.682623 4.101019 -0.597033 14.158776 -5.052789 -13.083287 3.049307 0.000000 0.000000 0.000000 -0.133577 -0.809430 16.828633 6.151685 -0.780392 -24.556054 1.201533 3.228218 27.063589 -1.038493 3.161363 -24.034187 0.000000 0.000000 0.000000 -30.451553 3.418242 -7.147839 -43.646538 0.716166 -6.593202 -21.884138 -29.745471 6.920328 0.000000 0.000000 0.000000 18.033122 4.842745 3.250680 48.108305 10.207432 -3.382863 7.901554 36.373886 4.752207 0.000000 0.000000 0.000000 
-0.005175 0.994889 0.351005 0.175679 4.563044 -1.003269 8.037870 -1.444996 -35.590301 -18.656356 8.431857 52.760061 12.281276 24.471649 4.633445 0.000000 0.000000 0.000000 0.005118 0.313293 -3.092231 3.022207 -0.290707 10.096072 -3.652870 -9.993906 3.504205 0.000000 0.000000 0.000000 -1.544999 -0.605607 17.737907 6.186097 -0.752922 -25.185057 2.384538 5.527479 27.710671 -1.478874 3.763277 -25.001521 0.000000 0.000000 0.000000 -30.252766 2.961885 -7.502111 -43.808447 1.346911 -6.662472 -22.590456 -29.369063 6.883627 0.000000 0.000000 0.000000 16.703773 5.142228 3.665404 47.381910 12.358944 -2.571104 8.286764 37.942316 5.259443 0.000000 0.000000 0.000000 
-0.000923 0.996028 0.394945 0.374387 4.078254 -0.550906 7.937452 -1.591984 -38.922720 -15.923961 5.633006 40.612656 10.608311 21.645052 5.196882 0.000000 0.000000 0.000000 0.076985 -0.128794 1.221542 2.199828 -0.141776 7.179428 -2.914253 -8.315041 3.437050 0.000000 0.000000 0.000000 -1.950626 -0.522635 17.708234 5.171231 -0.557043 -24.484759 3.118515 7.075662 27.321155 -2.537001 4.582684 -25.309569 0.000000 0.000000 0.000000 -30.150498 2.377867 -7.635384 -43.600570 2.370205 -6.779073 -23.304477 -29.136799 6.897613 0.000000 0.000000 0.000000 15.201976 5.298946 3.802233 47.243346 13.873655 -1.869497 8.826003 40.457318 6.027993 0.000000 0.000000 0.000000 
0.004841 0.987872 0.443299 0.316205 2.769559 -0.524909 7.589115 -1.513317 -38.980551 -11.823207 2.978918 26.752186 9.474778 19.583930 3.935606 0.000000 0.000000 0.000000 0.289092 -0.632866 5.892832 1.549274 -0.056454 4.972844 -2.451552 -6.727568 1.468829 0.000000 0.000000 0.000000 -2.188870 -0.449456 17.754620 4.955851 -0.553796 -24.106537 3.341189 8.100304 27.093602 -2.671393 4.717896 -26.003480 0.000000 0.000000 0.000000 -29.786827 3.540520 -8.423416 -44.099423 3.432806 -7.177999 -24.745076 -28.644048 7.112811 0.000000 0.000000 0.000000 13.676460 5.566295 3.770352 47.002237 15.345324 -1.166471 9.818241 43.362001 7.053599 0.000000 0.000000 0.000000 
0.012428 0.973944 0.496225 0.045114 1.071793 -0.589895 8.268412 -1.007285 -38.351568 -9.078655 1.764284 17.529887 9.104175 18.801518 3.480044 0.000000 0.000000 0.000000 -0.059260 -0.969233 9.528735 1.437040 -0.025736 4.983874 -2.524605 -5.786787 -1.781943 0.000000 0.000000 0.000000 -2.687425 -0.317026 17.597670 5.099067 -0.520362 -25.446393 3.413357 9.946738 28.562981 -2.466626 4.829423 -27.143727 0.000000 0.000000 0.000000 -28.969175 4.017448 -8.785511 -44.706643 3.672774 -7.474060 -23.332413 -27.946434 6.539279 0.000000 0.000000 0.000000 14.267776 5.632239 4.068483 45.443313 16.782086 -0.931175 11.299123 44.299115 7.951732 0.000000 0.000000 0.000000 
0.022377 0.957146 0.553316 -0.110616 -0.621761 -1.602812 8.542697 -0.637588 -37.606557 -8.006612 1.586473 18.003769 8.999998 18.450333 2.708371 0.000000 0.000000 0.000000 -1.001908 -1.280374 14.401891 1.512538 -0.004811 5.745083 -2.369453 -4.019273 -4.675057 0.000000 0.000000 0.000000 -3.975950 -0.072487 17.585877 5.792421 -0.791340 -24.469724 3.864622 11.188872 28.855336 -2.959163 5.182302 -29.765701 0.000000 0.000000 0.000000 -29.588034 3.756311 -8.876993 -44.637600 2.811250 -7.110932 -21.385468 -26.769069 5.784203 0.000000 0.000000 0.000000 14.800375 6.137649 4.410661 43.926876 17.603252 -0.745760 11.396904 44.858461 8.038693 0.000000 0.000000 0.000000 
0.035671 0.945237 0.615187 -0.129504 -1.432497 -1.670695 8.455621 -0.558235 -39.000856 -10.016677 2.723366 26.291346 9.516369 19.394676 6.689594 0.000000 0.000000 0.000000 -2.556186 -1.268779 17.817581 1.233487 0.113911 7.948577 -2.461194 -4.019528 -5.045022 0.000000 0.000000 0.000000 -5.515854 0.176429 16.006126 5.277697 -0.798119 -22.862728 4.727824 11.553618 29.042250 -2.410354 4.871465 -29.168503 0.000000 0.000000 0.000000 -29.041633 3.476914 -8.480010 -45.913431 1.880551 -7.067612 -18.119565 -25.661116 4.818830 0.000000 0.000000 0.000000 15.330194 7.233797 5.048141 44.245926 17.025246 -1.001672 8.075054 44.800546 6.654676 0.000000 0.000000 0.000000 
0.053128 0.945579 0.680484 -0.089194 -1.583143 -0.599005 8.279806 -0.620477 -40.499204 -11.885111 4.006353 33.040664 9.140341 18.880203 10.692432 0.000000 0.000000 0.000000 -4.886429 -0.735666 16.007537 2.564518 0.045993 15.421742 -1.163458 -2.816902 -0.270689 0.000000 0.000000 0.000000 -6.951547 0.361643 13.948419 6.026749 -0.964566 -23.034584 5.091672 11.538445 30.353010 -1.929770 4.638875 -31.117259 0.000000 0.000000 0.000000 -29.689656 3.747873 -8.850806 -45.814101 0.656529 -6.657252 -16.200664 -25.078116 4.309100 0.000000 0.000000 0.000000 15.485617 5.843809 4.402643 46.029084 14.545987 -1.963493 7.858421 44.196637 6.597341 0.000000 0.000000 0.000000 
0.072873 0.958579 0.744163 0.570312 -0.101296 -0.553947 5.534111 -1.739080 -38.134408 -11.885838 4.036784 35.678711 9.770806 19.970366 7.837547 0.000000 0.000000 0.000000 -6.498358 -0.315878 10.733024 3.258304 -0.008589 28.368261 -0.142753 -4.930732 10.913569 0.000000 0.000000 0.000000 -7.875902 0.464856 14.413424 6.226433 -0.984185 -23.147893 4.748592 10.169305 29.077530 -1.385649 4.221342 -29.993249 0.000000 0.000000 0.000000 -29.187777 3.556612 -8.372618 -46.448866 -0.452187 -6.358994 -17.008166 -24.254997 4.349934 0.000000 0.000000 0.000000 15.620514 4.961650 3.817483 47.513557 10.692808 -3.239450 9.697684 42.821423 6.963590 0.000000 0.000000 0.000000 
0.091665 0.979273 0.802422 0.366841 2.089468 -1.039737 2.468320 -2.592729 -32.979687 -10.416679 2.955764 34.425602 9.236383 19.164186 6.108843 0.000000 0.000000 0.000000 -7.040173 0.019822 2.125453 4.901227 -1.183304 45.760974 -0.885923 -8.145523 18.298895 0.000000 0.000000 0.000000 -7.134243 0.329172 16.291242 5.916322 -0.775160 -24.512085 3.769890 7.845220 29.017883 -1.536770 4.144042 -31.002214 0.000000 0.000000 0.000000 -28.445646 2.566809 -7.080954 -46.477062 -1.880722 -6.032156 -18.024707 -25.858544 4.946053 0.000000 0.000000 0.000000 15.255514 3.410738 2.771556 49.463956 8.107137 -4.220377 11.562412 40.833319 7.201692 0.000000 0.000000 0.000000 
0.107441 1.004199 0.856397 0.141830 3.239592 -1.632005 -0.021159 -2.554724 -25.582620 -7.796814 1.560726 29.964875 8.752600 18.278069 4.988174 0.000000 0.000000 0.000000 -7.112256 0.384480 -8.405901 6.165240 -2.961113 60.483650 -3.436277 -12.258667 17.886917 0.000000 0.000000 0.000000 -6.126041 0.139460 17.240716 5.747438 -0.704065 -24.836306 2.776760 5.028559 28.908712 -0.741019 3.339062 -29.961212 0.000000 0.000000 0.000000 -28.512975 2.407999 -6.085989 -46.258046 -2.508368 -6.074125 -18.809421 -28.803574 5.920806 0.000000 0.000000 0.000000 16.112728 4.028066 2.739224 49.447671 6.309828 -4.946937 12.375882 39.067066 6.838313 0.000000 0.000000 0.000000 
0.120737 1.026080 0.908466 -0.876313 5.044867 -2.361029 -1.216004 -1.775987 -16.574052 -4.786365 0.337203 22.735894 6.718616 14.532411 3.945385 0.000000 0.000000 0.000000 -6.812410 0.611486 -16.720977 7.946019 -5.550470 65.354464 -4.976374 -14.416921 15.178124 0.000000 0.000000 0.000000 -4.088176 -0.256630 18.121618 5.972789 -0.706473 -25.353038 1.091171 2.418415 28.793289 -0.590961 2.921004 -28.203912 0.000000 0.000000 0.000000 -28.887005 2.925100 -5.894572 -45.314467 -3.933927 -5.619002 -19.224889 -30.537092 6.534923 0.000000 0.000000 0.000000 16.967894 3.446561 2.188987 49.317754 4.530879 -5.653380 13.881614 36.933238 6.750428 0.000000 0.000000 0.000000 
0.131623 1.042326 0.959005 -1.515761 6.926534 -2.928535 -1.499796 -0.816233 -7.971908 -3.388575 0.054840 14.776538 5.440599 12.206484 4.029698 0.000000 0.000000 0.000000 -6.874473 0.622689 -23.110774 9.857916 -7.249440 60.739757 -6.546807 -16.868531 14.651591 0.000000 0.000000 0.000000 -2.795432 -0.543769 18.572871 5.977387 -0.628614 -26.237024 0.247049 0.169052 29.078071 0.063000 2.236733 -26.168359 0.000000 0.000000 0.000000 -28.536436 3.428312 -5.683058 -45.279796 -5.268492 -5.354575 -19.237493 -32.841280 7.189792 0.000000 0.000000 0.000000 17.281290 2.134397 1.275992 49.715317 2.774204 -6.392481 14.393873 34.862482 6.382108 0.000000 0.000000 0.000000 
0.140319 1.049671 1.008304 -2.263066 8.351203 -3.606144 -0.440835 -0.111150 -1.288685 -3.431214 0.155337 9.995689 4.022929 9.310318 3.098876 0.000000 0.000000 0.000000 -6.392757 0.652123 -28.176247 10.845890 -6.794450 50.187968 -8.167551 -19.248808 16.241092 0.000000 0.000000 0.000000 -1.866135 -0.774908 19.074895 6.061937 -0.579852 -27.256723 -0.498467 -1.354519 29.553038 0.317257 1.899291 -25.130291 0.000000 0.000000 0.000000 -27.439525 4.098151 -5.634319 -45.285747 -6.815172 -4.967704 -19.819764 -34.196355 7.770827 0.000000 0.000000 0.000000 17.167764 0.835954 0.473006 49.483450 1.131970 -7.043590 15.926716 33.657401 6.557408 0.000000 0.000000 0.000000 
0.147144 1.048808 1.057144 -2.550137 10.778315 -4.003437 0.677472 0.283715 4.356112 -3.630260 0.221880 6.821177 3.145693 6.838700 1.113673 0.000000 0.000000 0.000000 -6.614048 0.308988 -31.685178 10.925083 -5.257123 36.349217 -9.111091 -20.174138 17.187255 0.000000 0.000000 0.000000 -1.007706 -1.014138 19.318734 5.955173 -0.514006 -27.563483 -1.298018 -3.235759 29.458800 -0.053795 1.965230 -24.150190 0.000000 0.000000 0.000000 -26.827721 3.331584 -4.886295 -44.630528 -8.864523 -4.250610 -19.793307 -35.252062 8.034256 0.000000 0.000000 0.000000 17.007572 0.035563 -0.030474 50.111391 -0.797862 -7.847574 15.970050 33.426872 6.507490 0.000000 0.000000 0.000000 
0.152976 1.042487 1.106925 -2.291375 12.585229 -4.188130 1.113107 0.446180 8.295914 -3.399858 0.178176 6.422571 3.451457 5.574752 -2.676928 0.000000 0.000000 0.000000 -6.554615 0.087904 -32.623677 8.694090 -2.733721 21.654442 -9.444663 -20.133555 17.741488 0.000000 0.000000 0.000000 -1.229637 -1.003231 18.903846 5.173077 -0.341914 -26.869924 -1.185699 -5.459883 28.786683 -0.773392 2.235249 -25.132126 0.000000 0.000000 0.000000 -27.071432 3.184618 -4.450328 -43.540019 -10.356566 -3.729615 -18.623898 -36.803808 8.095233 0.000000 0.000000 0.000000 17.060733 0.012742 -0.294233 49.925456 -2.146347 -8.270526 16.754636 32.774678 6.484983 0.000000 0.000000 0.000000 
0.158262 1.035125 1.159569 -2.124319 14.971148 -4.380583 1.880952 0.416792 11.801958 -3.079533 0.108265 6.497594 3.137547 2.600415 -6.317018 0.000000 0.000000 0.000000 -6.613233 -0.210157 -32.173599 5.809152 -1.146094 9.760466 -8.342747 -17.876301 17.691364 0.000000 0.000000 0.000000 -0.636054 -1.080857 17.917349 4.614466 -0.169308 -27.186358 -2.103406 -7.615160 29.390251 -2.136420 2.938765 -25.383133 0.000000 0.000000 0.000000 -26.440444 2.774702 -3.877348 -43.500597 -12.004536 -3.293305 -18.150633 -37.386682 8.128281 0.000000 0.000000 0.000000 17.671088 -0.206656 -0.530017 49.521747 -3.146231 -8.643789 15.561169 32.751893 6.088840 0.000000 0.000000 0.000000 
0.163262 1.027974 1.215989 -1.789335 16.107017 -4.364368 2.249317 0.359241 15.091111 -2.433669 -0.000450 6.977773 3.621457 1.608917 -9.281336 0.000000 0.000000 0.000000 -6.639379 -0.364961 -32.227605 4.914756 -0.841570 6.457620 -7.558115 -16.327336 20.072702 0.000000 0.000000 0.000000 -0.480113 -1.053759 17.095818 5.638855 -0.369750 -27.432503 -3.469011 -8.490262 29.045715 -2.243461 2.901522 -23.312137 0.000000 0.000000 0.000000 -27.407255 2.791930 -4.010901 -42.845296 -12.385319 -3.093656 -19.184070 -37.456736 8.493287 0.000000 0.000000 0.000000 17.621528 -0.198130 -0.560151 49.900229 -3.589964 -8.831824 14.460192 32.499299 5.709155 0.000000 0.000000 0.000000 
0.167710 1.024678 1.277393 -1.718655 17.475230 -4.736276 2.925053 0.118310 19.090620 -1.629201 -0.145636 7.639228 3.100557 0.082957 -9.472684 0.000000 0.000000 0.000000 -6.015760 -0.331439 -32.132275 4.735689 -1.009804 10.869154 -7.521224 -15.965751 23.215496 0.000000 0.000000 0.000000 0.472474 -1.139938 16.305878 5.542235 -0.327483 -27.362101 -4.435464 -9.083693 28.877033 -1.914458 2.754038 -23.758856 0.000000 0.000000 0.000000 -28.270353 2.311584 -3.992421 -42.454088 -11.630131 -3.237367 -19.094966 -37.696886 8.454970 0.000000 0.000000 0.000000 19.272713 -0.736416 -0.839420 48.507532 -3.517652 -8.598874 12.702656 32.502697 5.226558 0.000000 0.000000 0.000000 
0.171369 1.027328 1.341495 -1.883594 18.022712 -4.207939 4.010275 -0.211149 20.559445 -1.140190 -0.372460 10.360589 2.251695 0.968252 -5.495163 0.000000 0.000000 0.000000 -5.920340 -0.378390 -32.458397 6.812405 -1.991893 16.446493 -7.728848 -16.260982 23.873022 0.000000 0.000000 0.000000 1.162693 -0.973816 13.663806 6.104944 -0.465791 -26.752227 -5.363616 -9.609237 28.779453 -1.807189 2.623964 -22.639744 0.000000 0.000000 0.000000 -28.543168 3.255064 -4.663806 -44.027735 -10.330150 -3.732681 -19.602364 -37.329697 8.589742 0.000000 0.000000 0.000000 19.430387 -1.228287 -1.161966 48.050181 -3.622188 -8.495970 11.947942 34.723688 5.407466 0.000000 0.000000 0.000000 
0.174026 1.037442 1.403664 -1.912201 16.368902 -3.375372 4.548680 -0.167994 19.400217 -1.281716 -0.693743 15.764233 1.004903 1.585920 -0.636171 0.000000 0.000000 0.000000 -4.959869 0.170191 -32.138441 8.615964 -2.884972 20.410214 -7.412169 -16.277662 20.725209 0.000000 0.000000 0.000000 1.521645 -0.828614 11.891683 6.835671 -0.688614 -26.193855 -5.210040 -9.318805 27.812188 -2.422348 2.917482 -22.944799 0.000000 0.000000 0.000000 -29.643518 4.212078 -5.253623 -44.597696 -8.368824 -4.407546 -20.148825 -36.618072 8.678496 0.000000 0.000000 0.000000 18.268447 -0.668590 -1.003728 48.456758 -2.803140 -8.111904 13.228748 36.321464 6.046403 0.000000 0.000000 0.000000 
0.175351 1.052535 1.459425 -2.874043 15.723689 -3.215888 6.686567 -0.442956 15.226166 -3.213504 -1.014700 25.944015 0.069692 3.811312 6.779859 0.000000 0.000000 0.000000 -3.096726 0.885845 -29.298847 8.840142 -3.065299 21.310068 -7.424064 -16.524230 17.474662 0.000000 0.000000 0.000000 3.201413 -0.910500 10.894927 6.143199 -0.476471 -27.529899 -4.796129 -9.114391 28.884507 -3.515723 3.592022 -22.942082 0.000000 0.000000 0.000000 -29.486548 4.391830 -5.264373 -45.622078 -7.208931 -5.032213 -21.101899 -35.052980 8.652909 0.000000 0.000000 0.000000 16.378143 -0.934549 -1.035314 47.885489 -1.303960 -7.550624 14.406540 38.119334 6.809621 0.000000 0.000000 0.000000 
0.175850 1.066700 1.505971 -3.550074 14.829013 -3.408405 8.408831 -0.462214 7.538481 -7.110076 -0.714215 39.483070 1.698578 9.440260 15.359140 0.000000 0.000000 0.000000 -1.314209 1.428204 -26.285964 9.049144 -3.132445 21.504176 -6.994485 -16.017847 16.199047 0.000000 0.000000 0.000000 3.536001 -1.021741 11.666613 6.938983 -0.655800 -27.937927 -4.270457 -6.714118 28.152463 -2.284631 3.153077 -22.977543 0.000000 0.000000 0.000000 -30.297321 4.512037 -6.283477 -44.980469 -5.876163 -5.106582 -22.599303 -33.880699 8.593319 0.000000 0.000000 0.000000 15.522611 -0.090296 -0.202454 47.099418 -0.343542 -7.065971 16.695119 42.260122 8.794085 0.000000 0.000000 0.000000 
0.176599 1.079841 1.544351 -3.008028 13.869959 -3.835510 8.411337 -0.358944 -0.497595 -10.470762 0.326472 49.653537 5.475560 14.847369 16.663722 0.000000 0.000000 0.000000 -0.494355 1.564601 -22.375805 8.185859 -2.661633 20.470535 -6.797655 -15.868896 15.339088 0.000000 0.000000 0.000000 2.623512 -1.052952 13.192021 6.156346 -0.463115 -28.618058 -2.632354 -4.876800 28.865779 -1.142231 2.732526 -24.568686 0.000000 0.000000 0.000000 -30.177114 3.884187 -6.264304 -44.376546 -6.066281 -4.923957 -23.412145 -34.557346 8.936035 0.000000 0.000000 0.000000 15.056074 0.679068 0.469306 46.051586 2.298146 -6.160844 19.191543 46.351290 11.162840 0.000000 0.000000 0.000000 
0.178215 1.091444 1.577172 -2.303310 12.705949 -3.461770 8.561170 -0.448189 -7.281227 -13.743475 2.411661 52.146258 8.730351 18.890151 12.410212 0.000000 0.000000 0.000000 -0.075003 1.565789 -19.587484 6.955437 -2.044180 19.135601 -6.198007 -15.017099 14.356898 0.000000 0.000000 0.000000 1.570309 -0.964863 13.811961 5.796658 -0.419301 -27.996820 -1.107476 -2.133500 28.250038 0.318916 2.197863 -24.566417 0.000000 0.000000 0.000000 -30.438509 3.233553 -6.718392 -43.537134 -4.637006 -5.000851 -23.939293 -35.438077 9.103199 0.000000 0.000000 0.000000 15.296347 0.867565 0.910461 44.644345 5.071610 -5.088103 19.867351 52.388476 13.650333 0.000000 0.000000 0.000000 
0.180939 1.100612 1.605800 -1.351980 11.455261 -2.838414 7.835352 -0.649362 -12.680146 -14.446407 3.197686 48.722584 9.790911 20.222583 7.595541 0.000000 0.000000 0.000000 -0.258414 1.467799 -17.796860 5.798605 -1.520419 18.141018 -5.647367 -14.202281 13.059622 0.000000 0.000000 0.000000 0.296707 -0.821985 14.275012 5.470138 -0.341515 -28.379383 -0.005258 0.098728 28.595050 0.572962 2.320076 -24.828430 0.000000 0.000000 0.000000 -29.578068 3.284995 -7.107236 -43.976325 -3.731546 -5.248489 -24.420704 -36.237125 9.337505 0.000000 0.000000 0.000000 15.248452 1.821871 1.673398 43.630585 7.432228 -4.309658 19.984426 57.943479 15.891043 0.000000 0.000000 0.000000 
0.185205 1.106100 1.631609 -0.905882 10.144137 -2.027682 7.038916 -0.813676 -15.176538 -12.280308 2.377631 39.217251 9.515657 19.627693 5.229148 0.000000 0.000000 0.000000 0.012464 1.397803 -15.671968 4.781623 -1.043131 16.202520 -5.067334 -13.245868 11.412096 0.000000 0.000000 0.000000 -0.520477 -0.675566 13.952833 5.561103 -0.399254 -27.697687 0.531528 2.246114 28.104042 0.417015 2.662499 -25.110987 0.000000 0.000000 0.000000 -28.880488 3.396944 -7.550180 -44.183990 -2.789239 -5.409943 -24.249631 -36.628332 9.214351 0.000000 0.000000 0.000000 14.116020 1.271346 1.518881 44.408369 9.542478 -3.523347 18.784214 62.685768 17.333430 0.000000 0.000000 0.000000 
0.190743 1.111316 1.655746 -0.413887 9.033238 -1.445938 6.354718 -0.838149 -14.873513 -8.219315 1.015118 26.721247 7.008113 15.408361 5.454571 0.000000 0.000000 0.000000 -0.012577 1.304395 -14.241354 3.837280 -0.692268 15.120774 -4.857968 -12.930852 10.426892 0.000000 0.000000 0.000000 -1.429896 -0.540608 13.949780 5.798292 -0.458017 -27.597543 0.812381 3.377211 28.145232 0.530111 2.665753 -24.973798 0.000000 0.000000 0.000000 -29.333727 4.167236 -8.318751 -43.740315 -1.907388 -5.611246 -23.686685 -36.522271 8.960973 0.000000 0.000000 0.000000 14.745255 1.256399 1.628027 44.103150 11.031539 -3.072322 19.566429 65.320808 18.963104 0.000000 0.000000 0.000000 
0.197718 1.115175 1.678425 -0.128827 9.207484 -1.561736 5.058478 -0.872518 -13.545368 -4.562353 0.134331 18.321053 3.861279 10.106239 6.009220 0.000000 0.000000 0.000000 -0.290499 1.020615 -11.100448 3.462601 -0.528828 11.859567 -4.718207 -12.685251 10.747431 0.000000 0.000000 0.000000 -1.353786 -0.554165 13.980910 4.554964 -0.209194 -27.049436 0.870906 2.685129 27.921109 0.802707 2.409490 -25.103634 0.000000 0.000000 0.000000 -28.807310 4.234629 -7.992560 -44.583089 -1.433092 -5.958990 -22.015577 -35.647829 8.247809 0.000000 0.000000 0.000000 15.737361 1.293622 1.609400 45.266703 12.659894 -2.514066 15.669620 65.283843 16.353739 0.000000 0.000000 0.000000 
0.205807 1.119224 1.699671 -0.282585 8.789938 -2.017669 4.396466 -0.770572 -11.453803 -3.654045 0.091142 13.520963 2.685248 8.039382 6.108003 0.000000 0.000000 0.000000 -0.205426 0.794169 -8.315258 3.413134 -0.474310 9.795659 -4.117174 -11.533347 10.177290 0.000000 0.000000 0.000000 -1.786441 -0.488067 13.803216 4.813202 -0.303955 -26.368536 0.789569 2.792549 27.305486 1.844971 1.686421 -24.214695 0.000000 0.000000 0.000000 -28.996386 3.199451 -7.295335 -44.774454 -0.739669 -6.205946 -19.945687 -34.175848 7.260111 0.000000 0.000000 0.000000 18.116142 1.447660 1.787228 44.507886 12.562753 -2.622002 14.557683 64.632582 15.201667 0.000000 0.000000 0.000000 
0.215018 1.119382 1.718830 -0.729308 7.978299 -1.731422 4.617603 -0.650229 -9.969508 -2.799341 0.029952 10.684414 1.871399 7.709554 9.330362 0.000000 0.000000 0.000000 -0.280033 0.685725 -7.101902 3.656153 -0.502917 9.485582 -3.774619 -10.817269 9.011161 0.000000 0.000000 0.000000 -1.875738 -0.402796 12.339723 4.853407 -0.401403 -25.007273 0.804279 1.958115 26.779399 1.798703 1.505949 -24.302739 0.000000 0.000000 0.000000 -28.420547 3.820698 -7.068143 -46.076170 0.009709 -6.781149 -18.621205 -32.684869 6.651863 0.000000 0.000000 0.000000 18.145739 1.632315 1.579996 46.301350 12.009406 -2.700596 14.458041 61.335126 13.873375 0.000000 0.000000 0.000000 
0.224581 1.119611 1.734677 -0.999644 7.159002 -1.238751 4.910360 -0.514601 -7.989585 -3.153415 0.165609 8.460341 2.388928 8.111251 8.144823 0.000000 0.000000 0.000000 -0.367904 0.627231 -6.473549 3.532744 -0.455459 9.303800 -3.501671 -10.253046 8.342752 0.000000 0.000000 0.000000 -2.048241 -0.321560 11.043781 5.078621 -0.463124 -25.015822 0.560777 1.422949 26.556638 2.361337 0.946174 -23.701200 0.000000 0.000000 0.000000 -28.892842 4.025248 -6.932797 -45.970468 0.160789 -6.884128 -18.391774 -31.691365 6.461564 0.000000 0.000000 0.000000 19.311923 1.581198 1.337522 46.365863 10.927789 -3.053201 15.570902 56.683444 12.795221 0.000000 0.000000 0.000000 
0.233755 1.118495 1.747363 -1.121121 6.580544 -1.021960 4.685228 -0.413900 -6.068779 -3.356588 0.240867 6.664059 2.476828 8.174387 8.032562 0.000000 0.000000 0.000000 -0.155350 0.586808 -5.917083 3.118264 -0.356687 9.420646 -3.034708 -9.216919 7.589320 0.000000 0.000000 0.000000 -2.196691 -0.281721 10.506594 5.384840 -0.518084 -25.497634 0.012141 0.760953 26.734207 1.846431 1.151019 -24.365704 0.000000 0.000000 0.000000 -28.371489 4.641981 -6.820074 -46.094992 0.116849 -7.026411 -18.829091 -30.903408 6.504189 0.000000 0.000000 0.000000 20.114611 1.429288 1.033717 47.857270 9.685841 -3.548089 15.012299 51.921822 11.036205 0.000000 0.000000 0.000000 
0.241919 1.118354 1.757601 -1.172202 7.101753 -1.019678 4.759575 -0.331539 -4.421732 -3.824258 0.322490 5.015246 2.279976 7.828965 7.920951 0.000000 0.000000 0.000000 -0.342321 0.489505 -4.970232 3.340527 -0.411462 8.935242 -3.077855 -9.209851 7.207207 0.000000 0.000000 0.000000 -2.427524 -0.257589 10.279190 5.214132 -0.471244 -25.463332 0.045865 -0.336411 26.263982 1.366261 1.299061 -24.303650 0.000000 0.000000 0.000000 -29.078586 5.213094 -7.073777 -45.355291 -0.677731 -6.651487 -19.156284 -29.099105 6.233746 0.000000 0.000000 0.000000 20.614403 1.099922 0.622982 48.401615 8.663424 -3.874546 13.399819 45.680794 8.551524 0.000000 0.000000 0.000000 
0.248733 1.118403 1.766039 -0.757553 6.382599 -0.827353 4.284216 -0.265173 -3.184865 -4.148499 0.382489 3.972242 2.376537 7.914646 7.853928 0.000000 0.000000 0.000000 -0.823244 0.432150 -4.523872 2.873749 -0.300409 8.777544 -3.131547 -9.210756 6.195525 0.000000 0.000000 0.000000 -2.438354 -0.219014 9.373341 4.431059 -0.283961 -25.682747 0.061210 -0.442352 27.187490 0.914685 1.534876 -25.052118 0.000000 0.000000 0.000000 -28.610288 4.778535 -6.445643 -45.866500 -0.837766 -6.817569 -18.231834 -29.831754 6.215636 0.000000 0.000000 0.000000 21.435204 0.560558 0.196815 49.783146 7.845039 -4.333328 11.060423 42.759526 6.982716 0.000000 0.000000 0.000000 
0.254122 1.119022 1.772497 -0.977114 6.382915 -0.027957 4.310441 -0.236589 -2.486761 -3.771599 0.347578 1.949521 2.217071 7.691383 8.020336 0.000000 0.000000 0.000000 -0.870347 0.463892 -4.856799 3.214530 -0.366957 8.392198 -2.387768 -7.572083 6.118354 0.000000 0.000000 0.000000 -2.939241 -0.138478 8.082012 4.474784 -0.310462 -25.320270 0.496539 -1.689651 26.320700 0.612539 1.413204 -23.606664 0.000000 0.000000 0.000000 -27.793216 6.057522 -6.679706 -47.772264 -1.361715 -6.951071 -18.291320 -27.131110 5.734752 0.000000 0.000000 0.000000 19.897996 1.172701 0.204955 52.276447 7.736257 -4.265981 8.679421 37.571516 5.033542 0.000000 0.000000 0.000000 
