HIERARCHY
ROOT Hips
{
	OFFSET -0.001795 -0.223333 0.028219
	CHANNELS 6 Xposition Yposition Zposition Zrotation Yrotation Xrotation 
	JOINT LeftUpLeg
	{
		OFFSET 0.069520 -0.091406 -0.006815
		CHANNELS 3 Zrotation Yrotation Xrotation
		JOINT LeftLeg
		{
			OFFSET 0.034277 -0.375199 -0.004496
			CHANNELS 3 Zrotation Yrotation Xrotation
			JOINT LeftFoot
			{
				OFFSET -0.013596 -0.397961 -0.043693
				CHANNELS 3 Zrotation Yrotation Xrotation
				JOINT LeftToe
				{
					OFFSET 0.026358 -0.055791 0.119288
					CHANNELS 3 Zrotation Yrotation Xrotation
					End Site
					{
						OFFSET 0.000000 0.000000 0.000000
					}
				}
			}
		}
	}
	JOINT RightUpLeg
	{
		OFFSET -0.067670 -0.090522 -0.004320
		CHANNELS 3 Zrotation Yrotation Xrotation
		JOINT RightLeg
		{
			OFFSET -0.038290 -0.382569 -0.008850
			CHANNELS 3 Zrotation Yrotation Xrotation
			JOINT RightFoot
			{
				OFFSET 0.015774 -0.398415 -0.042312
				CHANNELS 3 Zrotation Yrotation Xrotation
				JOINT RightToe
				{
					OFFSET -0.025372 -0.048144 0.123348
					CHANNELS 3 Zrotation Yrotation Xrotation
					End Site
					{
						OFFSET 0.000000 0.000000 0.000000
					}
				}
			}
		}
	}
	JOINT Spine
	{
		OFFSET -0.002533 0.108963 -0.026696
		CHANNELS 3 Zrotation Yrotation Xrotation
		JOINT Spine1
		{
			OFFSET 0.005487 0.135180 0.001092
			CHANNELS 3 Zrotation Yrotation Xrotation
			JOINT Spine2
			{
				OFFSET 0.001457 0.052922 0.025425
				CHANNELS 3 Zrotation Yrotation Xrotation
				JOINT Neck
				{
					OFFSET -0.002778 0.213870 -0.042857
					CHANNELS 3 Zrotation Yrotation Xrotation
					JOINT Head
					{
						OFFSET 0.005152 0.064970 0.051349
						CHANNELS 3 Zrotation Yrotation Xrotation
						End Site
						{
							OFFSET 0.000000 0.000000 0.000000
						}
					}
				}
				JOINT LeftShoulder
				{
					OFFSET 0.078845 0.121749 -0.034090
					CHANNELS 3 Zrotation Yrotation Xrotation
					JOINT LeftArm
					{
						OFFSET 0.090977 0.030469 -0.008868
						CHANNELS 3 Zrotation Yrotation Xrotation
						JOINT LeftForeArm
						{
							OFFSET 0.259612 -0.012772 -0.027456
							CHANNELS 3 Zrotation Yrotation Xrotation
							JOINT LeftHand
							{
								OFFSET 0.249234 0.008986 -0.001171
								CHANNELS 3 Zrotation Yrotation Xrotation
								End Site
								{
									OFFSET 0.000000 0.000000 0.000000
								}
							}
						}
					}
				}
				JOINT RightShoulder
				{
					OFFSET -0.081759 0.118833 -0.038615
					CHANNELS 3 Zrotation Yrotation Xrotation
					JOINT RightArm
					{
						OFFSET -0.096012 0.032551 -0.009143
						CHANNELS 3 Zrotation Yrotation Xrotation
						JOINT RightForeArm
						{
							OFFSET -0.253742 -0.013329 -0.021401
							CHANNELS 3 Zrotation Yrotation Xrotation
							JOINT RightHand
							{
								OFFSET -0.255298 0.007772 -0.005559
								CHANNELS 3 Zrotation Yrotation Xrotation
								End Site
								{
									OFFSET 0.000000 0.000000 0.000000
								}
							}
						}
					}
				}
			}
		}
	}
}
MOTION
Frames: 41
Frame Time: 0.050000
-0.003941 0.927531 0.109657 -3.389750 6.334909 -14.983536 4.591243 0.621448 30.932211 0.782039 -0.503939 8.507468 -3.047778 5.802653 26.315075 0.000000 0.000000 0.000000 1.750287 1.127623 -9.894599 3.618273 -0.664596 19.395689 -0.450828 -8.850212 30.722602 0.000000 0.000000 0.000000 -1.158196 -3.416960 53.510229 39.845382 15.305166 -93.504837 -14.038745 33.757609 77.407525 2.557255 10.027438 -26.627718 0.000000 0.000000 0.000000 -35.718936 -2.626829 -12.486643 -33.408488 -2.430277 -8.227369 -21.952996 -33.477175 7.897683 0.000000 0.000000 0.000000 44.178289 2.261256 19.996907 29.366165 18.424525 -11.671175 -1.201054 23.520983 0.404143 0.000000 0.000000 0.000000 
-0.006429 0.941459 0.159455 -3.636877 4.931880 -15.232017 6.231286 0.365252 26.626484 -1.471914 -0.495431 18.405086 -3.332477 6.453977 30.528282 0.000000 0.000000 0.000000 2.735821 0.887912 -6.977248 3.968831 -0.691664 19.737861 -0.141208 -8.306185 28.413051 0.000000 0.000000 0.000000 0.053573 -3.722475 53.685660 40.557947 13.468122 -88.417658 -14.433747 34.243146 70.014309 1.256053 10.711318 -20.762273 0.000000 0.000000 0.000000 -37.820087 -2.983257 -15.117903 -31.220305 2.513471 -6.994167 -22.063694 -31.742064 7.235555 0.000000 0.000000 0.000000 44.338423 3.408994 21.003441 28.022651 17.169557 -10.410001 -0.452487 24.328102 0.394361 0.000000 0.000000 0.000000 
-0.008560 0.953464 0.201426 -3.223753 4.703133 -15.789471 7.470383 0.163006 18.525067 -5.254525 0.201736 32.540682 0.075591 10.565605 32.274721 0.000000 0.000000 0.000000 3.747398 0.367118 -2.486215 2.379240 -0.183984 17.463073 -0.601445 -9.029931 28.680657 0.000000 0.000000 0.000000 -0.536747 -3.508531 55.342657 38.194355 13.011163 -89.070272 -11.038774 31.869223 71.767517 1.814023 9.605216 -18.938488 0.000000 0.000000 0.000000 -40.284192 -3.762480 -14.430497 -29.391986 3.574192 -6.939070 -22.058041 -30.602181 7.192540 0.000000 0.000000 0.000000 42.955863 4.537913 20.532403 26.275596 17.207373 -9.823376 0.167067 27.111770 0.521941 0.000000 0.000000 0.000000 
-0.009606 0.965374 0.238156 -2.564615 3.994770 -16.362648 7.667565 0.167505 10.382893 -8.988083 1.865435 43.350308 3.021118 13.004414 28.364674 0.000000 0.000000 0.000000 4.097390 -0.289718 2.290737 1.189608 0.148162 14.201419 -0.594460 -9.173094 28.569398 0.000000 0.000000 0.000000 -1.735537 -2.856285 57.687818 35.628378 11.244858 -85.944714 -7.552953 29.790390 67.854095 1.831433 8.634111 -16.424238 0.000000 0.000000 0.000000 -42.291146 -4.640813 -14.424094 -27.593161 5.083167 -6.111146 -21.766810 -28.950454 6.737435 0.000000 0.000000 0.000000 42.858798 5.062069 19.945774 24.736052 16.675286 -8.772638 -0.447105 29.983631 0.441131 0.000000 0.000000 0.000000 
-0.009514 0.977697 0.273937 -1.848237 3.196062 -16.055749 6.956828 0.076411 1.711082 -12.405004 4.078874 48.077407 6.849728 16.746414 22.283447 0.000000 0.000000 0.000000 3.485279 -0.811323 6.146703 0.676285 0.238294 11.249140 -0.100571 -8.684196 28.456751 0.000000 0.000000 0.000000 -2.936374 -2.063507 59.551439 32.443549 10.389214 -85.477091 -3.614353 27.693139 67.056679 1.772343 8.115584 -16.129344 0.000000 0.000000 0.000000 -43.341365 -4.963805 -13.672911 -27.025847 5.339467 -5.983072 -21.357814 -28.343364 6.547340 0.000000 0.000000 0.000000 41.080020 6.347242 19.209296 24.386231 16.437490 -8.149510 0.416854 32.616528 0.726901 0.000000 0.000000 0.000000 
-0.008034 0.988266 0.310972 -0.993835 3.175097 -15.910330 6.485353 -0.193405 -6.315507 -13.732499 4.809988 46.984710 7.817404 17.839464 20.762732 0.000000 0.000000 0.000000 2.359700 -1.324710 10.554989 0.179051 0.261932 8.308394 0.835786 -7.432128 28.396594 0.000000 0.000000 0.000000 -4.175977 -1.344032 60.471409 30.165200 9.185026 -83.378852 -1.503158 26.781520 64.481084 1.110762 8.337250 -15.331707 0.000000 0.000000 0.000000 -43.677321 -5.078824 -13.721754 -26.751693 5.768382 -5.660378 -21.607906 -27.493042 6.390853 0.000000 0.000000 0.000000 39.595770 6.562328 18.378805 24.801142 17.351326 -7.631400 -0.008015 34.896362 0.909361 0.000000 0.000000 0.000000 
-0.005175 0.994889 0.351005 -0.571898 2.526056 -15.574896 6.112031 -0.428066 -11.356013 -12.666540 3.932743 38.923775 7.841694 17.830144 20.467682 0.000000 0.000000 0.000000 1.654296 -1.693945 14.142630 -0.563824 0.297445 5.495144 2.444532 -5.538804 29.087236 0.000000 0.000000 0.000000 -5.508957 -0.392248 61.581724 29.922799 9.263721 -83.489375 0.964962 27.018713 64.794525 0.193314 9.522664 -16.569498 0.000000 0.000000 0.000000 -43.646685 -5.332282 -14.097148 -27.038950 6.491237 -5.643655 -22.406853 -27.114957 6.472648 0.000000 0.000000 0.000000 37.225381 6.891321 17.672683 24.803280 18.508379 -7.155497 0.727148 36.624267 1.257624 0.000000 0.000000 0.000000 
-0.000923 0.996028 0.394945 -0.283507 2.365274 -15.068044 5.613718 -0.634608 -14.394895 -10.139573 2.347314 27.552956 5.793914 15.353558 21.834066 0.000000 0.000000 0.000000 1.240523 -2.054399 17.547337 -1.046009 0.294287 3.707942 3.223611 -4.626156 29.485082 0.000000 0.000000 0.000000 -6.066976 -0.004712 61.838250 26.831710 8.511096 -83.465795 3.069378 25.269703 64.328307 -1.630273 10.806393 -16.249924 0.000000 0.000000 0.000000 -44.175130 -5.510744 -13.073660 -26.731008 6.735185 -5.746013 -22.678499 -26.920092 6.524801 0.000000 0.000000 0.000000 35.353623 7.236361 16.528181 24.951229 18.869323 -6.830895 1.680120 39.228532 1.907413 0.000000 0.000000 0.000000 
0.004841 0.987872 0.443299 -0.404387 0.925358 -14.841983 5.554587 -0.608587 -14.561040 -6.904230 1.101019 14.566417 4.776547 13.882673 21.796110 0.000000 0.000000 0.000000 1.202994 -2.396958 21.056181 -1.503226 0.306566 2.656623 3.925030 -3.632371 28.356224 0.000000 0.000000 0.000000 -5.961937 0.373828 60.975771 26.241536 7.542469 -80.544629 3.031895 25.733776 61.496059 -1.753539 10.678334 -15.338872 0.000000 0.000000 0.000000 -44.402296 -4.638693 -14.228410 -26.392466 8.053129 -5.589241 -23.803783 -26.373436 6.642889 0.000000 0.000000 0.000000 35.080074 7.654104 16.614600 23.602533 19.395547 -6.298341 2.005495 42.150665 2.279197 0.000000 0.000000 0.000000 
0.012428 0.973944 0.496225 -0.666162 -1.088113 -15.362570 6.453237 -0.369293 -13.321540 -4.713978 0.587393 6.039842 4.676988 13.459078 21.814615 0.000000 0.000000 0.000000 0.709152 -2.532082 24.485208 -1.762610 0.370902 3.204747 4.303282 -2.890429 26.404274 0.000000 0.000000 0.000000 -6.582165 1.338168 61.672835 27.389203 8.957853 -84.472259 4.836022 27.571594 67.272213 -1.829379 11.995352 -20.500938 0.000000 0.000000 0.000000 -42.742082 -4.202864 -14.877521 -28.189130 7.611716 -6.357087 -22.514714 -25.886707 6.181945 0.000000 0.000000 0.000000 34.114264 7.607488 16.905422 22.679123 21.730032 -6.461305 2.792800 43.389965 2.595790 0.000000 0.000000 0.000000 
0.022377 0.957146 0.553316 -0.783281 -2.830829 -15.784981 6.904454 -0.244378 -13.189204 -3.854603 0.471621 6.413349 4.850141 13.379348 21.568828 0.000000 0.000000 0.000000 -0.219340 -2.463040 27.887260 -1.892956 0.467463 4.536245 4.832966 -1.771383 24.506504 0.000000 0.000000 0.000000 -8.413562 2.767374 59.706686 34.315754 9.252229 -80.223410 3.305793 33.474301 67.078738 -2.108442 13.778134 -24.454714 0.000000 0.000000 0.000000 -42.603387 -5.551536 -17.666030 -27.451767 8.803805 -5.543893 -21.572879 -24.274017 5.445361 0.000000 0.000000 0.000000 36.167348 7.831528 19.522002 19.278673 23.159629 -6.193784 0.345983 43.695078 1.019130 0.000000 0.000000 0.000000 
0.035671 0.945237 0.615187 -0.785626 -3.608793 -15.740141 6.867803 -0.257884 -14.575464 -5.733853 1.005821 13.908212 5.434214 14.268826 23.891777 0.000000 0.000000 0.000000 -1.618336 -2.188110 30.475315 -2.421985 0.703130 6.884454 4.649609 -1.870493 23.640219 0.000000 0.000000 0.000000 -10.928380 4.080023 57.066948 38.350815 8.755942 -77.060423 2.719824 36.329494 67.453382 -0.843829 13.524092 -23.886476 0.000000 0.000000 0.000000 -42.251237 -6.368630 -18.604698 -27.918521 8.785658 -5.351087 -18.859579 -23.126565 4.562818 0.000000 0.000000 0.000000 37.993057 8.836752 21.817843 18.048691 22.943586 -6.283242 -4.107771 42.791490 -1.048339 0.000000 0.000000 0.000000 
0.053128 0.945579 0.680484 -0.698036 -3.480681 -14.804341 6.462139 -0.367834 -15.968341 -7.367389 1.684077 20.172558 4.858304 13.861459 26.427843 0.000000 0.000000 0.000000 -3.443376 -1.619179 28.948198 -1.926027 1.023032 12.895992 5.714421 -1.446760 26.759508 0.000000 0.000000 0.000000 -13.441973 5.024506 54.339828 44.619613 8.888506 -73.758706 0.216040 40.433318 66.570100 0.042723 13.649464 -27.479405 0.000000 0.000000 0.000000 -41.869300 -6.841569 -21.059224 -27.783104 9.167357 -4.657816 -17.728054 -22.476085 4.082622 0.000000 0.000000 0.000000 38.894620 7.294967 22.621423 19.502241 22.406263 -6.704844 -5.847670 41.884353 -1.536824 0.000000 0.000000 0.000000 
0.072873 0.958579 0.744163 -0.057589 -1.520127 -14.917474 3.670706 -0.762268 -13.871047 -7.299170 1.625775 22.721610 5.178335 14.372860 24.912306 0.000000 0.000000 0.000000 -4.553607 -1.340538 24.930652 -1.810484 1.621153 22.616651 5.753288 -3.764923 34.790531 0.000000 0.000000 0.000000 -14.539057 5.188731 55.008509 43.715837 7.893677 -71.856276 -1.322128 38.394649 60.399814 1.410468 11.441833 -22.163341 0.000000 0.000000 0.000000 -41.794259 -6.420334 -20.129923 -28.073206 8.796905 -4.430916 -18.657530 -21.606661 4.074530 0.000000 0.000000 0.000000 39.179205 6.236759 21.320572 22.667411 18.311250 -6.925025 -2.845283 40.955232 -0.170940 0.000000 0.000000 0.000000 
0.091665 0.979273 0.802422 -0.164915 0.663343 -15.519067 1.080549 -0.765968 -9.325713 -6.265027 1.090205 21.770328 4.291477 13.647884 25.105187 0.000000 0.000000 0.000000 -4.643072 -1.119429 18.204042 -0.672808 1.819764 36.012926 4.098716 -6.438986 38.633307 0.000000 0.000000 0.000000 -14.043419 4.560390 57.421642 39.794444 7.962992 -73.800194 -0.928863 33.960396 59.266247 0.546891 11.094593 -22.761536 0.000000 0.000000 0.000000 -41.605691 -6.519208 -17.099386 -28.613503 6.747314 -4.634518 -19.367086 -23.260984 4.606753 0.000000 0.000000 0.000000 37.831378 4.914197 18.418842 26.384816 15.706433 -7.502524 0.952775 39.601280 1.677463 0.000000 0.000000 0.000000 
0.107441 1.004199 0.856397 -0.301954 1.719806 -16.084684 -0.742215 -0.315576 -3.106515 -4.372223 0.451579 18.220624 3.583256 13.124663 26.199168 0.000000 0.000000 0.000000 -4.110238 -0.680411 9.770444 0.642997 1.401469 47.504555 0.736333 -9.663985 35.901812 0.000000 0.000000 0.000000 -13.049700 3.803235 58.546036 38.235507 8.015439 -74.936539 -2.455603 31.216315 58.819454 1.669874 9.354936 -20.984852 0.000000 0.000000 0.000000 -41.922453 -6.395218 -15.239012 -28.444069 5.692095 -4.871531 -19.972923 -26.230554 5.449601 0.000000 0.000000 0.000000 38.296481 5.535787 18.012735 27.236405 13.781005 -7.780089 2.549140 37.970806 2.024001 0.000000 0.000000 0.000000 
0.120737 1.026080 0.908466 -1.238769 2.762562 -16.782084 -1.102938 0.426409 4.537816 -2.398363 0.008290 12.557606 1.531718 11.090974 27.326021 0.000000 0.000000 0.000000 -3.076644 -0.253026 2.860268 2.299603 0.077070 51.481834 -1.071425 -11.029466 31.791658 0.000000 0.000000 0.000000 -11.264572 2.507539 59.581605 38.410741 8.483447 -76.437063 -4.467031 30.946469 59.327211 2.336835 8.564975 -19.370119 0.000000 0.000000 0.000000 -41.551923 -5.913910 -15.262077 -28.100901 4.234067 -4.701653 -20.520595 -27.932653 5.959261 0.000000 0.000000 0.000000 39.322953 4.915813 18.149901 27.285105 13.025779 -8.152176 3.914342 36.239265 2.225509 0.000000 0.000000 0.000000 
0.131623 1.042326 0.959005 -1.831991 4.125775 -17.286369 -1.033851 1.037706 11.590235 -1.546664 -0.019908 6.872790 0.301402 10.151333 28.590340 0.000000 0.000000 0.000000 -2.490769 0.162847 -2.551542 3.895141 -1.285059 47.270938 -2.435842 -12.404791 30.909310 0.000000 0.000000 0.000000 -10.293074 1.535248 60.092181 38.543824 9.367794 -78.961955 -5.183181 30.326341 61.679607 3.339325 7.449937 -17.722292 0.000000 0.000000 0.000000 -40.900337 -5.357511 -14.801931 -28.611407 2.405942 -4.911343 -20.484003 -30.307635 6.509316 0.000000 0.000000 0.000000 39.120288 3.698316 17.205798 28.431974 12.515096 -8.808755 4.811181 34.385215 2.445483 0.000000 0.000000 0.000000 
0.140319 1.049671 1.008304 -2.553085 4.890048 -18.252440 -0.004191 1.326915 17.585502 -1.640511 0.081741 3.633562 -0.961575 8.778546 28.397854 0.000000 0.000000 0.000000 -1.395166 0.536274 -6.452955 4.385166 -1.401230 37.711633 -3.261305 -13.375899 32.751204 0.000000 0.000000 0.000000 -9.828470 0.979160 60.893671 38.965316 9.869842 -80.303104 -5.472874 30.298699 62.903901 3.742466 7.114016 -17.186025 0.000000 0.000000 0.000000 -39.548157 -4.605701 -14.789812 -29.134948 0.672255 -4.925885 -21.086049 -31.746410 6.950131 0.000000 0.000000 0.000000 38.659162 2.421304 16.382361 28.906517 11.695217 -9.262541 6.266647 33.640415 2.861862 0.000000 0.000000 0.000000 
0.147144 1.048808 1.057144 -2.762048 7.121118 -18.692138 0.704047 1.317530 22.312660 -1.658836 0.124222 1.758696 -2.038682 7.601993 27.413788 0.000000 0.000000 0.000000 -1.400156 0.746679 -9.311628 4.538709 -1.222147 25.183450 -3.642664 -13.332310 33.702895 0.000000 0.000000 0.000000 -9.461053 0.078627 61.438321 39.433698 10.461897 -81.945185 -6.348434 30.331293 64.238809 3.479184 7.593919 -16.914886 0.000000 0.000000 0.000000 -38.334980 -5.123772 -13.849148 -29.194466 -1.589446 -4.783161 -21.296725 -32.819104 7.198161 0.000000 0.000000 0.000000 38.349623 1.586657 16.075162 30.167099 10.919813 -9.950933 6.096929 33.483456 2.932981 0.000000 0.000000 0.000000 
0.152976 1.042487 1.106925 -2.615043 8.925593 -18.935765 0.947043 1.225004 25.576054 -1.407662 0.084363 1.982238 -2.156964 7.000132 24.920172 0.000000 0.000000 0.000000 -1.312259 0.781235 -9.973331 3.030778 -0.448223 11.842796 -3.535683 -12.707815 34.518884 0.000000 0.000000 0.000000 -9.757940 -0.260174 60.969737 37.376551 10.034708 -82.384925 -6.549155 27.297430 64.150681 2.163693 8.245032 -17.618777 0.000000 0.000000 0.000000 -39.335020 -5.075609 -12.256971 -27.690842 -3.728843 -4.594229 -19.954011 -34.400153 7.319293 0.000000 0.000000 0.000000 38.697926 1.736199 15.405264 29.911987 9.091820 -10.208727 7.161946 33.005030 3.201376 0.000000 0.000000 0.000000 
0.158262 1.035125 1.159569 -2.348115 11.526849 -19.139592 1.174409 0.929028 28.422923 -0.995747 0.010791 2.601839 -3.399674 5.165728 23.035973 0.000000 0.000000 0.000000 -1.751279 0.663477 -9.529903 1.181095 -0.130254 1.286911 -2.556476 -10.769616 34.095057 0.000000 0.000000 0.000000 -9.240575 -1.206768 59.984891 38.438735 11.978483 -87.571371 -8.281826 28.843424 71.037374 0.626341 11.166373 -22.749934 0.000000 0.000000 0.000000 -37.187176 -5.270508 -11.132538 -28.842006 -7.001896 -5.358612 -19.384162 -35.253566 7.344981 0.000000 0.000000 0.000000 39.015695 1.531909 16.507524 29.951497 10.675156 -11.166495 5.221024 32.797967 2.511178 0.000000 0.000000 0.000000 
0.163262 1.027974 1.215989 -2.243488 12.520565 -19.394543 1.432415 0.714654 31.364845 -0.479753 -0.085835 3.461468 -3.479572 4.633840 21.611170 0.000000 0.000000 0.000000 -1.586024 0.654244 -9.349327 0.642923 -0.132121 -1.627760 -1.812534 -9.754745 35.179756 0.000000 0.000000 0.000000 -8.394878 -1.840181 59.685146 40.410220 12.927160 -88.304334 -10.579023 30.905724 69.956154 1.414537 10.631971 -19.495861 0.000000 0.000000 0.000000 -36.919623 -5.257085 -12.373522 -29.042897 -6.361546 -5.073223 -21.132287 -35.116354 7.712895 0.000000 0.000000 0.000000 39.078450 1.239654 17.089535 30.592031 10.688925 -11.375772 4.230053 32.353890 2.192576 0.000000 0.000000 0.000000 
0.167710 1.024678 1.277393 -2.182986 13.905700 -19.685409 1.678231 0.341417 34.541793 0.179174 -0.228667 4.652763 -4.170656 3.835672 21.621947 0.000000 0.000000 0.000000 -1.141981 0.685517 -9.325347 0.426135 -0.006821 2.222337 -1.840806 -9.831120 37.645953 0.000000 0.000000 0.000000 -6.684002 -2.945321 58.604049 41.179441 14.909742 -92.860180 -11.634215 34.203743 75.814647 2.289917 11.845388 -24.245723 0.000000 0.000000 0.000000 -35.829335 -5.879107 -12.538662 -29.910327 -6.577694 -5.908843 -21.205849 -35.422687 7.799262 0.000000 0.000000 0.000000 40.705873 0.486083 18.976579 28.935040 13.386835 -12.042664 1.526999 31.975150 1.180948 0.000000 0.000000 0.000000 
0.171369 1.027328 1.341495 -2.289633 14.336724 -19.297411 2.329228 -0.013368 35.859997 0.571396 -0.434131 7.213382 -4.199216 4.709874 24.089765 0.000000 0.000000 0.000000 -1.061953 0.703173 -9.512113 1.992279 -0.274261 7.176999 -1.950607 -10.074896 38.614047 0.000000 0.000000 0.000000 -5.193443 -3.409864 55.608311 45.196286 16.534872 -93.802199 -14.316203 39.446517 77.718280 3.583358 12.604683 -24.957725 0.000000 0.000000 0.000000 -34.217153 -5.382155 -15.033685 -32.477659 -4.662455 -6.651343 -22.324551 -34.894489 7.851821 0.000000 0.000000 0.000000 41.287826 -0.315051 20.547981 28.257629 15.497492 -12.312563 -1.177616 33.699472 0.372785 0.000000 0.000000 0.000000 
0.174026 1.037442 1.403664 -2.469724 12.310220 -18.773435 3.047308 0.136894 35.227796 0.239883 -0.645196 11.512972 -4.422252 5.104164 26.945067 0.000000 0.000000 0.000000 0.174071 0.835572 -9.060652 3.358088 -0.614765 11.006640 -1.578533 -9.848015 36.549793 0.000000 0.000000 0.000000 -3.600425 -3.486095 54.002544 46.090631 16.604940 -93.063262 -15.322850 40.521708 76.224979 3.084602 13.054105 -24.979953 0.000000 0.000000 0.000000 -35.071575 -4.888491 -16.629667 -32.899275 -1.955841 -6.750324 -22.841415 -34.032190 7.806169 0.000000 0.000000 0.000000 40.987508 0.239910 21.045697 27.734357 16.129317 -11.813962 -1.034294 35.550143 0.446954 0.000000 0.000000 0.000000 
0.175351 1.052535 1.459425 -3.478470 10.769453 -18.530123 5.129574 -0.200361 32.074173 -1.570491 -0.719971 19.052010 -4.299549 6.562905 32.048813 0.000000 0.000000 0.000000 2.321740 0.842583 -6.846986 3.207413 -0.576749 12.340304 -1.158554 -9.410925 35.089115 0.000000 0.000000 0.000000 -0.942540 -4.310692 52.807281 41.377346 18.017257 -100.202301 -10.595531 38.531444 86.551996 0.126627 15.351043 -28.330090 0.000000 0.000000 0.000000 -35.431475 -4.269669 -14.262285 -34.349202 -3.688012 -8.949494 -23.159845 -32.742889 8.179554 0.000000 0.000000 0.000000 36.881293 0.539873 18.233661 28.782980 16.917131 -12.608727 1.191479 37.909551 1.462501 0.000000 0.000000 0.000000 
0.175850 1.066700 1.505971 -4.113174 9.261804 -18.726041 7.085168 -0.334861 26.268753 -4.755847 -0.305377 28.954984 -2.221694 9.708576 37.191284 0.000000 0.000000 0.000000 4.011947 0.646407 -4.259722 3.187000 -0.542524 13.000836 -0.348600 -8.664753 34.714918 0.000000 0.000000 0.000000 -1.075210 -4.132483 53.795769 43.322564 16.890562 -95.639903 -9.084580 39.478295 81.143397 1.992445 13.830628 -25.269508 0.000000 0.000000 0.000000 -36.959564 -4.903929 -17.352123 -32.874635 0.100513 -7.243911 -24.706033 -31.240282 7.863516 0.000000 0.000000 0.000000 36.591932 1.208564 18.685723 27.364360 15.943006 -11.032243 0.907043 42.230034 1.556180 0.000000 0.000000 0.000000 
0.176599 1.079841 1.544351 -3.528406 8.857855 -18.725179 7.483708 -0.137472 19.274288 -6.985110 0.137644 36.816709 1.050240 12.687449 36.453233 0.000000 0.000000 0.000000 4.043205 0.243143 -1.281103 2.647862 -0.376105 12.277256 -0.181607 -8.599808 34.814549 0.000000 0.000000 0.000000 -2.385839 -3.499535 54.909692 40.391072 16.716726 -97.624419 -5.294009 36.356214 84.609666 2.094627 13.157802 -27.734508 0.000000 0.000000 0.000000 -38.174706 -5.296648 -15.726062 -31.791883 -1.315584 -7.410192 -25.148586 -32.060415 8.492177 0.000000 0.000000 0.000000 34.888311 2.312727 17.640076 26.364063 16.648986 -10.659985 2.733831 46.815952 2.755357 0.000000 0.000000 0.000000 
0.178215 1.091444 1.577172 -2.893345 8.312592 -18.433656 7.766945 -0.029213 13.659349 -9.175256 1.082592 38.570565 3.885443 14.891210 31.944620 0.000000 0.000000 0.000000 3.858427 -0.108440 1.188537 1.827878 -0.150441 11.176816 0.305701 -8.123567 34.681178 0.000000 0.000000 0.000000 -3.567155 -2.857159 55.912026 38.474679 15.588052 -96.463199 -2.379591 34.459217 83.714872 3.470272 11.452136 -26.875727 0.000000 0.000000 0.000000 -39.493787 -5.864819 -15.552812 -30.356260 -0.285028 -6.999107 -25.246765 -32.863223 8.781608 0.000000 0.000000 0.000000 34.756133 2.701874 17.278826 24.320672 17.853093 -9.729077 0.452851 52.432776 2.278590 0.000000 0.000000 0.000000 
0.180939 1.100612 1.605800 -1.986341 7.901921 -17.872453 6.986122 0.100042 8.959706 -9.309099 1.264032 35.475836 4.728716 15.322893 27.632961 0.000000 0.000000 0.000000 3.134898 -0.333558 2.802133 1.113908 0.023306 10.246918 0.532421 -7.833496 33.952364 0.000000 0.000000 0.000000 -4.873921 -2.113868 56.761203 36.385989 14.960385 -96.549401 -0.196816 32.467561 83.308066 3.172271 11.021028 -26.418524 0.000000 0.000000 0.000000 -39.576231 -5.453944 -15.045738 -30.471774 0.009921 -7.132446 -25.291637 -33.740578 9.077019 0.000000 0.000000 0.000000 33.955491 3.756998 16.902550 23.316236 18.474357 -9.058945 -1.672002 57.585525 1.748980 0.000000 0.000000 0.000000 
0.185205 1.106100 1.631609 -1.564623 7.046291 -16.991809 6.156557 0.153010 6.521483 -7.402065 0.810536 27.100319 4.265235 14.720272 26.718989 0.000000 0.000000 0.000000 2.967948 -0.554620 4.409709 0.466474 0.160388 8.819019 1.024835 -7.270514 33.231352 0.000000 0.000000 0.000000 -5.641769 -1.476574 56.465574 36.596532 14.283172 -94.208902 0.659070 33.134062 80.885975 2.995873 11.176530 -25.328443 0.000000 0.000000 0.000000 -39.401511 -5.529047 -15.914957 -30.110837 1.524177 -6.691544 -24.998869 -34.004401 8.882558 0.000000 0.000000 0.000000 33.551215 3.199786 16.517221 23.017489 20.089333 -8.535629 -6.027827 61.615323 0.236748 0.000000 0.000000 0.000000 
0.190743 1.111316 1.655746 -1.039108 6.374707 -16.970091 5.360925 0.245182 7.206723 -3.909889 0.117109 16.309346 1.440905 11.734698 28.125764 0.000000 0.000000 0.000000 2.562897 -0.785556 6.235493 -0.179327 0.279078 7.919164 1.090361 -7.215600 32.484074 0.000000 0.000000 0.000000 -6.810774 -0.728977 58.003334 37.256621 14.816023 -94.438395 1.312665 33.654551 80.695509 3.110983 11.195486 -25.612335 0.000000 0.000000 0.000000 -39.196320 -4.631668 -17.103161 -30.416581 2.540137 -6.851111 -24.727791 -33.903473 8.736442 0.000000 0.000000 0.000000 33.123177 2.947722 16.250329 23.305579 21.567990 -8.387530 -6.503055 64.301152 0.570660 0.000000 0.000000 0.000000 
0.197718 1.115175 1.678425 -0.740005 6.910750 -16.768698 4.186375 0.334629 7.787672 -1.022473 -0.246279 9.425156 -1.756282 8.331045 28.802177 0.000000 0.000000 0.000000 1.937616 -1.052637 8.426205 -0.292191 0.232222 5.685620 1.165878 -7.126659 32.999688 0.000000 0.000000 0.000000 -6.396091 -1.030429 57.130982 31.749406 12.726281 -94.470538 1.107435 28.839505 79.409522 2.960749 9.649837 -24.459981 0.000000 0.000000 0.000000 -40.707038 -4.335689 -14.279465 -29.757811 1.217031 -7.186361 -21.827700 -33.387070 8.058091 0.000000 0.000000 0.000000 35.105728 3.376954 16.158731 22.667964 22.482031 -8.477285 -8.416884 63.488634 -0.669082 0.000000 0.000000 0.000000 
0.205807 1.119224 1.699671 -0.973446 6.148537 -17.318781 3.896935 0.453403 9.756989 -0.550765 -0.145930 5.502451 -2.605713 7.176512 28.656286 0.000000 0.000000 0.000000 1.955918 -1.358985 10.761770 -0.355198 0.207256 4.441917 1.986820 -6.170923 32.655732 0.000000 0.000000 0.000000 -6.933339 -0.561533 56.868473 34.924453 13.710177 -94.143124 0.807273 31.796271 80.625192 4.890859 8.923249 -24.441787 0.000000 0.000000 0.000000 -40.017636 -5.623118 -14.601453 -30.310577 2.596896 -7.462935 -20.413076 -31.819388 7.168886 0.000000 0.000000 0.000000 37.330943 3.268714 17.938159 21.455195 23.564155 -8.661603 -11.448715 62.248345 -3.141609 0.000000 0.000000 0.000000 
0.215018 1.119382 1.718830 -1.355590 5.202041 -16.631221 4.105460 0.476673 10.437114 0.067806 -0.146220 3.501336 -3.046952 7.153268 31.113900 0.000000 0.000000 0.000000 1.818544 -1.394108 11.171084 -0.235273 0.196032 4.555027 2.456783 -5.637594 32.132419 0.000000 0.000000 0.000000 -7.202784 -0.188610 53.670277 39.192367 13.139325 -89.469389 -2.134654 35.185818 77.809851 5.875809 8.733942 -23.753934 0.000000 0.000000 0.000000 -39.489260 -5.948197 -16.108650 -30.539941 4.632217 -7.217728 -19.165455 -30.198585 6.263829 0.000000 0.000000 0.000000 40.003906 3.365225 20.143761 20.486732 24.256751 -8.683056 -11.903066 58.603622 -3.687389 0.000000 0.000000 0.000000 
0.224581 1.119611 1.734677 -1.570398 4.333681 -16.033882 4.313163 0.528889 11.852672 -0.223724 -0.048135 2.021564 -2.513330 7.389014 30.318128 0.000000 0.000000 0.000000 1.672317 -1.408464 11.463902 -0.396940 0.226602 4.586302 2.777678 -5.278170 31.614552 0.000000 0.000000 0.000000 -7.649231 0.204997 51.915498 43.097005 14.305915 -89.195668 -3.964504 38.409374 78.085304 7.463078 8.105879 -23.522299 0.000000 0.000000 0.000000 -38.732865 -6.147093 -17.549354 -30.937722 5.917502 -7.177401 -19.454178 -29.115002 5.922392 0.000000 0.000000 0.000000 41.417047 3.028217 21.453352 20.343095 24.550807 -8.885835 -8.911599 54.474769 -2.513300 0.000000 0.000000 0.000000 
0.233755 1.118495 1.747363 -1.713212 3.675682 -15.697223 4.169956 0.616669 13.251801 -0.455399 0.021607 0.833115 -2.388278 7.461058 30.550101 0.000000 0.000000 0.000000 1.851234 -1.449979 11.729465 -0.750559 0.293557 4.805868 3.301456 -4.583114 31.097888 0.000000 0.000000 0.000000 -7.821237 0.408988 50.875834 45.630707 15.068007 -88.903587 -5.951147 40.575927 77.543977 7.217172 9.025376 -24.601073 0.000000 0.000000 0.000000 -37.447223 -5.705083 -18.413213 -31.410151 6.605939 -7.227872 -20.041335 -28.350579 5.711865 0.000000 0.000000 0.000000 42.717559 2.643849 22.573072 21.420376 24.818464 -9.308277 -6.815714 50.064190 -1.486544 0.000000 0.000000 0.000000 
0.241919 1.118354 1.757601 -1.749957 4.165325 -15.873337 4.218230 0.647667 14.799158 -0.833105 0.097297 -0.324130 -2.560495 7.311507 30.394722 0.000000 0.000000 0.000000 1.595364 -1.559347 12.677947 -0.592499 0.257053 4.555126 3.281151 -4.471837 30.980441 0.000000 0.000000 0.000000 -8.395209 0.548525 50.862412 46.118064 15.181257 -88.982212 -6.642091 40.153075 76.648349 6.625464 9.360662 -24.148172 0.000000 0.000000 0.000000 -37.961380 -5.252710 -18.926815 -30.807711 6.132285 -6.867317 -20.481915 -26.553322 5.467992 0.000000 0.000000 0.000000 43.181755 2.233515 22.373148 22.314061 24.292518 -9.499260 -4.227264 44.113373 -0.440701 0.000000 0.000000 0.000000 
0.248733 1.118403 1.766039 -1.170581 4.135011 -15.465576 3.512653 0.765797 15.316582 -1.018507 0.127940 -0.763266 -2.720473 7.099811 30.407363 0.000000 0.000000 0.000000 0.843645 -1.504589 12.902624 -0.843220 0.288454 4.357120 2.921051 -4.779267 30.198668 0.000000 0.000000 0.000000 -8.197886 0.501424 49.171017 43.210388 15.266951 -91.350162 -6.423355 38.062120 80.198178 5.474948 9.930423 -26.476961 0.000000 0.000000 0.000000 -38.252393 -5.469751 -16.501823 -31.032605 4.277895 -7.550499 -19.006535 -27.531399 5.512573 0.000000 0.000000 0.000000 44.289844 2.142679 22.083606 23.194498 24.297326 -10.279609 -4.528563 40.879768 -0.371403 0.000000 0.000000 0.000000 
0.254122 1.119022 1.772497 -1.515068 3.804901 -14.892292 3.703313 0.779237 16.081853 -0.750070 0.145784 -2.338093 -2.754959 7.067695 30.676309 0.000000 0.000000 0.000000 1.005489 -1.486801 12.653562 -0.647160 0.252654 4.201182 3.912616 -3.482361 30.193082 0.000000 0.000000 0.000000 -9.027137 0.882760 48.160486 46.749298 16.343692 -90.940374 -7.844763 40.064593 79.483678 5.759257 9.978311 -24.895109 0.000000 0.000000 0.000000 -36.793443 -4.361773 -18.189045 -33.280977 4.707701 -7.821032 -19.380864 -24.962529 4.946801 0.000000 0.000000 0.000000 43.019222 2.642577 22.546695 25.560245 25.295433 -10.237952 -4.047809 35.708927 -0.159234 0.000000 0.000000 0.000000 
