HIERARCHY
ROOT Hips
{
	OFFSET -0.001795 -0.223333 0.028219
	CHANNELS 6 Xposition Yposition Zposition Zrotation Yrotation Xrotation 
	JOINT LeftUpLeg
	{
		OFFSET 0.069520 -0.091406 -0.006815
		CHANNELS 3 Zrotation Yrotation Xrotation
		JOINT LeftLeg
		{
			OFFSET 0.034277 -0.375199 -0.004496
			CHANNELS 3 Zrotation Yrotation Xrotation
			JOINT LeftFoot
			{
				OFFSET -0.013596 -0.397961 -0.043693
				CHANNELS 3 Zrotation Yrotation Xrotation
				JOINT LeftToe
				{
					OFFSET 0.026358 -0.055791 0.119288
					CHANNELS 3 Zrotation Yrotation Xrotation
					End Site
					{
						OFFSET 0.000000 0.000000 0.000000
					}
				}
			}
		}
	}
	JOINT RightUpLeg
	{
		OFFSET -0.067670 -0.090522 -0.004320
		CHANNELS 3 Zrotation Yrotation Xrotation
		JOINT RightLeg
		{
			OFFSET -0.038290 -0.382569 -0.008850
			CHANNELS 3 Zrotation Yrotation Xrotation
			JOINT RightFoot
			{
				OFFSET 0.015774 -0.398415 -0.042312
				CHANNELS 3 Zrotation Yrotation Xrotation
				JOINT RightToe
				{
					OFFSET -0.025372 -0.048144 0.123348
					CHANNELS 3 Zrotation Yrotation Xrotation
					End Site
					{
						OFFSET 0.000000 0.000000 0.000000
					}
				}
			}
		}
	}
	JOINT Spine
	{
		OFFSET -0.002533 0.108963 -0.026696
		CHANNELS 3 Zrotation Yrotation Xrotation
		JOINT Spine1
		{
			OFFSET 0.005487 0.135180 0.001092
			CHANNELS 3 Zrotation Yrotation Xrotation
			JOINT Spine2
			{
				OFFSET 0.001457 0.052922 0.025425
				CHANNELS 3 Zrotation Yrotation Xrotation
				JOINT Neck
				{
					OFFSET -0.002778 0.213870 -0.042857
					CHANNELS 3 Zrotation Yrotation Xrotation
					JOINT Head
					{
						OFFSET 0.005152 0.064970 0.051349
						CHANNELS 3 Zrotation Yrotation Xrotation
						End Site
						{
							OFFSET 0.000000 0.000000 0.000000
						}
					}
				}
				JOINT LeftShoulder
				{
					OFFSET 0.078845 0.121749 -0.034090
					CHANNELS 3 Zrotation Yrotation Xrotation
					JOINT LeftArm
					{
						OFFSET 0.090977 0.030469 -0.008868
						CHANNELS 3 Zrotation Yrotation Xrotation
						JOINT LeftForeArm
						{
							OFFSET 0.259612 -0.012772 -0.027456
							CHANNELS 3 Zrotation Yrotation Xrotation
							JOINT LeftHand
							{
								OFFSET 0.249234 0.008986 -0.001171
								CHANNELS 3 Zrotation Yrotation Xrotation
								End Site
								{
									OFFSET 0.000000 0.000000 0.000000
								}
							}
						}
					}
				}
				JOINT RightShoulder
				{
					OFFSET -0.081759 0.118833 -0.038615
					CHANNELS 3 Zrotation Yrotation Xrotation
					JOINT RightArm
					{
						OFFSET -0.096012 0.032551 -0.009143
						CHANNELS 3 Zrotation Yrotation Xrotation
						JOINT RightForeArm
						{
							OFFSET -0.253742 -0.013329 -0.021401
							CHANNELS 3 Zrotation Yrotation Xrotation
							JOINT RightHand
							{
								OFFSET -0.255298 0.007772 -0.005559
								CHANNELS 3 Zrotation Yrotation Xrotation
								End Site
								{
									OFFSET 0.000000 0.000000 0.000000
								}
							}
						}
					}
				}
			}
		}
	}
}
MOTION
Frames: 41
Frame Time: 0.050000
-0.003941 1.023277 0.109657 -1.804233 -0.188926 0.420472 4.691872 0.252050 6.282344 -2.711755 0.222861 7.472594 3.243478 5.607151 -3.697188 0.000000 0.000000 0.000000 -1.955394 1.605665 -18.563024 7.053016 -1.197441 19.520171 -4.921519 -13.166595 4.719407 0.000000 0.000000 0.000000 -0.048098 -0.371957 9.067697 5.574492 -0.671756 -25.068663 -1.745913 -5.710428 27.466910 -0.848156 0.979995 -23.870825 0.000000 0.000000 0.000000 -28.384016 6.385073 -3.870825 -46.771362 -5.347249 -6.366511 -19.637794 -31.278071 7.826888 0.000000 0.000000 0.000000 20.517999 1.317365 -2.102803 52.534628 2.312357 -6.167786 8.802489 31.581709 3.408302 0.000000 0.000000 0.000000 
-0.003941 1.023277 0.109657 -1.804233 -0.188926 0.420472 4.691872 0.252050 6.282344 -2.711755 0.222861 7.472594 3.243478 5.607151 -3.697188 0.000000 0.000000 0.000000 -1.955394 1.605665 -18.563024 7.053016 -1.197441 19.520171 -4.921519 -13.166595 4.719407 0.000000 0.000000 0.000000 -0.048098 -0.371957 9.067697 5.574492 -0.671756 -25.068663 -1.745913 -5.710428 27.466910 -0.848156 0.979995 -23.870825 0.000000 0.000000 0.000000 -28.384016 6.385073 -3.870825 -46.771362 -5.347249 -6.366511 -19.637794 -31.278071 7.826888 0.000000 0.000000 0.000000 20.517999 1.317365 -2.102803 52.534628 2.312357 -6.167786 8.802489 31.581709 3.408302 0.000000 0.000000 0.000000 
-0.003941 0.940832 0.109657 -2.443985 -0.114289 0.841364 6.504477 0.185510 8.285523 -4.371468 0.612546 26.624967 3.494177 7.780601 1.479154 0.000000 0.000000 0.000000 -2.184747 2.317304 -27.395831 9.634900 -2.412426 28.975752 -6.330139 -16.272637 5.626039 0.000000 0.000000 0.000000 2.740814 -0.671773 9.711567 6.457082 -0.907028 -24.683475 -2.783177 -7.985352 28.095186 -2.818748 1.789759 -22.900020 0.000000 0.000000 0.000000 -28.971296 6.748546 -3.298396 -46.138283 -5.583363 -6.539352 -21.100338 -33.303661 9.090633 0.000000 0.000000 0.000000 20.277438 2.314852 -2.175504 52.557298 -0.571458 -7.274971 5.368847 23.777692 1.705343 0.000000 0.000000 0.000000 
-0.003941 0.947117 0.109657 -2.115193 -0.779123 0.640384 6.535305 0.050934 3.791454 -6.768885 1.768820 33.608976 5.101223 10.011326 -2.926307 0.000000 0.000000 0.000000 -1.371257 2.210564 -23.969632 8.631547 -1.891197 27.340932 -6.309609 -16.032661 3.323991 0.000000 0.000000 0.000000 2.084395 -0.641685 10.409788 6.422176 -0.920471 -24.551196 -2.005337 -6.446498 27.732501 -2.720436 1.932092 -23.034445 0.000000 0.000000 0.000000 -29.809022 6.429187 -3.564885 -45.217470 -5.459623 -6.389837 -21.215751 -31.763642 8.522393 0.000000 0.000000 0.000000 20.968686 2.545016 -1.820410 51.809938 0.334240 -6.807750 4.501388 23.367406 1.563555 0.000000 0.000000 0.000000 
-0.003941 0.958664 0.109657 -1.713252 -2.243259 0.447864 6.343770 -0.228176 -5.058576 -10.395686 4.448245 43.564157 7.336749 14.389693 -7.110723 0.000000 0.000000 0.000000 -0.352552 1.950949 -19.227862 7.059355 -1.130282 24.250774 -5.928812 -14.995506 1.782002 0.000000 0.000000 0.000000 1.426790 -0.635754 11.948057 6.391039 -0.905096 -24.872143 -0.983766 -3.558598 27.674695 -2.270233 2.011762 -23.501100 0.000000 0.000000 0.000000 -29.913792 5.858914 -3.931615 -44.786781 -4.171159 -6.585814 -21.329032 -31.049649 8.165746 0.000000 0.000000 0.000000 21.076676 3.656592 -0.586244 50.808029 2.313131 -6.036374 5.454584 25.265506 1.997505 0.000000 0.000000 0.000000 
-0.003941 0.979974 0.109657 -0.725223 -3.180631 -0.507800 7.314153 -0.521337 -23.201478 -14.443046 8.953627 56.914344 9.275943 18.862888 -2.293976 0.000000 0.000000 0.000000 0.159682 1.082113 -10.549507 4.900309 -0.431857 16.841190 -5.253049 -13.386596 1.785720 0.000000 0.000000 0.000000 0.166055 -0.580506 15.084677 6.182945 -0.902130 -24.527096 0.571966 1.251968 27.132623 -1.591732 2.346350 -23.879304 0.000000 0.000000 0.000000 -30.383214 4.637170 -4.879016 -44.103529 -2.084179 -6.652110 -21.432183 -30.089587 7.526245 0.000000 0.000000 0.000000 19.136860 4.755251 1.361463 49.399492 7.274079 -4.217419 7.584128 31.955139 3.467971 0.000000 0.000000 0.000000 
-0.003941 0.994889 0.109657 0.197431 -4.331563 -1.001312 7.392138 -0.482279 -35.691040 -15.335491 9.321656 53.799588 10.636653 21.299172 3.168312 0.000000 0.000000 0.000000 0.041901 0.300483 -3.063885 3.100700 -0.111481 10.175400 -3.638986 -10.137879 3.425108 0.000000 0.000000 0.000000 -1.504981 -0.353698 17.695240 6.178627 -0.861056 -25.199768 2.355227 5.453632 27.708334 -1.649680 3.033049 -25.043182 0.000000 0.000000 0.000000 -30.521859 3.566191 -5.611340 -43.704194 -0.476329 -6.726828 -22.031028 -29.615188 7.268932 0.000000 0.000000 0.000000 16.637827 5.501332 2.606524 47.507081 11.305327 -2.767379 8.818758 37.911669 4.964640 0.000000 0.000000 0.000000 
-0.003941 0.996028 0.109657 0.359976 -4.666937 -0.640645 7.069316 -0.544222 -39.019046 -13.634610 6.361393 41.449453 9.395844 19.016291 4.164111 0.000000 0.000000 0.000000 0.062372 -0.115664 1.190708 2.215479 -0.035476 7.080901 -2.905800 -8.515751 3.491637 0.000000 0.000000 0.000000 -1.837800 -0.286893 17.776161 5.172710 -0.681838 -24.537649 3.033406 6.896972 27.305450 -2.701725 3.864045 -25.380260 0.000000 0.000000 0.000000 -30.394273 2.990007 -5.752051 -43.541604 0.546289 -6.835265 -22.747885 -29.394639 7.282572 0.000000 0.000000 0.000000 15.116007 5.622315 2.847116 47.390382 12.930029 -2.094845 9.388000 40.427632 5.704547 0.000000 0.000000 0.000000 
-0.003941 0.987872 0.109657 0.224604 -5.847566 -0.644347 6.729119 -0.481205 -39.076647 -10.539442 3.455684 27.373109 8.610573 17.503867 3.223968 0.000000 0.000000 0.000000 0.154893 -0.545415 5.828830 1.391915 0.019813 4.738303 -2.522626 -6.933852 1.649322 0.000000 0.000000 0.000000 -1.934437 -0.236156 17.905536 4.945848 -0.668303 -24.187929 3.186144 7.811516 27.063129 -2.831741 3.990689 -26.092642 0.000000 0.000000 0.000000 -30.022275 4.148662 -6.574312 -44.073657 1.618206 -7.211937 -24.208122 -28.917148 7.533773 0.000000 0.000000 0.000000 13.577131 5.860807 2.902858 47.161924 14.492782 -1.409145 10.413576 43.330461 6.660982 0.000000 0.000000 0.000000 
-0.003941 0.973944 0.109657 -0.073663 -7.601298 -0.629945 7.479961 0.063872 -38.479018 -8.323485 2.067366 18.015356 8.431372 17.069334 2.916645 0.000000 0.000000 0.000000 -0.245917 -0.786941 9.503058 1.203442 0.057355 4.825041 -2.727687 -5.926602 -1.539548 0.000000 0.000000 0.000000 -2.392097 -0.111921 17.698952 5.040825 -0.608203 -25.514412 3.277969 9.683025 28.537314 -2.613911 4.071114 -27.211027 0.000000 0.000000 0.000000 -29.219569 4.601306 -6.963422 -44.669856 1.887685 -7.486347 -22.804849 -28.204912 6.943161 0.000000 0.000000 0.000000 14.186931 5.932945 3.164076 45.605830 15.905065 -1.148083 11.937255 44.242656 7.567916 0.000000 0.000000 0.000000 
-0.003941 0.957146 0.109657 -0.315622 -9.209597 -1.629939 7.824448 0.424420 -37.745551 -7.240547 1.864445 18.490492 8.278897 16.679736 2.115670 0.000000 0.000000 0.000000 -1.257940 -0.916700 14.369887 1.119923 0.101426 5.489301 -2.707625 -4.272980 -4.316724 0.000000 0.000000 0.000000 -3.543790 0.121037 17.743863 5.733127 -0.874369 -24.558794 3.663679 10.851792 28.813096 -3.079104 4.407461 -29.843883 0.000000 0.000000 0.000000 -29.844025 4.364506 -7.012923 -44.587429 0.976286 -7.141525 -20.877997 -26.993269 6.145464 0.000000 0.000000 0.000000 14.707787 6.455897 3.477575 44.119959 16.706249 -0.923559 12.036266 44.807840 7.667934 0.000000 0.000000 0.000000 
-0.003941 0.945237 0.109657 -0.271748 -10.035374 -1.706374 7.587617 0.532641 -39.134390 -8.750049 3.126069 26.890904 8.666095 17.307107 5.976971 0.000000 0.000000 0.000000 -2.593722 -0.782447 17.796531 1.069478 0.208248 7.682771 -2.928373 -4.479500 -4.850354 0.000000 0.000000 0.000000 -5.204863 0.367161 16.174688 5.244144 -0.919099 -22.951411 4.577328 11.279827 29.005942 -2.535097 4.095602 -29.245231 0.000000 0.000000 0.000000 -29.281801 4.071767 -6.648702 -45.853787 0.065995 -7.071731 -17.642099 -25.837283 5.133354 0.000000 0.000000 0.000000 15.237569 7.562847 4.071009 44.443381 16.090868 -1.165921 8.724310 44.781561 6.319410 0.000000 0.000000 0.000000 
-0.003941 0.945579 0.109657 -0.090650 -10.404747 -0.585098 7.302566 0.549084 -40.637829 -10.203201 4.546017 33.683533 8.238543 16.644254 9.939516 0.000000 0.000000 0.000000 -4.747574 -0.291379 16.052869 2.816007 0.251745 15.325788 -1.466038 -3.443700 -0.167723 0.000000 0.000000 0.000000 -6.899433 0.564396 13.957343 6.029725 -1.081809 -23.062878 5.050718 11.457715 30.343416 -2.030569 3.840367 -31.174773 0.000000 0.000000 0.000000 -29.962465 4.355270 -6.961820 -45.708245 -1.208428 -6.680928 -15.724520 -25.227731 4.601176 0.000000 0.000000 0.000000 15.415785 6.177079 3.428646 46.175822 13.586786 -2.165778 8.498279 44.179087 6.240643 0.000000 0.000000 0.000000 
-0.003941 0.958579 0.109657 0.577298 -8.922471 -0.642479 4.756546 -0.725863 -38.234349 -10.153578 4.695032 36.256082 8.839485 17.772575 7.048962 0.000000 0.000000 0.000000 -6.427484 0.008957 10.767779 3.873638 0.577769 28.270434 -0.280254 -6.018296 10.967990 0.000000 0.000000 0.000000 -7.817865 0.691861 14.423940 6.237473 -1.098400 -23.181341 4.690944 10.064738 29.066230 -1.501769 3.431316 -30.049711 0.000000 0.000000 0.000000 -29.447250 4.150899 -6.534420 -46.331987 -2.274944 -6.363709 -16.560917 -24.410700 4.642264 0.000000 0.000000 0.000000 15.545013 5.298087 2.845682 47.630265 9.719347 -3.466094 10.299897 42.785429 6.597768 0.000000 0.000000 0.000000 
-0.003941 0.979273 0.109657 0.369142 -6.731965 -1.096386 1.994877 -1.845073 -33.042181 -9.013366 3.712526 34.809003 8.463113 17.309044 5.471001 0.000000 0.000000 0.000000 -7.030150 0.198830 2.141411 6.583555 -0.032974 45.626610 -1.443827 -10.019633 18.557536 0.000000 0.000000 0.000000 -7.053039 0.588654 16.304803 5.908651 -0.875017 -24.552978 3.701344 7.691505 29.006669 -1.637815 3.342767 -31.053362 0.000000 0.000000 0.000000 -28.685471 3.146572 -5.278138 -46.343607 -3.656727 -6.029072 -17.556685 -26.029428 5.257945 0.000000 0.000000 0.000000 15.181617 3.729184 1.827016 49.546607 7.149279 -4.500169 12.144464 40.772105 6.826745 0.000000 0.000000 0.000000 
-0.003941 1.004199 0.109657 0.142278 -5.581996 -1.653859 -0.223172 -2.124239 -25.619128 -6.909952 2.297577 30.152368 8.212855 16.969563 4.554990 0.000000 0.000000 0.000000 -7.133664 0.556074 -8.386626 9.324130 -1.749257 60.173599 -4.719502 -15.007963 18.668172 0.000000 0.000000 0.000000 -6.042439 0.411325 17.251010 5.758043 -0.805697 -24.866510 2.690872 4.868160 28.893831 -0.861066 2.531941 -30.023768 0.000000 0.000000 0.000000 -28.744868 2.999714 -4.291434 -46.112439 -4.284135 -6.084006 -18.302948 -28.972119 6.273764 0.000000 0.000000 0.000000 16.027189 4.376868 1.725407 49.536148 5.281304 -5.201241 12.914192 38.999044 6.464603 0.000000 0.000000 0.000000 
-0.003941 1.026080 0.109657 -0.874817 -3.775722 -2.226352 -1.255700 -1.636510 -16.586140 -4.408652 0.877097 22.791329 6.459935 13.840973 3.758931 0.000000 0.000000 0.000000 -6.896607 0.917543 -16.690339 11.816458 -4.539098 64.767378 -6.609351 -17.678392 16.296240 0.000000 0.000000 0.000000 -3.996373 0.016312 18.133115 5.971966 -0.802659 -25.389954 1.009010 2.248176 28.785473 -0.733276 2.121911 -28.260667 0.000000 0.000000 0.000000 -29.117486 3.517859 -4.084457 -45.146016 -5.705901 -5.662020 -18.683005 -30.714611 6.905405 0.000000 0.000000 0.000000 16.875661 3.814606 1.105803 49.398803 3.436112 -5.879718 14.388181 36.845788 6.374628 0.000000 0.000000 0.000000 
-0.003941 1.042326 0.109657 -1.505517 -1.892027 -2.695980 -1.498378 -0.825791 -7.968887 -3.279177 0.349563 14.781213 5.369392 11.924269 3.980271 0.000000 0.000000 0.000000 -7.071982 1.117443 -23.060460 13.426570 -6.217175 60.009042 -8.096844 -20.002683 15.829647 0.000000 0.000000 0.000000 -2.700697 -0.269251 18.584029 5.973473 -0.713975 -26.274078 0.159438 -0.013213 29.072474 -0.106277 1.449373 -26.223845 0.000000 0.000000 0.000000 -28.760893 4.011179 -3.907316 -45.095632 -7.007825 -5.394425 -18.659857 -33.014224 7.590050 0.000000 0.000000 0.000000 17.181539 2.507400 0.175633 49.785028 1.656736 -6.625407 14.871184 34.767254 6.013756 0.000000 0.000000 0.000000 
-0.003941 1.049671 0.109657 -2.239130 -0.463631 -3.259161 -0.440048 -0.120648 -1.289867 -3.382358 0.337169 10.004965 3.978784 9.144904 3.067625 0.000000 0.000000 0.000000 -6.729702 1.318598 -28.107307 13.488197 -5.737334 49.544002 -9.353542 -21.877869 17.246309 0.000000 0.000000 0.000000 -1.768164 -0.491065 19.087104 6.062156 -0.646719 -27.298372 -0.603836 -1.560405 29.551149 0.132387 1.113343 -25.184265 0.000000 0.000000 0.000000 -27.653808 4.660662 -3.929824 -45.090690 -8.488155 -5.000139 -19.234677 -34.367406 8.213172 0.000000 0.000000 0.000000 17.060968 1.210532 -0.619936 49.544899 0.016699 -7.267702 16.373887 33.549364 6.165913 0.000000 0.000000 0.000000 
-0.003941 1.048808 0.109657 -2.506594 1.965253 -3.612247 0.684611 0.350747 4.348218 -3.589074 0.346989 6.842289 3.024907 6.693688 1.059533 0.000000 0.000000 0.000000 -7.092734 1.127603 -31.596284 12.521899 -4.410895 35.834980 -9.820801 -22.275787 17.862945 0.000000 0.000000 0.000000 -0.905172 -0.729171 19.329458 5.945383 -0.582790 -27.601262 -1.398118 -3.444307 29.457951 -0.248162 1.194168 -24.205057 0.000000 0.000000 0.000000 -27.030914 3.880329 -3.221804 -44.408791 -10.484366 -4.290794 -19.195094 -35.421962 8.474938 0.000000 0.000000 0.000000 16.901265 0.400065 -1.109109 50.154127 -1.901753 -8.094838 16.423678 33.313858 6.111524 0.000000 0.000000 0.000000 
-0.003941 1.042487 0.109657 -2.241141 3.770462 -3.836046 1.137528 0.600837 8.281829 -3.342436 0.285356 6.455431 3.135617 5.424296 -2.789950 0.000000 0.000000 0.000000 -7.080191 0.954018 -32.527098 9.440721 -2.264133 21.296822 -9.702581 -21.763551 18.074414 0.000000 0.000000 0.000000 -1.133824 -0.730720 18.914081 5.166960 -0.439500 -26.902885 -1.267469 -5.630355 28.785638 -0.955253 1.457912 -25.187643 0.000000 0.000000 0.000000 -27.269305 3.731697 -2.794587 -43.294347 -11.951470 -3.789717 -17.985889 -36.960240 8.512050 0.000000 0.000000 0.000000 16.951434 0.381077 -1.385669 49.960549 -3.261004 -8.494665 17.187422 32.655933 6.072890 0.000000 0.000000 0.000000 
-0.003941 1.035125 0.109657 -2.064083 6.155403 -4.052975 1.941210 0.681802 11.776222 -3.003742 0.201510 6.552819 2.656929 2.383477 -6.462611 0.000000 0.000000 0.000000 -7.131463 0.662362 -32.075497 6.118421 -0.960960 9.502661 -8.334623 -19.236687 17.809560 0.000000 0.000000 0.000000 -0.559485 -0.839532 17.925828 4.620119 -0.271452 -27.211560 -2.175738 -7.747506 29.391080 -2.319154 2.150228 -25.446853 0.000000 0.000000 0.000000 -26.630373 3.318423 -2.252513 -43.237120 -13.573910 -3.338857 -17.500448 -37.533177 8.538058 0.000000 0.000000 0.000000 17.552495 0.184891 -1.678244 49.555129 -4.318569 -8.852464 16.001522 32.646341 5.685480 0.000000 0.000000 0.000000 
-0.003941 1.027974 0.109657 -1.733085 7.289552 -4.087766 2.355217 0.740661 15.057315 -2.324081 0.074005 7.043870 2.976091 1.293963 -9.461192 0.000000 0.000000 0.000000 -7.169359 0.519159 -32.123799 5.147824 -0.718975 6.211991 -7.481280 -17.698418 20.140980 0.000000 0.000000 0.000000 -0.415015 -0.836608 17.103463 5.644963 -0.470352 -27.459193 -3.530690 -8.599772 29.048992 -2.447054 2.148405 -23.375013 0.000000 0.000000 0.000000 -27.605332 3.355792 -2.324412 -42.560623 -14.003529 -3.170428 -18.518009 -37.621240 8.903174 0.000000 0.000000 0.000000 17.502532 0.192991 -1.707724 49.930224 -4.765077 -9.058262 14.905524 32.403360 5.321037 0.000000 0.000000 0.000000 
-0.003941 1.024678 0.109657 -1.658210 8.657429 -4.469707 3.122165 0.662017 19.037912 -1.483577 -0.091576 7.732077 2.433658 -0.391083 -9.649689 0.000000 0.000000 0.000000 -6.537713 0.545670 -32.031122 5.073358 -0.832082 10.625608 -7.453587 -17.426915 23.291252 0.000000 0.000000 0.000000 0.530630 -0.947022 16.312939 5.538086 -0.437253 -27.387243 -4.475070 -9.164778 28.881059 -2.113468 1.986838 -23.816479 0.000000 0.000000 0.000000 -28.474282 2.891836 -2.238557 -42.167561 -13.298647 -3.332372 -18.399439 -37.870430 8.847269 0.000000 0.000000 0.000000 19.141999 -0.313034 -2.096611 48.538482 -4.787075 -8.761912 13.162145 32.422045 4.860397 0.000000 0.000000 0.000000 
-0.003941 1.027328 0.109657 -1.814521 9.205671 -3.915357 4.252581 0.413047 20.498709 -0.928922 -0.307224 10.458527 1.704918 0.372153 -5.651048 0.000000 0.000000 0.000000 -6.457568 0.512844 -32.354904 7.349329 -1.666095 16.139847 -7.784722 -17.855598 24.039663 0.000000 0.000000 0.000000 1.191694 -0.844256 13.668639 6.115785 -0.588315 -26.771150 -5.375389 -9.614883 28.780093 -2.016590 1.884663 -22.700844 0.000000 0.000000 0.000000 -28.755372 3.839512 -2.910685 -43.768897 -12.032373 -3.788547 -18.924767 -37.503655 9.006617 0.000000 0.000000 0.000000 19.295702 -0.801974 -2.415021 48.081942 -4.888559 -8.658342 12.445404 34.655608 5.009306 0.000000 0.000000 0.000000 
-0.003941 1.037442 0.109657 -1.850726 7.552023 -3.079607 4.760855 0.413098 19.344157 -0.976024 -0.537317 15.857910 0.620750 0.888741 -0.746810 0.000000 0.000000 0.000000 -5.459500 1.009399 -32.045856 9.303684 -2.421922 20.066945 -7.568229 -17.902435 20.953418 0.000000 0.000000 0.000000 1.542175 -0.734740 11.894969 6.835465 -0.811743 -26.208733 -5.197504 -9.293478 27.809982 -2.621125 2.191240 -23.001449 0.000000 0.000000 0.000000 -29.866318 4.803044 -3.461430 -44.364493 -10.116425 -4.451365 -19.474925 -36.807795 9.087951 0.000000 0.000000 0.000000 18.144539 -0.270481 -2.187339 48.490617 -3.998163 -8.282915 13.732138 36.241953 5.585490 0.000000 0.000000 0.000000 
-0.003941 1.052535 0.109657 -2.786684 6.912790 -2.772083 6.821772 0.037567 15.181609 -2.627169 -0.576992 26.041271 -0.228092 2.815484 6.693567 0.000000 0.000000 0.000000 -3.456944 1.568442 -29.230665 9.488944 -2.531901 21.024729 -7.553375 -18.007641 17.676241 0.000000 0.000000 0.000000 3.214274 -0.829147 10.898867 6.154793 -0.572483 -27.545087 -4.797720 -9.098670 28.885398 -3.721137 2.859787 -23.003340 0.000000 0.000000 0.000000 -29.711085 4.991994 -3.460960 -45.409706 -8.989906 -5.042287 -20.458657 -35.253657 9.069634 0.000000 0.000000 0.000000 16.265120 -0.572054 -2.096615 47.927938 -2.377738 -7.724802 14.901632 38.039388 6.273297 0.000000 0.000000 0.000000 
-0.003941 1.066700 0.109657 -3.450768 6.023788 -2.861290 8.452804 -0.149757 7.511287 -5.842434 0.208771 39.598334 1.172673 7.943845 15.121464 0.000000 0.000000 0.000000 -1.561864 1.956783 -26.233510 9.643789 -2.551423 21.267912 -7.080183 -17.378452 16.358307 0.000000 0.000000 0.000000 3.553369 -0.924784 11.671166 6.949051 -0.732198 -27.956109 -4.287342 -6.730363 28.154949 -2.490978 2.417745 -23.035493 0.000000 0.000000 0.000000 -30.540219 5.128654 -4.419138 -44.777563 -7.708278 -5.145011 -21.969070 -34.108055 9.024307 0.000000 0.000000 0.000000 15.421684 0.250555 -1.196185 47.144772 -1.342752 -7.235183 17.236890 42.164997 8.165874 0.000000 0.000000 0.000000 
-0.003941 1.079841 0.109657 -2.931680 5.060143 -3.372605 8.412474 -0.166622 -0.517275 -8.382775 1.550184 49.826049 4.499340 12.890913 16.042765 0.000000 0.000000 0.000000 -0.637418 1.936483 -22.340308 8.654407 -2.098583 20.311177 -6.792666 -17.032012 15.427494 0.000000 0.000000 0.000000 2.650231 -0.928282 13.197166 6.164032 -0.527594 -28.636736 -2.666914 -4.929736 28.867705 -1.336461 1.953108 -24.629469 0.000000 0.000000 0.000000 -30.423143 4.509961 -4.369552 -44.164801 -7.915652 -4.984464 -22.762743 -34.797983 9.395159 0.000000 0.000000 0.000000 14.961422 1.013101 -0.503068 46.117027 1.331553 -6.288585 19.765098 46.246381 10.403592 0.000000 0.000000 0.000000 
-0.003941 1.091444 0.109657 -2.252071 3.891276 -3.107814 8.538960 -0.256320 -7.298736 -11.286420 3.726879 52.434637 7.472361 16.637138 11.459595 0.000000 0.000000 0.000000 -0.164216 1.836223 -19.561640 7.318701 -1.539736 19.026353 -6.117185 -16.012459 14.385311 0.000000 0.000000 0.000000 1.604828 -0.829233 13.817102 5.793228 -0.497942 -28.015097 -1.133472 -2.187663 28.249608 0.129887 1.424412 -24.621920 0.000000 0.000000 0.000000 -30.690280 3.855781 -4.809974 -43.346011 -6.479093 -5.071240 -23.255523 -35.697074 9.558539 0.000000 0.000000 0.000000 15.206987 1.195023 -0.055032 44.728799 4.128342 -5.187530 20.560101 52.282676 12.810299 0.000000 0.000000 0.000000 
-0.003941 1.100612 0.109657 -1.326448 2.636046 -2.630875 7.786829 -0.418594 -12.699127 -12.216505 4.522176 49.036143 8.582219 18.017835 6.637025 0.000000 0.000000 0.000000 -0.322621 1.685008 -17.775965 6.096077 -1.071038 18.059176 -5.532616 -15.073462 13.058799 0.000000 0.000000 0.000000 0.331785 -0.674976 14.280358 5.476774 -0.407275 -28.396634 -0.049366 0.025477 28.592512 0.383730 1.540961 -24.888872 0.000000 0.000000 0.000000 -29.829537 3.897002 -5.241467 -43.805751 -5.546872 -5.295034 -23.731418 -36.493456 9.827604 0.000000 0.000000 0.000000 15.161774 2.154260 0.709232 43.737576 6.495849 -4.396513 20.825273 57.845969 14.996204 0.000000 0.000000 0.000000 
-0.003941 1.106100 0.109657 -0.891957 1.323603 -1.888726 6.973683 -0.558427 -15.197790 -10.855290 3.519656 39.430668 8.642123 17.973823 4.540190 0.000000 0.000000 0.000000 -0.027540 1.550037 -15.655372 4.996418 -0.671313 16.143584 -4.918889 -13.954632 11.384885 0.000000 0.000000 0.000000 -0.484198 -0.534452 13.958375 5.557606 -0.474283 -27.715980 0.501358 2.183528 28.101769 0.237118 1.895076 -25.167158 0.000000 0.000000 0.000000 -29.129049 3.985011 -5.736287 -44.034967 -4.553406 -5.437898 -23.559729 -36.882135 9.713283 0.000000 0.000000 0.000000 14.038859 1.567380 0.648265 44.512558 8.692153 -3.659903 19.796644 62.603502 16.410295 0.000000 0.000000 0.000000 
-0.003941 1.111316 0.109657 -0.408754 0.211847 -1.382465 6.295346 -0.603483 -14.894878 -7.602327 1.729192 26.829812 6.614127 14.420577 5.168567 0.000000 0.000000 0.000000 -0.039508 1.421840 -14.229938 4.005394 -0.370661 15.080308 -4.696228 -13.533435 10.385222 0.000000 0.000000 0.000000 -1.392917 -0.398218 13.957036 5.793774 -0.535462 -27.622006 0.783668 3.315441 28.145353 0.350168 1.902542 -25.023993 0.000000 0.000000 0.000000 -29.589773 4.754431 -6.497070 -43.606382 -3.673845 -5.650040 -22.987378 -36.772270 9.443057 0.000000 0.000000 0.000000 14.665548 1.564258 0.725178 44.223282 10.151434 -3.203290 20.729504 65.230133 18.078600 0.000000 0.000000 0.000000 
-0.003941 1.115175 0.109657 -0.127168 0.385889 -1.541979 5.017600 -0.696671 -13.563355 -4.303526 0.521532 18.378499 3.779151 9.487642 5.942320 0.000000 0.000000 0.000000 -0.301117 1.085422 -11.096146 3.557682 -0.291508 11.840354 -4.486334 -13.162938 10.661149 0.000000 0.000000 0.000000 -1.315804 -0.410348 13.988626 4.549584 -0.304837 -27.072654 0.850434 2.637626 27.922395 0.624245 1.643230 -25.152546 0.000000 0.000000 0.000000 -29.054552 4.809020 -6.207116 -44.460395 -3.175127 -5.971883 -21.343010 -35.872513 8.707833 0.000000 0.000000 0.000000 15.651192 1.625154 0.636286 45.406294 11.703203 -2.657807 16.907148 65.222871 15.526294 0.000000 0.000000 0.000000 
-0.003941 1.119224 0.109657 -0.279264 -0.031573 -1.974333 4.372172 -0.641842 -11.463333 -3.518299 0.343483 13.550820 2.718668 7.589381 6.108856 0.000000 0.000000 0.000000 -0.208594 0.820528 -8.312642 3.474399 -0.282290 9.782064 -3.864650 -11.926348 10.083294 0.000000 0.000000 0.000000 -1.748996 -0.347119 13.811064 4.806553 -0.415761 -26.393264 0.778946 2.761967 27.307920 1.658903 0.939157 -24.260113 0.000000 0.000000 0.000000 -29.237818 3.778414 -5.496799 -44.660041 -2.491645 -6.221262 -19.301971 -34.373396 7.665158 0.000000 0.000000 0.000000 18.017909 1.828534 0.668497 44.674545 11.473184 -2.715488 15.831716 64.573307 14.479766 0.000000 0.000000 0.000000 
-0.003941 1.111090 0.109657 -1.064846 -0.312235 -1.144888 4.340617 -0.199419 -3.047667 -1.125895 0.055504 2.866206 0.683835 5.029432 9.654696 0.000000 0.000000 0.000000 -0.787964 0.960339 -10.087981 4.486166 -0.470171 11.500338 -3.763207 -11.417438 8.338872 0.000000 0.000000 0.000000 -1.632934 -0.281856 10.888577 4.855281 -0.512725 -25.097415 0.097493 -0.266429 26.925794 1.388356 0.570155 -24.352363 0.000000 0.000000 0.000000 -28.163307 4.990753 -4.927238 -46.789660 -2.867177 -6.665249 -17.891046 -32.673300 7.152846 0.000000 0.000000 0.000000 18.573241 1.372458 -0.384477 48.408013 9.233073 -3.420963 17.321923 56.479349 12.388805 0.000000 0.000000 0.000000 
-0.003941 1.100578 0.109657 -1.517261 0.120070 -0.080958 1.661341 -0.013984 0.085318 4.772741 -0.619766 1.256910 -1.477357 1.946235 11.234813 0.000000 0.000000 0.000000 -1.984082 1.136106 -13.137087 5.422558 -0.692582 13.037911 -3.615057 -10.858189 7.230127 0.000000 0.000000 0.000000 -1.827057 -0.189006 7.996664 4.826211 -0.494746 -25.060013 -1.088878 -3.783582 27.013957 1.275181 0.081555 -24.284321 0.000000 0.000000 0.000000 -27.356870 6.016761 -4.333929 -48.179117 -4.637481 -6.458505 -17.785560 -31.457608 7.140012 0.000000 0.000000 0.000000 19.451088 0.185973 -1.984103 51.759550 5.790275 -4.764547 15.980384 45.940946 8.547166 0.000000 0.000000 0.000000 
-0.003941 1.100237 0.109657 -1.457026 0.024427 0.256251 1.176332 -0.167326 -1.890016 3.981214 -0.660304 3.215428 -1.537296 1.470720 10.298981 0.000000 0.000000 0.000000 -2.328387 1.076487 -12.756304 5.247673 -0.639551 11.699797 -3.243341 -10.131772 7.374646 0.000000 0.000000 0.000000 -2.224106 -0.148508 7.700917 4.683665 -0.431560 -25.489803 -1.294354 -4.459409 27.256011 1.072644 0.128215 -25.106882 0.000000 0.000000 0.000000 -26.461369 6.357849 -4.191704 -48.830952 -5.121993 -6.409860 -17.991677 -30.766337 7.112195 0.000000 0.000000 0.000000 19.924533 0.182576 -2.249714 53.043923 4.773125 -5.273987 13.749626 41.694113 6.719177 0.000000 0.000000 0.000000 
-0.003941 1.105722 0.109657 -1.166895 -0.265811 0.001714 0.002996 -0.201272 -2.210549 4.552725 -0.644704 1.918583 -0.604104 2.102623 7.764397 0.000000 0.000000 0.000000 -1.904445 0.860862 -9.740167 4.419454 -0.458507 9.351695 -3.140476 -9.940157 7.360910 0.000000 0.000000 0.000000 -2.822935 -0.114041 8.400054 4.699892 -0.445555 -25.427708 -0.759952 -3.364137 26.904997 1.101860 0.286504 -25.294577 0.000000 0.000000 0.000000 -27.081429 6.158487 -4.456323 -48.083991 -5.114582 -6.240689 -18.011354 -29.263753 6.633271 0.000000 0.000000 0.000000 20.734813 0.330462 -2.026263 52.195002 5.499438 -4.892439 11.627765 40.211480 5.783628 0.000000 0.000000 0.000000 
-0.003941 1.023277 0.109657 -1.804233 -0.188926 0.420472 4.691872 0.252050 6.282344 -2.711755 0.222861 7.472594 3.243478 5.607151 -3.697188 0.000000 0.000000 0.000000 -1.955394 1.605665 -18.563024 7.053016 -1.197441 19.520171 -4.921519 -13.166595 4.719407 0.000000 0.000000 0.000000 -0.048098 -0.371957 9.067697 5.574492 -0.671756 -25.068663 -1.745913 -5.710428 27.466910 -0.848156 0.979995 -23.870825 0.000000 0.000000 0.000000 -28.384016 6.385073 -3.870825 -46.771362 -5.347249 -6.366511 -19.637794 -31.278071 7.826888 0.000000 0.000000 0.000000 20.517999 1.317365 -2.102803 52.534628 2.312357 -6.167786 8.802489 31.581709 3.408302 0.000000 0.000000 0.000000 
-0.003941 1.023277 0.109657 -1.804233 -0.188926 0.420472 4.691872 0.252050 6.282344 -2.711755 0.222861 7.472594 3.243478 5.607151 -3.697188 0.000000 0.000000 0.000000 -1.955394 1.605665 -18.563024 7.053016 -1.197441 19.520171 -4.921519 -13.166595 4.719407 0.000000 0.000000 0.000000 -0.048098 -0.371957 9.067697 5.574492 -0.671756 -25.068663 -1.745913 -5.710428 27.466910 -0.848156 0.979995 -23.870825 0.000000 0.000000 0.000000 -28.384016 6.385073 -3.870825 -46.771362 -5.347249 -6.366511 -19.637794 -31.278071 7.826888 0.000000 0.000000 0.000000 20.517999 1.317365 -2.102803 52.534628 2.312357 -6.167786 8.802489 31.581709 3.408302 0.000000 0.000000 0.000000 
