HIERARCHY
ROOT Hips
{
	OFFSET -0.001795 -0.223333 0.028219
	CHANNELS 6 Xposition Yposition Zposition Zrotation Yrotation Xrotation 
	JOINT LeftUpLeg
	{
		OFFSET 0.069520 -0.091406 -0.006815
		CHANNELS 3 Zrotation Yrotation Xrotation
		JOINT LeftLeg
		{
			OFFSET 0.034277 -0.375199 -0.004496
			CHANNELS 3 Zrotation Yrotation Xrotation
			JOINT LeftFoot
			{
				OFFSET -0.013596 -0.397961 -0.043693
				CHANNELS 3 Zrotation Yrotation Xrotation
				JOINT LeftToe
				{
					OFFSET 0.026358 -0.055791 0.119288
					CHANNELS 3 Zrotation Yrotation Xrotation
					End Site
					{
						OFFSET 0.000000 0.000000 0.000000
					}
				}
			}
		}
	}
	JOINT RightUpLeg
	{
		OFFSET -0.067670 -0.090522 -0.004320
		CHANNELS 3 Zrotation Yrotation Xrotation
		JOINT RightLeg
		{
			OFFSET -0.038290 -0.382569 -0.008850
			CHANNELS 3 Zrotation Yrotation Xrotation
			JOINT RightFoot
			{
				OFFSET 0.015774 -0.398415 -0.042312
				CHANNELS 3 Zrotation Yrotation Xrotation
				JOINT RightToe
				{
					OFFSET -0.025372 -0.048144 0.123348
					CHANNELS 3 Zrotation Yrotation Xrotation
					End Site
					{
						OFFSET 0.000000 0.000000 0.000000
					}
				}
			}
		}
	}
	JOINT Spine
	{
		OFFSET -0.002533 0.108963 -0.026696
		CHANNELS 3 Zrotation Yrotation Xrotation
		JOINT Spine1
		{
			OFFSET 0.005487 0.135180 0.001092
			CHANNELS 3 Zrotation Yrotation Xrotation
			JOINT Spine2
			{
				OFFSET 0.001457 0.052922 0.025425
				CHANNELS 3 Zrotation Yrotation Xrotation
				JOINT Neck
				{
					OFFSET -0.002778 0.213870 -0.042857
					CHANNELS 3 Zrotation Yrotation Xrotation
					JOINT Head
					{
						OFFSET 0.005152 0.064970 0.051349
						CHANNELS 3 Zrotation Yrotation Xrotation
						End Site
						{
							OFFSET 0.000000 0.000000 0.000000
						}
					}
				}
				JOINT LeftShoulder
				{
					OFFSET 0.078845 0.121749 -0.034090
					CHANNELS 3 Zrotation Yrotation Xrotation
					JOINT LeftArm
					{
						OFFSET 0.090977 0.030469 -0.008868
						CHANNELS 3 Zrotation Yrotation Xrotation
						JOINT LeftForeArm
						{
							OFFSET 0.259612 -0.012772 -0.027456
							CHANNELS 3 Zrotation Yrotation Xrotation
							JOINT LeftHand
							{
								OFFSET 0.249234 0.008986 -0.001171
								CHANNELS 3 Zrotation Yrotation Xrotation
								End Site
								{
									OFFSET 0.000000 0.000000 0.000000
								}
							}
						}
					}
				}
				JOINT RightShoulder
				{
					OFFSET -0.081759 0.118833 -0.038615
					CHANNELS 3 Zrotation Yrotation Xrotation
					JOINT RightArm
					{
						OFFSET -0.096012 0.032551 -0.009143
						CHANNELS 3 Zrotation Yrotation Xrotation
						JOINT RightForeArm
						{
							OFFSET -0.253742 -0.013329 -0.021401
							CHANNELS 3 Zrotation Yrotation Xrotation
							JOINT RightHand
							{
								OFFSET -0.255298 0.007772 -0.005559
								CHANNELS 3 Zrotation Yrotation Xrotation
								End Site
								{
									OFFSET 0.000000 0.000000 0.000000
								}
							}
						}
					}
				}
			}
		}
	}
}
MOTION
Frames: 41
Frame Time: 0.050000
0.000000 0.944081 0.000000 -1.687645 -4.864295 3.432486 2.988916 0.071206 1.514092 -0.422742 0.120275 -2.389547 4.036548 9.146372 2.723546 0.000000 0.000000 0.000000 -3.973218 0.415213 -3.913433 2.411666 -0.170948 2.611512 -3.656011 -10.689040 5.070179 0.000000 0.000000 0.000000 -2.112381 -0.037641 3.729470 3.826404 -0.763503 -18.120848 0.074397 1.370004 25.963279 2.254568 -0.115330 -23.809828 0.000000 0.000000 0.000000 -23.853620 1.439840 -1.814957 -54.210174 -6.982551 -5.656746 -13.115327 -25.893996 4.512586 0.000000 0.000000 0.000000 18.222921 5.465625 1.475928 60.936264 9.472602 -3.436698 4.721117 27.158285 2.270307 0.000000 0.000000 0.000000 
0.000595 0.943142 0.004752 -1.945642 -5.098935 4.155911 3.439329 0.099126 2.158958 -0.369150 0.170402 -4.125472 4.578041 10.088202 1.926798 0.000000 0.000000 0.000000 -3.588157 0.461216 -4.516048 1.935198 -0.108975 2.788703 -4.529474 -12.424472 4.549245 0.000000 0.000000 0.000000 -2.328931 -0.010623 3.228501 3.872545 -0.781713 -18.052971 0.025479 -0.035695 26.473822 2.008335 -0.201742 -24.246302 0.000000 0.000000 0.000000 -23.819365 3.278546 -2.443025 -54.754296 -6.808805 -5.905650 -13.601763 -26.474472 4.866324 0.000000 0.000000 0.000000 17.756271 5.972757 1.376823 61.960386 8.290326 -4.155537 4.244166 28.507600 2.213732 0.000000 0.000000 0.000000 
0.000609 0.943245 0.011062 -1.338294 -5.507201 4.407624 3.492238 0.043905 1.310049 -1.164919 0.186899 -2.116824 4.629401 10.058090 1.081366 0.000000 0.000000 0.000000 -4.160500 0.509802 -5.127488 1.999295 -0.101455 3.244078 -4.736959 -12.861586 4.468231 0.000000 0.000000 0.000000 -2.541017 0.000252 3.461490 4.185686 -0.764974 -19.733832 -0.219934 -0.188284 28.284057 1.645596 -0.033464 -25.116740 0.000000 0.000000 0.000000 -23.324122 3.132537 -2.101841 -55.068815 -6.895282 -6.097890 -14.077418 -25.660984 4.863404 0.000000 0.000000 0.000000 18.782783 5.644461 1.077741 61.080225 7.760803 -4.576413 3.621050 28.247848 2.044507 0.000000 0.000000 0.000000 
-0.000203 0.942298 0.019855 -1.334543 -5.445031 5.651469 3.249184 -0.001560 0.722729 -1.052825 0.165353 -1.723566 4.785122 10.141349 -0.431384 0.000000 0.000000 0.000000 -4.055876 0.611591 -6.470489 1.857342 -0.069998 3.720373 -5.334958 -13.971226 3.636034 0.000000 0.000000 0.000000 -2.671992 0.027568 2.918639 4.504176 -0.851597 -19.571837 -0.471282 -1.158418 28.423475 1.100867 0.129105 -25.112688 0.000000 0.000000 0.000000 -22.723321 3.562474 -2.061666 -55.426094 -6.271895 -6.397120 -15.754588 -26.025480 5.407682 0.000000 0.000000 0.000000 18.876129 6.041348 1.030329 60.974896 6.651331 -5.107962 3.962927 29.086267 2.135236 0.000000 0.000000 0.000000 
-0.002021 0.940656 0.031295 -1.122263 -5.324794 5.839266 3.086313 -0.017713 0.474771 -0.734810 0.095235 -0.308795 5.016172 10.458162 -1.538624 0.000000 0.000000 0.000000 -4.073952 0.638912 -6.862216 1.464209 -0.002118 4.322174 -5.520981 -14.144167 2.529286 0.000000 0.000000 0.000000 -2.569476 0.011582 3.627077 4.547286 -0.914538 -18.781585 -0.562081 -1.102853 27.931237 0.817317 0.281594 -24.248745 0.000000 0.000000 0.000000 -22.526310 3.048789 -1.803989 -54.800227 -5.729861 -6.534141 -16.531606 -27.073892 5.818689 0.000000 0.000000 0.000000 19.317532 5.569419 0.766148 60.643196 5.601782 -5.546244 4.350847 29.330867 2.245674 0.000000 0.000000 0.000000 
-0.004884 0.938208 0.045866 -1.115826 -5.091153 6.863459 3.369405 -0.093931 -0.464962 -0.752647 0.059221 1.235530 5.316910 10.852727 -3.213127 0.000000 0.000000 0.000000 -3.941087 0.727540 -7.994704 0.882591 0.135214 5.929629 -5.541912 -14.146719 2.196933 0.000000 0.000000 0.000000 -3.131178 0.049994 4.300063 5.237140 -1.009383 -19.850144 -0.332251 -1.118553 28.595392 0.773759 0.375757 -25.190974 0.000000 0.000000 0.000000 -21.998055 3.346560 -1.990210 -55.400008 -5.794024 -6.569605 -17.516975 -27.067994 6.081805 0.000000 0.000000 0.000000 18.977891 5.728969 0.945640 60.025194 5.364884 -5.688824 5.285968 28.916524 2.441746 0.000000 0.000000 0.000000 
-0.008228 0.934913 0.064506 -1.062749 -4.927131 7.761833 3.033252 -0.181036 -1.719831 -0.590559 -0.010942 3.295186 5.738701 11.722415 -3.726467 0.000000 0.000000 0.000000 -3.437482 0.820672 -9.030188 0.542637 0.287812 8.305052 -5.959782 -14.846522 0.851679 0.000000 0.000000 0.000000 -2.876138 0.032555 4.889390 4.893851 -0.927047 -19.573774 -0.256784 -0.698032 28.538435 0.889335 0.398231 -25.210517 0.000000 0.000000 0.000000 -22.038923 3.406092 -2.187243 -55.053506 -5.294603 -6.744726 -18.107513 -28.062511 6.456861 0.000000 0.000000 0.000000 18.842260 5.191248 0.821954 60.317894 4.730172 -6.046274 6.136617 28.814678 2.675183 0.000000 0.000000 0.000000 
-0.011497 0.930519 0.088054 -0.308206 -4.761895 8.266538 2.074343 -0.212418 -2.147365 -0.523429 -0.085994 6.236196 5.808679 11.578290 -5.831458 0.000000 0.000000 0.000000 -3.952216 0.849567 -9.592816 0.975977 0.393405 12.515459 -5.575446 -13.242827 -2.308583 0.000000 0.000000 0.000000 -3.527004 0.082687 6.656248 4.602267 -0.768515 -20.517094 -0.271988 -0.261755 28.589764 0.771369 0.598947 -25.924672 0.000000 0.000000 0.000000 -21.524247 3.097899 -2.139638 -54.255393 -5.221351 -6.681976 -19.697534 -29.734135 7.281589 0.000000 0.000000 0.000000 19.050821 4.955494 0.849882 59.731915 3.328314 -6.703636 8.349498 29.180593 3.283353 0.000000 0.000000 0.000000 
-0.014198 0.923221 0.116976 0.238053 -4.991244 8.836770 0.769188 -0.219644 -2.265728 -0.499897 -0.138258 8.909395 6.200294 12.276653 -8.003427 0.000000 0.000000 0.000000 -4.445951 0.960514 -11.320784 1.991366 0.409070 18.108811 -6.229440 -13.952667 -6.569841 0.000000 0.000000 0.000000 -4.393451 0.182924 7.300547 4.979558 -0.862106 -20.485073 -0.662380 0.299287 29.193595 0.010143 1.166556 -27.093788 0.000000 0.000000 0.000000 -22.434592 4.061808 -2.912574 -53.156330 -5.180065 -6.665352 -20.150453 -31.940138 7.999100 0.000000 0.000000 0.000000 19.591600 5.197904 1.118798 60.552763 4.089323 -6.493464 7.499663 27.849783 2.968360 0.000000 0.000000 0.000000 
-0.017100 0.910955 0.150446 0.977597 -4.952176 8.550257 0.950224 -0.239416 -2.498824 -2.138696 0.186964 14.547994 6.314275 11.997600 -11.851656 0.000000 0.000000 0.000000 -5.850334 0.965090 -12.514769 2.946882 0.402515 24.925871 -6.540060 -14.415043 -8.704272 0.000000 0.000000 0.000000 -5.858310 0.374297 9.389376 5.038889 -0.851240 -20.799247 -0.381017 1.489401 30.173639 0.654606 1.063851 -28.141474 0.000000 0.000000 0.000000 -23.575883 2.329144 -2.285225 -50.224731 -8.637547 -5.117617 -20.814789 -34.979509 8.933124 0.000000 0.000000 0.000000 20.172158 5.376525 1.628187 58.713094 3.929702 -6.568045 8.097013 26.811838 3.036534 0.000000 0.000000 0.000000 
-0.021520 0.893901 0.187440 1.883900 -2.764276 7.555766 0.294115 -0.198281 -2.089069 -1.234969 -0.181854 20.550814 5.705660 9.034410 -14.353975 0.000000 0.000000 0.000000 -6.945811 1.039676 -16.991769 5.266378 -0.409698 40.802830 -7.814298 -18.728069 -9.625563 0.000000 0.000000 0.000000 -6.887025 0.520316 12.003417 4.743709 -0.857287 -19.149848 -0.569178 -0.825580 29.630814 0.854684 0.919733 -30.616786 0.000000 0.000000 0.000000 -25.700373 1.248143 -1.445779 -47.101972 -13.884275 -3.071941 -20.025590 -42.641769 10.921578 0.000000 0.000000 0.000000 19.249790 6.303089 1.876385 57.811248 0.837122 -7.852902 9.477630 26.111924 3.145330 0.000000 0.000000 0.000000 
-0.028714 0.874519 0.228241 2.507034 0.431470 6.968764 1.261777 -0.078750 -0.520318 -1.354830 -0.459797 25.791877 4.991595 5.367402 -15.691656 0.000000 0.000000 0.000000 -9.500398 0.756176 -26.440931 10.131687 -5.117760 61.926476 -8.711493 -21.471017 -1.531336 0.000000 0.000000 0.000000 -8.108367 0.730802 16.029741 6.622467 -1.189988 -20.710789 -1.645903 -3.710028 30.359716 1.411724 0.640165 -33.681465 0.000000 0.000000 0.000000 -27.768138 -0.723422 0.183619 -43.737450 -23.346570 0.028172 -17.626008 -53.674937 13.294852 0.000000 0.000000 0.000000 17.335635 3.057069 -0.000935 56.793519 -6.783156 -11.267146 12.138391 24.675876 3.428348 0.000000 0.000000 0.000000 
-0.040515 0.857606 0.278031 2.109909 4.140448 6.689856 3.527355 0.084323 3.765154 -0.186882 -1.082563 24.648183 4.775118 3.868197 -15.144719 0.000000 0.000000 0.000000 -12.691385 -0.581780 -35.307762 14.275234 -11.451158 71.071314 -9.719559 -23.822683 -2.559121 0.000000 0.000000 0.000000 -6.639814 0.376501 18.814074 7.609715 -1.418021 -20.448757 -3.845571 -7.931807 29.490793 0.540831 0.850671 -35.740361 0.000000 0.000000 0.000000 -27.427002 -3.223045 2.571534 -40.106214 -32.842659 2.866425 -5.055776 -70.139719 9.992760 0.000000 0.000000 0.000000 17.369771 1.706160 -1.306370 53.765436 -15.863227 -14.294023 13.174663 25.828356 3.629296 0.000000 0.000000 0.000000 
-0.057200 0.849648 0.343069 1.440140 6.792748 8.143155 5.563102 0.013632 8.669415 2.277860 -1.555018 19.241571 3.429333 -0.177230 -14.054705 0.000000 0.000000 0.000000 -14.311682 -2.087514 -43.212035 18.175916 -15.087393 67.557319 -11.123873 -27.901793 -6.615643 0.000000 0.000000 0.000000 -4.527216 -0.089565 18.379272 8.602345 -1.716035 -19.513731 -5.173907 -13.825566 27.550462 -1.155902 1.107459 -37.793687 0.000000 0.000000 0.000000 -23.858311 -1.787865 2.895533 -37.659902 -42.669898 5.870735 72.473730 -85.314124 -57.346395 0.000000 0.000000 0.000000 14.650776 0.549894 -2.576165 49.396238 -24.855336 -16.291433 17.164571 26.066018 4.113200 0.000000 0.000000 0.000000 
-0.078706 0.849454 0.425920 -0.182216 6.647531 11.288670 8.504613 -0.449000 13.759176 4.183015 -1.380703 12.290890 0.247054 -1.901510 -4.231029 0.000000 0.000000 0.000000 -14.615538 -2.698904 -49.899946 22.151803 -14.730346 55.567641 -11.827666 -30.464822 -8.008650 0.000000 0.000000 0.000000 -1.610277 -0.441839 14.223355 10.818514 -2.202540 -20.394533 -8.013030 -14.106094 28.048543 -1.027846 0.966951 -36.919285 0.000000 0.000000 0.000000 -17.200506 -0.769273 1.815068 -38.991132 -48.027534 9.003067 146.160864 -76.919269 -124.553065 0.000000 0.000000 0.000000 11.937033 -2.989702 -3.797604 46.259587 -30.309384 -17.245756 21.289574 24.605273 4.547094 0.000000 0.000000 0.000000 
-0.102940 0.850240 0.521758 -0.526621 6.682998 12.930080 9.629980 -0.706485 14.480458 6.743185 -2.425143 16.812799 -2.730735 -0.877242 8.568259 0.000000 0.000000 0.000000 -12.177234 -1.490902 -48.992679 22.570447 -13.732779 50.750160 -12.215797 -30.746414 -4.972003 0.000000 0.000000 0.000000 1.699539 -0.826088 11.514676 8.174083 -1.596076 -19.157080 -5.483948 -16.749493 25.547494 -3.583651 1.675856 -34.809414 0.000000 0.000000 0.000000 -17.236135 -1.217150 2.578284 -40.385580 -46.671669 9.250350 165.383110 -72.815695 -144.131818 0.000000 0.000000 0.000000 8.140964 -3.046421 -3.299641 47.063403 -31.554418 -18.304835 21.360830 25.934553 4.607157 0.000000 0.000000 0.000000 
-0.127807 0.843411 0.619285 -0.467553 3.733045 13.145175 6.898448 -0.177904 7.628640 8.833808 -5.417949 34.893558 -1.999748 1.243110 11.105215 0.000000 0.000000 0.000000 -7.901522 1.045474 -44.695774 20.871348 -13.316290 56.924952 -10.688641 -26.933669 -4.365635 0.000000 0.000000 0.000000 3.512163 -1.001771 10.547085 6.662455 -1.067073 -21.058741 -5.302560 -14.490439 26.691544 -3.657508 1.728136 -34.275560 0.000000 0.000000 0.000000 -19.244534 1.152552 1.399860 -43.288424 -39.531234 6.661028 -163.218629 -72.168631 174.140946 0.000000 0.000000 0.000000 12.383053 -2.800605 -4.189289 44.878875 -27.206650 -15.488707 19.499397 30.999835 5.214962 0.000000 0.000000 0.000000 
-0.150852 0.832339 0.709858 -0.972105 0.170333 11.060543 4.197838 -0.343710 -3.234180 7.204891 -7.155984 58.181188 3.120825 8.634810 7.313803 0.000000 0.000000 0.000000 -4.282649 2.509039 -36.690864 19.016290 -11.310772 59.982398 -10.447680 -26.345426 -4.460728 0.000000 0.000000 0.000000 3.619120 -1.238277 14.315148 5.728946 -0.864675 -21.580697 -2.011132 -9.521734 27.613901 -4.723847 2.701305 -35.624842 0.000000 0.000000 0.000000 -27.532819 1.794359 0.629125 -40.909115 -29.798870 1.702112 -124.702138 -72.446652 121.709911 0.000000 0.000000 0.000000 20.533307 1.604648 -3.106579 42.394369 -14.291485 -9.865683 13.799219 34.569783 4.626208 0.000000 0.000000 0.000000 
-0.170949 0.823013 0.797669 -1.639765 -5.756888 8.268725 2.621074 -1.130098 -17.954382 4.710662 -4.357177 77.288580 4.854862 10.736199 2.694280 0.000000 0.000000 0.000000 1.232561 3.225211 -26.535632 13.972349 -5.182050 60.612719 -8.559381 -21.264908 -10.972409 0.000000 0.000000 0.000000 2.497660 -1.125655 19.016370 6.499023 -1.099372 -22.402920 1.666603 0.379905 28.058867 -3.977521 3.417120 -36.864871 0.000000 0.000000 0.000000 -30.397209 1.641770 -1.893750 -40.978189 -14.394758 -2.790458 -78.279039 -67.992516 64.393418 0.000000 0.000000 0.000000 24.058653 5.448231 0.816209 39.184780 1.278452 -5.027717 8.418444 40.019294 4.299447 0.000000 0.000000 0.000000 
-0.189467 0.816993 0.892119 0.240880 -11.126130 6.284063 3.174803 -1.002444 -37.709153 3.770702 -1.319297 87.202444 4.900780 10.953170 3.868795 0.000000 0.000000 0.000000 1.715439 1.373848 -12.282259 8.416449 0.465661 52.827209 -8.685172 -19.221590 -17.377152 0.000000 0.000000 0.000000 -1.421984 -0.108884 20.466948 6.383626 -1.334245 -20.595063 5.059776 7.188448 28.586670 -3.020077 3.630786 -37.562073 0.000000 0.000000 0.000000 -33.496824 4.534413 -6.083368 -38.574591 -0.591984 -6.129464 -58.500068 -57.918796 38.244042 0.000000 0.000000 0.000000 20.618833 10.678318 5.151898 40.558226 15.528876 -1.317040 -5.063848 49.925561 0.296083 0.000000 0.000000 0.000000 
-0.209060 0.825650 1.002547 3.204818 -13.185921 5.942510 2.033326 -0.726710 -52.021027 0.852276 1.499092 79.110147 5.807443 11.593139 -1.360342 0.000000 0.000000 0.000000 -2.220393 -0.047579 2.918501 4.392338 1.653200 37.959350 -8.455853 -14.447138 -19.883955 0.000000 0.000000 0.000000 -5.693019 0.882800 19.327565 6.110874 -1.310979 -20.307111 5.614050 13.022418 28.515671 -1.054476 3.473032 -35.612683 0.000000 0.000000 0.000000 -29.045421 9.021002 -10.286508 -37.101893 14.529062 -9.344828 -57.036206 -47.832783 28.758966 0.000000 0.000000 0.000000 17.517443 10.139384 5.814657 41.103581 24.487214 1.470658 -11.009722 64.644771 -1.741527 0.000000 0.000000 0.000000 
-0.232577 0.842400 1.131211 5.888306 -12.874677 5.972379 2.154054 -0.527782 -57.549274 -5.735199 4.822664 57.554208 5.810082 11.602762 -0.784664 0.000000 0.000000 0.000000 -4.515468 -0.113902 17.493174 1.715416 1.012405 22.047758 -4.567052 -7.954612 -5.737710 0.000000 0.000000 0.000000 -9.691847 1.425874 15.006698 4.425217 -0.981240 -18.699123 8.044912 18.196737 27.524847 -1.306239 4.327463 -32.130760 0.000000 0.000000 0.000000 -24.799352 12.310077 -12.934526 -32.159768 22.311353 -9.364908 -64.414587 -43.327831 27.938112 0.000000 0.000000 0.000000 12.869522 7.262516 4.697338 45.546181 26.129535 3.184297 -20.825198 79.362753 -7.738366 0.000000 0.000000 0.000000 
-0.259009 0.855829 1.269002 7.107798 -10.664602 7.274909 1.656883 -1.570551 -53.175853 -9.023132 4.565151 40.171890 4.843042 10.330281 2.786877 0.000000 0.000000 0.000000 -3.165093 -0.646138 22.612155 -1.950712 1.760428 20.336745 2.253353 -3.260277 15.316502 0.000000 0.000000 0.000000 -12.766180 1.696281 12.002698 2.266749 -0.282262 -19.583761 10.949998 18.307856 25.989805 -0.904179 4.237408 -31.542661 0.000000 0.000000 0.000000 -21.844291 14.081308 -13.245838 -31.883490 27.520763 -10.505441 -65.675167 -44.591375 29.014107 0.000000 0.000000 0.000000 11.444531 4.621623 3.401171 49.038362 20.248709 1.615671 103.069775 85.197559 111.108942 0.000000 0.000000 0.000000 
-0.285907 0.852337 1.403412 6.973417 -8.069381 6.746828 -1.978878 -3.623049 -46.070934 -7.055620 3.493230 42.153269 5.065502 9.119855 -7.247947 0.000000 0.000000 0.000000 -3.320530 -0.801298 21.836989 2.165155 1.307127 32.821969 -0.914066 -10.289200 23.292062 0.000000 0.000000 0.000000 -14.967859 1.765422 10.482690 4.407182 -0.885699 -18.488958 8.888629 16.360876 25.862643 0.208934 3.703211 -33.044874 0.000000 0.000000 0.000000 -22.291963 14.259827 -13.399440 -38.630760 25.370464 -12.546197 -58.840109 -47.766404 27.873825 0.000000 0.000000 0.000000 10.239953 4.843455 3.304852 53.282966 18.070691 1.209890 85.534531 79.881004 88.017258 0.000000 0.000000 0.000000 
-0.313478 0.838147 1.526715 6.811609 -8.573549 5.548406 -4.058823 -3.816880 -38.345371 -5.354905 3.221049 46.625386 7.686119 14.637119 -19.244264 0.000000 0.000000 0.000000 -6.986948 0.170645 13.772283 9.205267 -1.100554 52.031547 -6.002961 -16.466296 14.548181 0.000000 0.000000 0.000000 -15.857506 2.138103 12.766085 4.964621 -1.057350 -18.552543 6.379870 14.119578 26.238501 1.820937 2.778670 -37.664191 0.000000 0.000000 0.000000 -26.417257 10.073368 -11.683196 -44.122231 14.011320 -10.690181 -43.345919 -55.090512 24.519807 0.000000 0.000000 0.000000 10.817137 4.127598 2.702566 56.213100 16.702536 0.660783 51.382221 74.688569 49.942855 0.000000 0.000000 0.000000 
-0.343601 0.828130 1.645800 5.238778 -10.186800 6.143923 -5.661883 -3.230370 -27.964287 -0.126838 0.597948 44.416779 7.921518 15.945409 -33.049884 0.000000 0.000000 0.000000 -8.209215 0.559688 -1.115584 15.821284 -5.233429 69.081835 -10.785223 -24.408547 13.397107 0.000000 0.000000 0.000000 -13.193709 1.781677 12.965501 4.475057 -1.036513 -17.396433 3.044999 8.419085 26.131071 1.346764 2.069779 -39.121150 0.000000 0.000000 0.000000 -24.829539 9.057201 -8.268181 -47.986137 1.726181 -7.960656 -26.109298 -60.552358 18.764597 0.000000 0.000000 0.000000 12.241474 7.795754 3.562701 56.090136 16.568098 0.152447 25.113194 71.096919 23.978500 0.000000 0.000000 0.000000 
-0.379181 0.841638 1.776158 2.774813 -12.201643 6.590594 -5.040300 -2.014059 -17.214773 2.119436 -0.133574 42.751968 8.691878 21.814421 -28.651472 0.000000 0.000000 0.000000 -6.194225 1.080181 -12.811795 19.670012 -7.913122 74.750211 -14.114597 -30.498246 11.687655 0.000000 0.000000 0.000000 -9.106143 1.070531 12.103777 5.704763 -1.117543 -20.979587 0.821048 6.626239 29.496904 2.134626 1.151098 -38.127399 0.000000 0.000000 0.000000 -23.003619 7.414332 -5.696725 -46.033361 -6.743390 -5.411739 -16.485454 -63.346200 14.951585 0.000000 0.000000 0.000000 14.198547 8.685143 3.582583 51.923494 15.463032 -1.128805 23.219163 70.433668 21.270237 0.000000 0.000000 0.000000 
-0.419523 0.873317 1.923503 0.071162 -16.646216 4.199969 -2.497482 -1.365105 -13.849290 1.271288 1.833324 47.800413 9.920682 22.130370 -9.234630 0.000000 0.000000 0.000000 -4.171339 1.118610 -11.990456 18.387066 -4.045357 67.548253 -13.516481 -31.137649 4.208487 0.000000 0.000000 0.000000 -4.946630 0.397219 11.632224 6.273760 -1.173584 -22.718900 0.604210 7.874043 30.787176 -0.248390 1.645174 -29.907167 0.000000 0.000000 0.000000 -19.846953 8.353126 -5.248184 -44.987345 -4.325423 -6.344283 -21.398152 -65.168892 19.163700 0.000000 0.000000 0.000000 11.798962 11.423667 4.446303 51.158498 17.678095 -0.370865 17.233701 68.091227 15.579999 0.000000 0.000000 0.000000 
-0.463583 0.901167 2.076897 -0.569346 -19.030054 3.160545 -0.262671 -1.325218 -23.766934 0.197830 3.978878 55.428752 7.082229 14.388827 -5.859356 0.000000 0.000000 0.000000 -2.764369 0.606551 -5.953296 12.609923 0.373848 55.205304 -12.418036 -28.810407 -1.619700 0.000000 0.000000 0.000000 -4.516603 0.259274 9.309241 6.922026 -1.838094 -18.478290 2.120020 12.210415 27.081307 -0.402173 2.142856 -25.356801 0.000000 0.000000 0.000000 -17.543768 9.165619 -6.160221 -42.496859 -0.401233 -6.753562 -32.845876 -60.853835 23.431675 0.000000 0.000000 0.000000 8.628324 12.305490 4.998515 49.746873 19.340229 0.747968 13.196523 65.615170 12.662799 0.000000 0.000000 0.000000 
-0.511127 0.911488 2.230145 0.582243 -20.174944 -0.249233 1.779221 -0.621690 -29.526461 -5.897881 6.940814 48.195940 8.110058 17.066722 -14.746875 0.000000 0.000000 0.000000 -2.548100 0.338531 -2.643085 8.577148 2.893526 53.101813 -10.553042 -23.956112 -5.384179 0.000000 0.000000 0.000000 -7.439947 0.647712 10.632518 6.802809 -1.809256 -19.304239 4.696720 14.386353 28.933815 -2.314654 3.521111 -23.414375 0.000000 0.000000 0.000000 -20.100697 9.436902 -7.090781 -38.395761 0.486243 -6.370110 -39.191029 -65.525046 29.365987 0.000000 0.000000 0.000000 9.762533 10.307542 4.403228 49.433326 17.399292 -0.294359 15.472918 66.713787 15.038314 0.000000 0.000000 0.000000 
-0.561517 0.895240 2.384263 1.225953 -17.067890 -2.717454 1.742998 -0.825570 -32.565826 -7.666070 4.744801 34.992343 7.901757 16.550188 -12.109271 0.000000 0.000000 0.000000 -3.366711 0.472172 -4.525502 10.806908 1.580564 60.685677 -9.593553 -22.610781 -2.699963 0.000000 0.000000 0.000000 -10.108161 0.972524 11.563613 8.216038 -2.224637 -18.642788 4.684637 13.677767 29.258133 -2.802435 3.999697 -27.825418 0.000000 0.000000 0.000000 -18.724535 8.415408 -6.459603 -41.232265 -2.561148 -5.850141 -33.236990 -70.255008 27.408937 0.000000 0.000000 0.000000 11.363754 8.341558 3.795032 51.346840 12.938836 -2.119624 24.073316 64.275571 20.284976 0.000000 0.000000 0.000000 
-0.612107 0.865205 2.538234 0.909155 -12.237540 -9.709139 2.249515 -1.112455 -25.518663 -6.327315 3.846173 38.660510 5.048461 8.406906 -12.751011 0.000000 0.000000 0.000000 -7.176236 0.598509 -9.408882 16.796775 -4.458937 71.859158 -11.447378 -27.567732 -1.585431 0.000000 0.000000 0.000000 -11.112952 1.105704 15.736008 9.737727 -2.900362 -17.312040 1.755813 9.331540 29.735722 0.072872 2.087500 -27.593503 0.000000 0.000000 0.000000 -21.783434 7.378992 -5.832290 -38.660449 -12.307340 -2.986764 -14.906356 -70.900032 14.821521 0.000000 0.000000 0.000000 14.544836 7.408017 3.214538 51.089344 6.526623 -5.005424 23.470611 56.290482 16.338366 0.000000 0.000000 0.000000 
-0.659886 0.845085 2.683156 -0.986946 -8.491315 -13.800800 2.244461 -0.957258 -16.525366 -3.215003 2.174718 49.122680 6.256502 8.573107 -22.754552 0.000000 0.000000 0.000000 -9.684368 0.686070 -20.135872 17.821779 -7.342998 71.567631 -12.671982 -31.851318 -7.597837 0.000000 0.000000 0.000000 -9.724447 0.749341 17.592768 10.024654 -3.105369 -16.907001 -1.215726 3.437404 30.201723 -1.636209 2.389715 -26.861626 0.000000 0.000000 0.000000 -25.431630 4.181635 -3.162309 -35.245858 -22.789515 -0.518473 -0.291353 -73.157147 5.378483 0.000000 0.000000 0.000000 16.488401 4.587204 1.095521 47.863396 -4.659216 -9.004140 23.145327 48.795711 12.664910 0.000000 0.000000 0.000000 
-0.706071 0.838333 2.818702 -3.693414 -5.770069 -13.852636 3.265172 -0.379551 -8.120922 1.127334 -1.458808 50.342339 7.341886 9.974722 -28.390957 0.000000 0.000000 0.000000 -9.395638 0.963610 -28.723658 13.741320 -4.661468 55.617729 -13.101772 -32.160514 -6.879864 0.000000 0.000000 0.000000 -6.491928 0.123506 15.769883 11.610556 -3.657232 -16.315957 -4.516744 -2.219849 29.984796 -2.718304 2.276342 -23.931537 0.000000 0.000000 0.000000 -23.982536 3.556851 -1.540651 -38.449822 -26.883845 0.588731 -12.135414 -80.970808 18.044240 0.000000 0.000000 0.000000 15.550614 0.706796 -1.492636 47.491261 -13.919568 -12.295576 29.117504 47.353416 14.193857 0.000000 0.000000 0.000000 
-0.753175 0.840443 2.953028 -4.325387 -6.133291 -12.591159 7.378953 0.211115 -1.865951 1.056561 -1.535805 57.484779 6.670664 9.589897 -21.172694 0.000000 0.000000 0.000000 -7.356524 1.743086 -31.836860 8.225781 -1.257751 33.748946 -9.762388 -23.106602 -0.004755 0.000000 0.000000 0.000000 -3.546477 -0.184808 10.853943 12.765306 -3.996348 -16.292621 -7.608913 -3.987902 28.204059 -2.165810 1.522887 -19.472353 0.000000 0.000000 0.000000 -19.712412 5.869270 -2.385158 -45.466294 -24.904898 0.840562 -75.062657 -84.468935 80.493627 0.000000 0.000000 0.000000 11.842323 -2.465506 -2.786636 48.953576 -22.864647 -16.148221 37.275436 49.881265 18.565933 0.000000 0.000000 0.000000 
-0.800372 0.837694 3.089693 -4.115005 -7.186526 -12.756651 10.596371 0.442698 -7.045666 2.946295 -3.169544 74.010033 2.199398 4.682140 0.241794 0.000000 0.000000 0.000000 -6.159304 1.904423 -28.723338 7.855177 -0.982901 30.190741 -8.208091 -19.812234 2.169007 0.000000 0.000000 0.000000 -1.793708 -0.196969 5.538440 9.615059 -2.987668 -16.067858 -5.513375 -3.596046 27.482786 -4.688073 3.313130 -16.663497 0.000000 0.000000 0.000000 -22.372099 6.972885 -3.134773 -48.141921 -18.198658 -1.640857 -86.021150 -71.698061 78.735709 0.000000 0.000000 0.000000 8.414431 -3.389939 -2.622563 50.601953 -25.595968 -17.970540 44.956742 52.185393 23.478919 0.000000 0.000000 0.000000 
-0.845664 0.826813 3.221589 -5.232945 -7.857130 -16.413874 11.190419 0.770660 -15.613255 6.126437 -7.444601 83.977424 0.778401 2.995083 3.471031 0.000000 0.000000 0.000000 -2.749087 1.912621 -21.393261 9.853816 -1.664147 44.446924 -9.603362 -22.667813 -5.679887 0.000000 0.000000 0.000000 0.202420 -0.292212 7.458983 8.381063 -2.450192 -18.019392 -3.646064 -0.066293 27.574300 -1.980765 1.846193 -12.281660 0.000000 0.000000 0.000000 -23.379692 11.349465 -6.780173 -48.005828 -6.011373 -6.235234 -77.873113 -59.713675 57.867524 0.000000 0.000000 0.000000 11.512388 -3.258720 -2.648730 48.876657 -17.887774 -14.104000 38.272955 59.298741 24.298524 0.000000 0.000000 0.000000 
-0.884382 0.816519 3.342466 -3.354582 -12.369981 -22.244189 11.282300 1.405968 -20.468695 2.213932 -0.438721 76.232967 7.381852 12.979917 -12.579865 0.000000 0.000000 0.000000 -1.535864 1.500868 -15.282979 10.691001 -0.335309 57.791888 -8.131292 -18.294977 -8.613273 0.000000 0.000000 0.000000 -0.225791 -0.336383 11.343094 5.473599 -1.707650 -18.419821 1.833147 9.224690 27.075918 0.724467 0.607221 -9.517411 0.000000 0.000000 0.000000 -20.969193 12.390854 -8.542226 -45.319622 9.180930 -10.712328 -64.807053 -56.500275 41.848019 0.000000 0.000000 0.000000 12.974234 -2.445961 -1.532243 49.249987 -5.871429 -9.617020 26.179688 69.483568 23.364424 0.000000 0.000000 0.000000 
-0.913521 0.810989 3.451862 -2.633188 -14.478369 -23.902468 12.258222 2.326186 -26.535284 -4.406919 4.412234 55.631386 6.852280 11.821899 -13.342501 0.000000 0.000000 0.000000 0.096162 0.757845 -7.197895 9.242468 1.978858 63.724944 -8.551041 -19.562306 -7.987297 0.000000 0.000000 0.000000 0.153619 -0.323715 11.911566 3.097033 -0.830631 -21.122040 5.312529 14.258288 29.375734 2.130066 0.419312 -13.202240 0.000000 0.000000 0.000000 -18.220578 17.254771 -11.299853 -42.531846 17.274273 -12.478977 -47.737421 -50.363114 25.750862 0.000000 0.000000 0.000000 8.189774 -1.957393 -0.779502 48.151206 11.067243 -2.907423 6.013914 74.051883 11.702617 0.000000 0.000000 0.000000 
-0.933705 0.808536 3.550154 -1.596488 -14.442147 -24.786245 9.430199 1.397966 -26.846507 -5.493305 3.477783 39.938332 4.774178 9.481443 0.336251 0.000000 0.000000 0.000000 -1.961589 0.145253 -1.644964 9.367584 2.693761 70.054049 -7.992477 -18.264137 -8.362290 0.000000 0.000000 0.000000 -0.760241 -0.287508 11.762753 1.910921 -0.442906 -21.315237 6.509963 16.348943 30.466707 3.607895 0.055497 -16.930949 0.000000 0.000000 0.000000 -11.788856 20.487315 -11.123875 -43.390930 21.516168 -14.302443 -36.995572 -46.698523 18.009746 0.000000 0.000000 0.000000 5.044101 0.146904 0.085231 45.699345 23.755905 2.232362 -38.492396 71.355119 -19.916750 0.000000 0.000000 0.000000 
-0.947880 0.814571 3.632931 -1.223817 -14.019073 -25.428024 6.647280 0.420450 -26.547492 -3.991686 3.101530 43.779866 1.423562 4.889934 7.575388 0.000000 0.000000 0.000000 -5.588611 0.055247 -1.121013 11.112879 1.851500 76.720856 -6.410022 -16.043500 2.721781 0.000000 0.000000 0.000000 -4.097339 -0.082682 14.269847 4.986238 -1.161546 -23.201760 7.884869 17.122158 32.988872 4.007099 0.187328 -18.948010 0.000000 0.000000 0.000000 -12.318916 20.960857 -11.637040 -41.679301 23.116592 -14.332163 -30.370960 -46.090786 14.645166 0.000000 0.000000 0.000000 1.583216 0.311377 -0.087916 44.100028 29.558025 4.443530 -68.538803 67.758843 -39.330322 0.000000 0.000000 0.000000 
