HIERARCHY
ROOT Hips
{
	OFFSET -0.001795 -0.223333 0.028219
	CHANNELS 6 Xposition Yposition Zposition Zrotation Yrotation Xrotation 
	JOINT LeftUpLeg
	{
		OFFSET 0.069520 -0.091406 -0.006815
		CHANNELS 3 Zrotation Yrotation Xrotation
		JOINT LeftLeg
		{
			OFFSET 0.034277 -0.375199 -0.004496
			CHANNELS 3 Zrotation Yrotation Xrotation
			JOINT LeftFoot
			{
				OFFSET -0.013596 -0.397961 -0.043693
				CHANNELS 3 Zrotation Yrotation Xrotation
				JOINT LeftToe
				{
					OFFSET 0.026358 -0.055791 0.119288
					CHANNELS 3 Zrotation Yrotation Xrotation
					End Site
					{
						OFFSET 0.000000 0.000000 0.000000
					}
				}
			}
		}
	}
	JOINT RightUpLeg
	{
		OFFSET -0.067670 -0.090522 -0.004320
		CHANNELS 3 Zrotation Yrotation Xrotation
		JOINT RightLeg
		{
			OFFSET -0.038290 -0.382569 -0.008850
			CHANNELS 3 Zrotation Yrotation Xrotation
			JOINT RightFoot
			{
				OFFSET 0.015774 -0.398415 -0.042312
				CHANNELS 3 Zrotation Yrotation Xrotation
				JOINT RightToe
				{
					OFFSET -0.025372 -0.048144 0.123348
					CHANNELS 3 Zrotation Yrotation Xrotation
					End Site
					{
						OFFSET 0.000000 0.000000 0.000000
					}
				}
			}
		}
	}
	JOINT Spine
	{
		OFFSET -0.002533 0.108963 -0.026696
		CHANNELS 3 Zrotation Yrotation Xrotation
		JOINT Spine1
		{
			OFFSET 0.005487 0.135180 0.001092
			CHANNELS 3 Zrotation Yrotation Xrotation
			JOINT Spine2
			{
				OFFSET 0.001457 0.052922 0.025425
				CHANNELS 3 Zrotation Yrotation Xrotation
				JOINT Neck
				{
					OFFSET -0.002778 0.213870 -0.042857
					CHANNELS 3 Zrotation Yrotation Xrotation
					JOINT Head
					{
						OFFSET 0.005152 0.064970 0.051349
						CHANNELS 3 Zrotation Yrotation Xrotation
						End Site
						{
							OFFSET 0.000000 0.000000 0.000000
						}
					}
				}
				JOINT LeftShoulder
				{
					OFFSET 0.078845 0.121749 -0.034090
					CHANNELS 3 Zrotation Yrotation Xrotation
					JOINT LeftArm
					{
						OFFSET 0.090977 0.030469 -0.008868
						CHANNELS 3 Zrotation Yrotation Xrotation
						JOINT LeftForeArm
						{
							OFFSET 0.259612 -0.012772 -0.027456
							CHANNELS 3 Zrotation Yrotation Xrotation
							JOINT LeftHand
							{
								OFFSET 0.249234 0.008986 -0.001171
								CHANNELS 3 Zrotation Yrotation Xrotation
								End Site
								{
									OFFSET 0.000000 0.000000 0.000000
								}
							}
						}
					}
				}
				JOINT RightShoulder
				{
					OFFSET -0.081759 0.118833 -0.038615
					CHANNELS 3 Zrotation Yrotation Xrotation
					JOINT RightArm
					{
						OFFSET -0.096012 0.032551 -0.009143
						CHANNELS 3 Zrotation Yrotation Xrotation
						JOINT RightForeArm
						{
							OFFSET -0.253742 -0.013329 -0.021401
							CHANNELS 3 Zrotation Yrotation Xrotation
							JOINT RightHand
							{
								OFFSET -0.255298 0.007772 -0.005559
								CHANNELS 3 Zrotation Yrotation Xrotation
								End Site
								{
									OFFSET 0.000000 0.000000 0.000000
								}
							}
						}
					}
				}
			}
		}
	}
}
MOTION
Frames: 41
Frame Time: 0.050000
0.000000 0.944081 0.000000 -1.881634 -5.253743 1.279893 2.880123 0.273186 3.995040 0.742767 0.028998 -2.942752 3.113019 8.506074 8.541890 0.000000 0.000000 0.000000 -3.166414 0.217779 -1.463927 1.562123 -0.151334 -0.143026 -2.778942 -10.790510 11.676268 0.000000 0.000000 0.000000 -2.655107 -0.097696 8.618363 5.764275 -1.358306 -18.454449 -0.624543 3.159986 21.783656 1.966114 -0.303330 -15.697488 0.000000 0.000000 0.000000 -31.513650 -0.381101 -2.065658 -46.328740 -4.268037 -5.661047 -12.763560 -25.342727 4.089510 0.000000 0.000000 0.000000 26.658715 6.730420 2.415292 52.412351 6.925172 -4.093298 4.638602 26.876437 2.187715 0.000000 0.000000 0.000000 
0.000595 0.943142 0.004752 -2.148812 -5.536709 1.945859 3.322161 0.301418 4.661165 0.282454 0.139995 -4.728902 3.179150 8.616339 8.624013 0.000000 0.000000 0.000000 -2.775909 0.253307 -2.012023 1.226347 -0.112915 0.065181 -2.734717 -10.661820 11.358051 0.000000 0.000000 0.000000 -2.926051 -0.063654 8.247528 5.866172 -1.388306 -18.432823 -0.532127 1.808926 22.335415 1.626568 -0.249861 -16.372921 0.000000 0.000000 0.000000 -31.442896 1.419190 -2.646863 -46.943026 -4.441776 -5.910184 -13.079022 -25.905240 4.365137 0.000000 0.000000 0.000000 25.958718 7.270389 2.213866 53.677106 5.721334 -4.607181 4.031295 28.168550 2.108119 0.000000 0.000000 0.000000 
0.000609 0.943245 0.011062 -1.534001 -5.854587 2.126372 3.344420 0.249915 3.897951 -1.108033 0.205104 -3.035642 3.309614 8.796851 8.506803 0.000000 0.000000 0.000000 -3.348564 0.303654 -2.500521 0.929646 -0.047784 1.138531 -2.735122 -10.565823 10.850053 0.000000 0.000000 0.000000 -3.099265 -0.045041 8.695032 6.316607 -1.314593 -20.785347 -0.911098 1.603224 24.881020 1.214433 0.019514 -17.711350 0.000000 0.000000 0.000000 -31.012970 1.267561 -2.154740 -47.229759 -4.836118 -6.136263 -13.455686 -25.120250 4.365380 0.000000 0.000000 0.000000 26.962785 7.010123 1.948417 52.746495 5.458852 -4.896076 3.336703 27.860352 1.931916 0.000000 0.000000 0.000000 
-0.000203 0.942298 0.019855 -1.532453 -5.789543 3.334361 3.106326 0.207483 3.320407 -0.708824 0.175978 -3.346066 3.383556 8.896475 8.365183 0.000000 0.000000 0.000000 -3.235258 0.401942 -3.795599 0.725625 0.011217 2.152490 -2.962016 -10.848920 10.316733 0.000000 0.000000 0.000000 -3.244354 -0.017298 8.298568 6.700509 -1.405732 -20.656949 -1.129196 0.654142 24.981187 0.561074 0.327578 -17.807419 0.000000 0.000000 0.000000 -30.441632 1.710005 -2.055186 -47.647619 -4.387376 -6.422235 -14.998212 -25.515041 4.851005 0.000000 0.000000 0.000000 27.049712 7.427952 1.865330 52.634041 4.317259 -5.261000 3.600883 28.702084 2.012905 0.000000 0.000000 0.000000 
-0.002021 0.940656 0.031295 -1.322259 -5.642286 3.531872 2.945443 0.191021 3.053829 -0.705294 0.136562 -1.968033 3.469947 8.939768 7.676355 0.000000 0.000000 0.000000 -3.254082 0.430721 -4.181795 0.466958 0.109982 3.855287 -3.293305 -11.190382 9.283894 0.000000 0.000000 0.000000 -3.099773 -0.034453 9.127596 6.676323 -1.471203 -19.801400 -1.228297 0.674772 24.252735 0.274549 0.508217 -16.835409 0.000000 0.000000 0.000000 -30.165672 1.234201 -1.806892 -47.145761 -3.743998 -6.499722 -15.733089 -26.566799 5.218094 0.000000 0.000000 0.000000 27.371376 6.934475 1.556398 52.417582 3.302812 -5.583483 3.944824 28.935744 2.106368 0.000000 0.000000 0.000000 
-0.004884 0.938208 0.045866 -1.328351 -5.409271 4.498472 3.221185 0.112155 2.181012 -0.951771 0.128113 -0.604775 3.577790 8.998954 6.856379 0.000000 0.000000 0.000000 -3.103100 0.513988 -5.240827 0.443192 0.192392 5.698157 -3.715092 -11.710004 8.173209 0.000000 0.000000 0.000000 -3.727616 0.040301 10.130832 7.654150 -1.546341 -21.441204 -1.108991 0.819354 25.317130 0.205430 0.652916 -18.155178 0.000000 0.000000 0.000000 -29.561759 1.514575 -2.020205 -47.866873 -3.928826 -6.573771 -16.674479 -26.581792 5.470160 0.000000 0.000000 0.000000 26.862082 7.064154 1.825965 51.983435 3.235335 -5.715123 4.823580 28.526461 2.297890 0.000000 0.000000 0.000000 
-0.008228 0.934913 0.064506 -1.269886 -5.219089 5.409850 2.886731 0.024453 0.917729 -0.250092 -0.026566 2.039977 3.861529 9.345518 5.823829 0.000000 0.000000 0.000000 -2.623587 0.601232 -6.274266 -0.251689 0.416153 8.088910 -4.197241 -12.342165 6.861399 0.000000 0.000000 0.000000 -3.448916 0.015456 10.904430 7.148513 -1.415052 -21.292461 -0.968955 1.116746 25.205872 0.323581 0.641145 -18.213287 0.000000 0.000000 0.000000 -29.540290 1.586082 -2.242036 -47.588532 -3.442841 -6.664401 -17.205416 -27.592488 5.811959 0.000000 0.000000 0.000000 26.668413 6.552551 1.685085 52.342911 2.676829 -6.023892 5.598509 28.447487 2.501191 0.000000 0.000000 0.000000 
-0.011497 0.930519 0.088054 -0.514364 -4.945450 5.885447 1.950189 0.005128 0.481212 0.181087 -0.157185 4.472493 3.982340 9.455399 5.071072 0.000000 0.000000 0.000000 -3.141406 0.635782 -6.773904 -0.517838 0.617671 10.900573 -4.787627 -13.176487 5.304626 0.000000 0.000000 0.000000 -4.063451 0.110931 13.046389 6.776625 -1.159511 -22.867066 -1.002466 1.383895 25.547471 0.217091 0.822264 -19.044053 0.000000 0.000000 0.000000 -28.811476 1.338212 -2.178944 -47.027156 -3.370272 -6.602074 -18.739589 -29.270956 6.584605 0.000000 0.000000 0.000000 26.718393 6.291565 1.720304 51.974665 1.364225 -6.606353 7.728635 28.836189 3.075667 0.000000 0.000000 0.000000 
-0.014198 0.923221 0.116976 0.016885 -5.106499 6.440510 0.709213 0.014743 0.341299 1.260472 -0.417966 7.053031 4.462915 10.187328 3.951509 0.000000 0.000000 0.000000 -3.597546 0.755654 -8.414644 -0.250167 0.890330 16.280442 -5.742514 -14.836265 3.473429 0.000000 0.000000 0.000000 -4.920949 0.265165 13.917107 7.297148 -1.248252 -23.093295 -1.558923 1.949772 26.259934 -0.586897 1.502912 -20.500704 0.000000 0.000000 0.000000 -29.491692 2.291608 -3.068745 -46.061094 -3.423913 -6.487566 -19.101974 -31.456992 7.208206 0.000000 0.000000 0.000000 27.333380 6.554547 2.119340 52.726322 2.249030 -6.469595 6.919497 27.526853 2.778602 0.000000 0.000000 0.000000 
-0.017100 0.910955 0.150446 0.689256 -5.018106 6.245823 0.932025 -0.017213 0.015821 -0.332325 -0.219806 11.959130 4.791383 10.550122 2.090935 0.000000 0.000000 0.000000 -4.874885 0.800068 -9.642731 1.138802 0.909546 22.965678 -6.624213 -16.491882 1.782952 0.000000 0.000000 0.000000 -6.331985 0.549383 16.080569 7.378838 -1.205693 -23.676349 -1.333405 3.109437 27.475907 0.168214 1.285740 -21.929950 0.000000 0.000000 0.000000 -30.610701 0.551114 -2.415462 -43.067842 -6.676757 -5.079336 -19.914778 -34.467739 8.107638 0.000000 0.000000 0.000000 27.976002 6.708187 2.798172 50.842584 2.260929 -6.544592 7.517210 26.526177 2.838351 0.000000 0.000000 0.000000 
-0.021520 0.893901 0.187440 1.553989 -2.742162 5.230470 0.329518 0.032940 0.449066 0.314935 -0.576217 17.769647 4.828743 9.935000 -1.416111 0.000000 0.000000 0.000000 -5.874973 0.936628 -13.818116 3.531872 0.412872 37.770211 -8.201574 -20.181889 5.282330 0.000000 0.000000 0.000000 -7.264840 0.725335 18.936138 6.971328 -1.256665 -21.807214 -1.387550 0.722169 26.411586 0.355053 1.135431 -24.738672 0.000000 0.000000 0.000000 -32.612409 -0.462112 -1.537669 -40.011933 -11.600924 -3.341189 -19.430167 -42.009799 9.926817 0.000000 0.000000 0.000000 26.709791 7.555232 2.922149 50.423144 -0.992959 -7.540149 8.804750 25.846901 2.938915 0.000000 0.000000 0.000000 
-0.028714 0.874519 0.228241 2.122197 0.505172 4.751446 1.301736 0.115169 1.809069 0.116359 -0.843745 22.327724 4.526689 7.536111 -6.721906 0.000000 0.000000 0.000000 -8.251795 0.861963 -22.950117 8.755285 -3.773587 58.363589 -8.632378 -20.819000 14.611315 0.000000 0.000000 0.000000 -8.460348 0.953045 23.114160 9.348667 -1.560413 -24.049347 -2.654529 -1.780796 27.655463 1.008792 0.841161 -28.701925 0.000000 0.000000 0.000000 -34.656997 -2.420258 0.111625 -36.541162 -20.689854 -0.906658 -17.944918 -52.967506 12.326427 0.000000 0.000000 0.000000 24.521776 4.391454 0.872653 49.835548 -8.076309 -10.258853 10.972616 24.612138 3.197709 0.000000 0.000000 0.000000 
-0.040515 0.857606 0.278031 1.842318 4.247583 4.420804 3.365095 0.236081 5.925806 1.114752 -1.375923 22.238600 4.494273 5.405341 -10.296935 0.000000 0.000000 0.000000 -11.464406 -0.206050 -31.391618 13.207898 -9.922783 67.679890 -9.881907 -22.666024 15.619831 0.000000 0.000000 0.000000 -7.141172 0.448775 26.312557 10.554217 -1.772219 -24.235450 -4.871915 -5.767826 26.726534 0.053800 1.164307 -31.108968 0.000000 0.000000 0.000000 -33.919787 -4.660357 2.580626 -33.471696 -29.827794 1.207327 -8.707356 -69.481340 10.966916 0.000000 0.000000 0.000000 24.032216 2.998811 -0.650448 47.471777 -17.041195 -12.708933 11.663113 25.803637 3.367571 0.000000 0.000000 0.000000 
-0.057200 0.849648 0.343069 1.225579 6.850952 5.742463 5.288879 0.137921 10.676189 3.217876 -1.746985 18.173637 3.762330 4.587401 -7.213066 0.000000 0.000000 0.000000 -13.070467 -1.449858 -38.909045 16.925234 -13.337692 64.310149 -9.878510 -24.229716 -3.964014 0.000000 0.000000 0.000000 -5.038697 -0.235130 26.288515 11.628310 -2.063811 -23.429180 -5.997436 -11.390491 24.361594 -1.937830 1.622324 -33.198982 0.000000 0.000000 0.000000 -30.412488 -3.201470 3.163053 -31.047278 -39.698061 3.199422 53.952918 -87.268518 -43.443236 0.000000 0.000000 0.000000 20.782873 1.824503 -2.346235 43.575237 -26.278232 -14.220732 15.440962 26.267261 3.934168 0.000000 0.000000 0.000000 
-0.078706 0.849454 0.425920 -0.397691 6.494475 8.800215 8.121241 -0.314062 15.533639 4.877872 -1.545556 12.236339 -0.142410 0.994155 2.527898 0.000000 0.000000 0.000000 -13.190446 -1.827727 -45.510884 20.428982 -12.840760 52.809643 -9.327793 -23.131016 -5.140704 0.000000 0.000000 0.000000 -2.064715 -0.750002 22.288433 14.389189 -2.535163 -24.554825 -9.440276 -11.057895 24.885056 -1.526903 1.443887 -32.121592 0.000000 0.000000 0.000000 -23.425217 -2.216171 2.108942 -32.633543 -45.281126 5.554813 159.041246 -78.366862 -143.602252 0.000000 0.000000 0.000000 18.206365 -1.610507 -3.723488 40.726485 -31.471803 -14.845651 19.183656 25.178885 4.447446 0.000000 0.000000 0.000000 
-0.102940 0.850240 0.521758 -0.685931 6.533985 10.396889 9.162268 -0.552322 16.203565 7.381317 -2.615128 16.672028 -4.256980 -0.688882 14.181951 0.000000 0.000000 0.000000 -10.881690 -0.804706 -44.621726 20.838069 -11.988232 48.131760 -11.753692 -27.020184 5.469198 0.000000 0.000000 0.000000 1.522922 -1.365742 19.470884 10.674377 -1.854807 -22.625800 -6.057611 -14.387420 21.725109 -4.613588 2.485035 -29.324114 0.000000 0.000000 0.000000 -23.985634 -2.626749 3.290804 -33.693666 -43.983541 5.585208 175.728570 -73.346497 -160.955689 0.000000 0.000000 0.000000 13.844181 -1.684516 -3.639522 41.751604 -33.206099 -15.881972 19.226096 26.445391 4.463313 0.000000 0.000000 0.000000 
-0.127807 0.843411 0.619285 -0.600774 3.612681 10.657125 6.502077 -0.012339 9.610988 9.327900 -5.544474 33.763373 -4.408204 1.475052 20.998741 0.000000 0.000000 0.000000 -6.742935 1.358255 -40.404414 19.371606 -11.594741 54.122339 -11.154656 -27.013899 0.034300 0.000000 0.000000 0.000000 3.561954 -1.622915 18.461381 8.633711 -1.128194 -25.309580 -6.055436 -12.541269 23.757313 -4.745683 2.544830 -28.463693 0.000000 0.000000 0.000000 -26.154253 -0.298974 2.078064 -36.080619 -37.100742 3.515868 -156.601820 -71.547591 161.880314 0.000000 0.000000 0.000000 18.333864 -1.358367 -4.437602 39.174965 -28.793549 -13.283723 17.304166 31.171336 4.900602 0.000000 0.000000 0.000000 
-0.150852 0.832339 0.709858 -1.145784 -0.047582 8.597403 3.922416 -0.155402 -0.595969 7.668974 -7.170506 55.743795 1.167887 7.719676 16.573032 0.000000 0.000000 0.000000 -3.150975 2.530710 -32.611594 17.568242 -9.600149 57.152944 -9.291983 -23.147455 -4.033116 0.000000 0.000000 0.000000 3.618732 -1.802371 22.424344 7.477752 -0.874413 -26.306599 -2.714516 -7.645976 25.264413 -5.905788 3.611323 -30.439956 0.000000 0.000000 0.000000 -33.945158 0.335046 0.844419 -34.296901 -27.285203 0.115203 -121.653970 -71.980985 114.904363 0.000000 0.000000 0.000000 26.468938 2.757646 -2.840496 36.307663 -15.841295 -8.522822 12.564953 34.161047 4.377541 0.000000 0.000000 0.000000 
-0.170949 0.823013 0.797669 -1.788192 -6.037614 5.886838 2.392704 -0.945652 -14.457309 5.200111 -4.349773 73.795949 4.400965 10.436048 5.558673 0.000000 0.000000 0.000000 2.058075 2.882937 -22.818989 12.607851 -3.809199 57.685628 -8.447171 -20.665500 -5.438626 0.000000 0.000000 0.000000 2.278416 -1.358498 27.146144 8.736422 -1.143887 -27.390848 0.525292 2.426250 26.115131 -4.891890 4.244512 -32.034333 0.000000 0.000000 0.000000 -36.096135 0.151410 -2.284547 -35.169169 -11.953545 -3.004229 -75.695736 -67.583148 60.115323 0.000000 0.000000 0.000000 29.991063 6.261790 1.779337 33.237114 -0.339872 -4.757069 7.899099 39.443590 4.065536 0.000000 0.000000 0.000000 
-0.189467 0.816993 0.892119 0.061401 -11.216423 3.958637 2.858660 -1.041005 -33.210221 4.497222 -1.472357 83.146757 4.636541 10.631254 4.851428 0.000000 0.000000 0.000000 2.229115 1.005860 -9.182926 7.242398 1.163199 50.145399 -8.150536 -17.816811 -11.346041 0.000000 0.000000 0.000000 -1.546899 0.091526 28.485817 8.716913 -1.496257 -25.201467 3.736688 8.952773 26.355505 -3.732079 4.321620 -32.854997 0.000000 0.000000 0.000000 -39.012229 2.830030 -6.751560 -32.789230 1.458843 -5.396645 -55.939959 -57.643600 35.487360 0.000000 0.000000 0.000000 27.021945 11.335630 6.552777 34.341953 13.360276 -2.061682 -4.464623 49.523117 0.425109 0.000000 0.000000 0.000000 
-0.209060 0.825650 1.002547 2.858367 -13.033427 3.538283 1.762280 -0.898088 -46.964180 0.945539 1.525006 69.652623 6.541567 12.535359 -5.240530 0.000000 0.000000 0.000000 -1.562298 -0.270640 5.409497 3.495852 1.945568 36.260779 -5.858055 -11.206431 -6.809343 0.000000 0.000000 0.000000 -5.468107 1.318932 27.504357 8.484714 -1.496515 -24.913076 3.807650 14.573777 26.096944 -1.218249 3.801886 -30.484521 0.000000 0.000000 0.000000 -34.283114 7.202363 -11.183288 -31.428463 15.991073 -7.840982 -54.451102 -48.090163 27.204434 0.000000 0.000000 0.000000 24.300431 10.876011 7.539365 34.677077 22.341120 -0.089323 -9.014292 64.410087 -0.891139 0.000000 0.000000 0.000000 
-0.232577 0.842400 1.131211 5.615449 -12.334321 3.656276 1.487079 -1.020979 -52.704429 -6.377519 3.995441 44.705310 5.157922 11.611390 9.571364 0.000000 0.000000 0.000000 -3.846266 -0.306645 19.211048 1.186217 1.138448 21.589928 -1.942531 -8.861750 9.988517 0.000000 0.000000 0.000000 -9.648578 2.004264 22.533699 6.595697 -1.327570 -22.035881 6.117914 19.336371 24.071614 -1.388176 4.476711 -25.947287 0.000000 0.000000 0.000000 -30.407157 10.319545 -14.129559 -26.055686 23.602830 -7.306275 -61.866587 -44.016758 27.293365 0.000000 0.000000 0.000000 19.908226 8.104226 6.505017 38.823213 24.102300 1.033968 -13.811343 79.393414 -2.718382 0.000000 0.000000 0.000000 
-0.259009 0.855829 1.269002 6.808641 -9.983432 4.890729 0.847175 -1.996526 -48.528912 -10.278729 4.311942 32.383750 3.992530 10.616739 15.165551 0.000000 0.000000 0.000000 -2.527143 -0.882349 24.155315 -2.141010 1.814461 20.220662 4.060378 -5.038429 27.508049 0.000000 0.000000 0.000000 -12.869166 2.360367 19.409035 3.948185 -0.553016 -22.804022 9.770741 18.992316 22.437986 -1.224505 4.313891 -24.821111 0.000000 0.000000 0.000000 -27.852803 12.078932 -14.563019 -25.593716 28.777874 -8.076743 -62.919249 -45.561097 28.630999 0.000000 0.000000 0.000000 18.246377 5.436924 4.896299 42.353394 18.203140 -0.309536 97.107587 84.078592 102.709961 0.000000 0.000000 0.000000 
-0.285907 0.852337 1.403412 6.680029 -7.369920 4.434520 -2.697729 -3.705324 -41.663933 -7.528083 3.206294 36.076129 4.628654 10.003311 2.320318 0.000000 0.000000 0.000000 -2.692833 -1.055654 23.392316 1.897362 1.355902 32.160358 2.051548 -8.398129 32.188291 0.000000 0.000000 0.000000 -15.447669 2.501414 17.402863 7.062463 -1.423160 -20.925750 7.216107 17.667847 21.958385 0.007651 3.780178 -26.417170 0.000000 0.000000 0.000000 -28.445313 12.134080 -14.941572 -32.087930 26.838434 -10.055722 -55.658451 -48.613151 26.824076 0.000000 0.000000 0.000000 17.515101 5.766764 5.081026 46.176608 16.236582 -0.765761 83.845079 78.930629 84.577473 0.000000 0.000000 0.000000 
-0.313478 0.838147 1.526715 6.490389 -7.904390 3.191720 -4.582690 -3.687490 -34.068638 -4.422253 2.323628 41.677720 6.529674 12.070827 -13.090898 0.000000 0.000000 0.000000 -6.192369 -0.057143 15.825274 8.542017 -0.766190 50.280748 -3.718987 -14.242371 24.001664 0.000000 0.000000 0.000000 -16.395212 3.019655 19.900585 7.862045 -1.618090 -21.304532 4.653459 15.480372 22.597675 1.880923 2.791140 -32.192332 0.000000 0.000000 0.000000 -32.649975 7.941274 -12.979213 -37.280608 15.872149 -8.826737 -40.262194 -55.084097 22.594945 0.000000 0.000000 0.000000 18.033340 5.111467 4.277312 49.205924 15.053463 -1.097129 51.316613 73.937906 48.874258 0.000000 0.000000 0.000000 
-0.343601 0.828130 1.645800 4.911196 -9.726270 3.745648 -5.812318 -2.911816 -24.030764 0.993641 -0.075716 40.992675 7.570152 15.241591 -26.538354 0.000000 0.000000 0.000000 -7.315291 0.380955 1.616090 14.894508 -4.246675 66.591264 -10.363498 -23.480909 16.940140 0.000000 0.000000 0.000000 -13.650939 2.553424 20.242399 6.997143 -1.559747 -20.050650 1.703523 9.611743 22.372130 1.126366 2.164562 -34.255972 0.000000 0.000000 0.000000 -31.236507 7.162490 -9.093623 -41.278105 3.512737 -6.977779 -23.311682 -60.002451 16.217650 0.000000 0.000000 0.000000 19.450879 8.936117 4.878554 49.220478 14.316421 -1.226612 25.501997 70.489055 23.740013 0.000000 0.000000 0.000000 
-0.379181 0.841638 1.776158 2.546598 -12.014475 4.100046 -5.044907 -1.666675 -13.634528 3.872541 -1.059011 38.931866 8.265743 18.981631 -18.010611 0.000000 0.000000 0.000000 -5.312260 0.847029 -9.456273 18.568233 -6.330024 72.100299 -13.767269 -29.310230 14.061297 0.000000 0.000000 0.000000 -9.702261 1.669461 19.555903 8.646257 -1.467723 -25.017280 -0.734062 8.212907 27.292737 2.096419 1.127962 -33.246271 0.000000 0.000000 0.000000 -29.521705 5.523020 -6.124676 -39.232208 -5.080623 -5.094305 -14.182551 -62.605570 12.363106 0.000000 0.000000 0.000000 21.881360 9.965706 5.021680 44.677799 13.290038 -2.199727 22.719092 69.949349 20.671230 0.000000 0.000000 0.000000 
-0.419523 0.873317 1.923503 -0.095004 -16.765951 1.672421 -2.524822 -1.067989 -10.124895 2.441530 1.265458 46.517791 10.448541 19.646605 19.657603 0.000000 0.000000 0.000000 -3.291711 0.818226 -8.508637 16.786500 -2.375844 64.874993 -13.145113 -29.437064 7.555401 0.000000 0.000000 0.000000 -5.600150 0.801471 18.510011 9.407508 -1.565930 -26.208012 -1.296400 9.980704 28.690331 -0.193166 1.768003 -23.470794 0.000000 0.000000 0.000000 -26.112816 6.474746 -5.546249 -38.539433 -2.952843 -5.948265 -18.045064 -64.538455 15.593576 0.000000 0.000000 0.000000 20.005847 12.821544 6.093671 43.839024 15.243052 -1.605028 17.242237 67.512824 15.535507 0.000000 0.000000 0.000000 
-0.463583 0.901167 2.076897 -0.763309 -19.243564 0.609946 -0.294258 -1.190702 -19.384227 0.659516 3.643004 52.149763 9.906815 18.393871 34.867766 0.000000 0.000000 0.000000 -1.979343 0.318593 -2.695219 10.872785 1.465467 52.598233 -11.897113 -26.873548 3.473069 0.000000 0.000000 0.000000 -5.226476 0.590407 15.889004 10.543227 -2.704187 -20.417648 -0.602503 14.913017 23.110442 -0.186463 2.121196 -17.298585 0.000000 0.000000 0.000000 -23.500006 7.256384 -6.948919 -36.229774 1.679044 -6.016347 -30.331935 -60.428741 20.503496 0.000000 0.000000 0.000000 17.117523 13.759919 7.080466 42.688928 16.551395 -0.773507 14.103810 64.990642 13.231957 0.000000 0.000000 0.000000 
-0.511127 0.911488 2.230145 0.302410 -20.332533 -2.608074 1.739387 -0.659622 -24.923971 -6.056825 4.514804 33.562740 21.874031 31.473544 24.325351 0.000000 0.000000 0.000000 -1.767481 0.090565 0.429622 6.937523 3.656490 50.256542 -9.783672 -22.199135 0.514268 0.000000 0.000000 0.000000 -8.224419 1.171348 16.672614 10.700312 -2.758350 -21.246339 2.100996 17.114185 25.595018 -2.426629 3.918037 -15.217510 0.000000 0.000000 0.000000 -26.313367 7.403052 -8.058887 -31.986500 2.509564 -5.450412 -35.872412 -65.116277 25.708925 0.000000 0.000000 0.000000 18.249109 11.767726 6.533191 41.960498 14.959261 -1.704754 15.605330 66.200622 15.044555 0.000000 0.000000 0.000000 
-0.561517 0.895240 2.384263 0.992944 -17.117992 -4.852821 1.580055 -0.879591 -28.125590 -6.592752 2.524229 20.912020 9.333997 17.306282 15.149024 0.000000 0.000000 0.000000 -2.620030 0.239996 -1.513381 9.210179 2.543578 57.520584 -8.876983 -21.024304 2.906861 0.000000 0.000000 0.000000 -11.215643 1.602867 16.820240 12.531827 -3.385172 -19.707815 2.055279 16.531731 25.679129 -3.153299 4.693928 -20.658399 0.000000 0.000000 0.000000 -25.323934 6.309504 -7.552524 -34.624356 -0.379925 -5.067917 -29.806283 -69.700403 23.342042 0.000000 0.000000 0.000000 19.744225 9.671720 5.890679 43.662113 10.947654 -3.135597 22.846239 63.955164 19.396418 0.000000 0.000000 0.000000 
-0.612107 0.865205 2.538234 0.630202 -12.335289 -11.380570 2.113950 -1.029940 -21.723003 -7.379228 3.467364 30.361226 5.576645 11.645283 2.214077 0.000000 0.000000 0.000000 -6.112044 0.478424 -6.358588 15.187799 -2.815038 68.395188 -11.173039 -26.227196 2.157518 0.000000 0.000000 0.000000 -12.352419 1.682393 19.621985 14.525818 -4.572038 -16.964046 -1.152341 12.664693 25.600269 0.047093 2.438945 -20.437859 0.000000 0.000000 0.000000 -28.521810 5.127282 -7.118404 -31.688572 -9.675687 -2.616813 -14.014126 -70.031673 12.366632 0.000000 0.000000 0.000000 23.005317 8.626778 5.263413 43.344700 4.883365 -5.206122 21.261008 56.134078 15.123944 0.000000 0.000000 0.000000 
-0.659886 0.845085 2.683156 -1.129439 -8.765821 -15.299157 2.146332 -0.774371 -13.057185 -3.613763 2.036443 41.622401 6.097310 10.693942 -14.248689 0.000000 0.000000 0.000000 -8.439757 0.729347 -16.762315 16.133511 -5.393408 68.000991 -9.607953 -24.553926 -20.494163 0.000000 0.000000 0.000000 -11.286535 1.226126 20.692122 15.026539 -5.112948 -15.831251 -3.904418 7.147556 25.814694 -1.782880 3.046280 -19.582875 0.000000 0.000000 0.000000 -32.101927 1.986208 -4.310806 -28.313117 -19.542297 -0.808399 -2.792893 -72.335594 5.215441 0.000000 0.000000 0.000000 24.457694 5.892195 2.627205 40.761925 -6.044475 -8.068019 20.216605 48.724540 11.435246 0.000000 0.000000 0.000000 
-0.706071 0.838333 2.818702 -3.654656 -6.196119 -15.352030 3.113125 -0.202536 -4.981666 2.713437 -2.130370 45.858301 6.530964 10.174867 -19.594636 0.000000 0.000000 0.000000 -8.094679 1.129441 -25.179444 11.853249 -3.135865 52.250731 -7.958645 -17.652845 -14.861389 0.000000 0.000000 0.000000 -8.289213 0.437113 18.530787 17.025929 -6.008629 -14.622468 -7.273366 1.861230 25.020626 -2.907274 3.151871 -15.959437 0.000000 0.000000 0.000000 -30.533910 1.517143 -2.442094 -31.564651 -23.581802 -0.187850 -16.634255 -80.082184 18.829101 0.000000 0.000000 0.000000 23.037235 2.172141 -0.566087 41.050598 -15.059162 -10.569709 25.319815 47.639869 12.918667 0.000000 0.000000 0.000000 
-0.753175 0.840443 2.953028 -4.240733 -6.629878 -14.167413 6.981478 0.289706 1.053729 2.290372 -1.959899 49.449358 5.169441 9.425279 -7.009746 0.000000 0.000000 0.000000 -6.061876 1.856268 -28.175124 6.432095 -0.489675 30.783665 -5.801604 -15.648969 7.997485 0.000000 0.000000 0.000000 -5.051023 -0.072562 13.273938 18.277595 -6.479881 -14.094679 -10.903288 0.045606 22.631814 -1.981030 2.053408 -10.508570 0.000000 0.000000 0.000000 -26.058948 3.910392 -3.092259 -38.387156 -21.944876 -0.207084 -72.703303 -83.578588 73.646192 0.000000 0.000000 0.000000 19.460210 -0.832358 -2.407547 42.884546 -24.116673 -13.753741 32.259021 50.907568 17.076204 0.000000 0.000000 0.000000 
-0.800372 0.837694 3.089693 -4.020907 -7.668746 -14.423108 10.025455 0.395614 -3.686378 2.704547 -2.304968 66.843881 -0.504908 6.595664 22.986849 0.000000 0.000000 0.000000 -4.954466 1.899854 -25.031586 6.097197 -0.328898 27.296349 -7.319623 -19.352932 16.529379 0.000000 0.000000 0.000000 -2.952559 -0.213858 7.336885 13.942546 -5.101098 -12.943968 -8.134650 -0.266094 21.875577 -4.603450 4.081965 -7.128679 0.000000 0.000000 0.000000 -28.846676 4.956359 -3.750325 -40.884352 -15.411767 -2.222514 -83.609872 -71.539956 72.823313 0.000000 0.000000 0.000000 16.101213 -1.671694 -2.651520 44.474754 -27.227981 -15.369576 39.644366 53.817060 21.965598 0.000000 0.000000 0.000000 
-0.845664 0.826813 3.221589 -5.061374 -8.380846 -17.651632 10.722569 0.629918 -12.102933 6.105969 -6.427911 81.297678 -2.809758 4.813566 26.601219 0.000000 0.000000 0.000000 -1.796095 1.777420 -18.315383 8.039179 -0.639203 41.250605 -8.984967 -21.197189 -2.174926 0.000000 0.000000 0.000000 -0.902008 -0.308120 8.181172 12.349203 -4.391294 -14.834177 -6.211127 3.161108 22.682854 -1.896081 2.018382 -2.145283 0.000000 0.000000 0.000000 -30.055529 9.084117 -7.753535 -40.574698 -3.746942 -5.612277 -75.074214 -60.511146 53.527190 0.000000 0.000000 0.000000 19.653136 -1.539092 -2.341327 42.011193 -19.462803 -12.041782 32.480527 60.215713 21.523632 0.000000 0.000000 0.000000 
-0.884382 0.816519 3.342466 -3.270301 -12.716038 -23.122435 10.863897 1.144214 -16.877911 3.330560 -0.851822 75.878719 5.519871 11.049571 -0.573998 0.000000 0.000000 0.000000 -0.791655 1.286105 -12.514839 8.943406 0.783610 54.184373 -9.849333 -23.006939 -3.352634 0.000000 0.000000 0.000000 -1.008515 -0.340358 11.115668 8.289559 -3.286289 -14.718019 -0.368887 11.899579 22.389712 0.549326 -0.060412 1.393109 0.000000 0.000000 0.000000 -27.698720 10.039955 -9.854923 -38.148550 11.291360 -8.937343 -60.968908 -57.509002 38.383546 0.000000 0.000000 0.000000 21.323323 -0.888482 -0.700488 41.822563 -7.474181 -8.602532 19.956901 69.467214 18.696405 0.000000 0.000000 0.000000 
-0.913521 0.810989 3.451862 -2.537291 -14.832783 -24.690484 11.910283 1.945464 -22.754592 -4.073013 4.074189 50.981212 6.493974 11.820924 -10.152326 0.000000 0.000000 0.000000 0.633626 0.526244 -4.802766 7.579094 3.038323 60.067761 -9.489389 -21.760429 -8.879979 0.000000 0.000000 0.000000 -0.448590 -0.341269 11.365762 4.877919 -1.871550 -18.333032 4.225042 16.256923 26.364423 1.873105 -0.322426 -3.699491 0.000000 0.000000 0.000000 -25.685933 14.757635 -12.916382 -35.289354 18.385606 -10.065589 -43.280225 -51.490061 23.275713 0.000000 0.000000 0.000000 16.699725 -0.357657 0.303868 40.230157 9.590768 -3.520994 3.893671 73.590577 9.579815 0.000000 0.000000 0.000000 
-0.933705 0.808536 3.550154 -1.529554 -14.627879 -25.470065 9.034129 1.102151 -23.340520 -4.988116 2.978945 35.834077 4.295360 9.243059 4.390207 0.000000 0.000000 0.000000 -1.487140 0.006819 0.441319 7.864297 3.675630 66.341826 -6.860713 -15.342281 -5.856043 0.000000 0.000000 0.000000 -1.385584 -0.304648 10.981455 3.214902 -1.227364 -18.708781 5.894093 17.784614 27.973120 3.433080 -0.822274 -8.224188 0.000000 0.000000 0.000000 -19.810615 18.134631 -13.067805 -36.393334 22.054009 -11.582829 -32.110827 -47.971881 15.847534 0.000000 0.000000 0.000000 13.701796 1.737187 1.477507 37.413155 22.227414 0.305720 -36.359214 71.736509 -19.029557 0.000000 0.000000 0.000000 
-0.947880 0.814571 3.632931 -1.172510 -14.280408 -26.179624 6.391177 0.281119 -23.001168 -3.633431 2.721771 39.727962 0.920347 4.812395 11.191477 0.000000 0.000000 0.000000 -4.925538 0.004240 0.977522 9.635998 3.068408 73.018578 -0.525081 -6.536769 12.142666 0.000000 0.000000 0.000000 -5.059920 -0.054447 13.860763 7.522379 -2.289811 -21.492301 7.000733 19.217718 31.548189 3.853504 -0.409538 -11.203295 0.000000 0.000000 0.000000 -20.729466 18.468309 -13.895184 -34.570250 23.548611 -11.467809 -25.268372 -47.099018 12.320136 0.000000 0.000000 0.000000 10.063792 1.918407 1.439195 35.801677 28.352456 1.916632 -67.562919 69.065527 -39.720354 0.000000 0.000000 0.000000 
