HIERARCHY
ROOT Hips
{
	OFFSET -0.001795 -0.223333 0.028219
	CHANNELS 6 Xposition Yposition Zposition Zrotation Yrotation Xrotation 
	JOINT LeftUpLeg
	{
		OFFSET 0.069520 -0.091406 -0.006815
		CHANNELS 3 Zrotation Yrotation Xrotation
		JOINT LeftLeg
		{
			OFFSET 0.034277 -0.375199 -0.004496
			CHANNELS 3 Zrotation Yrotation Xrotation
			JOINT LeftFoot
			{
				OFFSET -0.013596 -0.397961 -0.043693
				CHANNELS 3 Zrotation Yrotation Xrotation
				JOINT LeftToe
				{
					OFFSET 0.026358 -0.055791 0.119288
					CHANNELS 3 Zrotation Yrotation Xrotation
					End Site
					{
						OFFSET 0.000000 0.000000 0.000000
					}
				}
			}
		}
	}
	JOINT RightUpLeg
	{
		OFFSET -0.067670 -0.090522 -0.004320
		CHANNELS 3 Zrotation Yrotation Xrotation
		JOINT RightLeg
		{
			OFFSET -0.038290 -0.382569 -0.008850
			CHANNELS 3 Zrotation Yrotation Xrotation
			JOINT RightFoot
			{
				OFFSET 0.015774 -0.398415 -0.042312
				CHANNELS 3 Zrotation Yrotation Xrotation
				JOINT RightToe
				{
					OFFSET -0.025372 -0.048144 0.123348
					CHANNELS 3 Zrotation Yrotation Xrotation
					End Site
					{
						OFFSET 0.000000 0.000000 0.000000
					}
				}
			}
		}
	}
	JOINT Spine
	{
		OFFSET -0.002533 0.108963 -0.026696
		CHANNELS 3 Zrotation Yrotation Xrotation
		JOINT Spine1
		{
			OFFSET 0.005487 0.135180 0.001092
			CHANNELS 3 Zrotation Yrotation Xrotation
			JOINT Spine2
			{
				OFFSET 0.001457 0.052922 0.025425
				CHANNELS 3 Zrotation Yrotation Xrotation
				JOINT Neck
				{
					OFFSET -0.002778 0.213870 -0.042857
					CHANNELS 3 Zrotation Yrotation Xrotation
					JOINT Head
					{
						OFFSET 0.005152 0.064970 0.051349
						CHANNELS 3 Zrotation Yrotation Xrotation
						End Site
						{
							OFFSET 0.000000 0.000000 0.000000
						}
					}
				}
				JOINT LeftShoulder
				{
					OFFSET 0.078845 0.121749 -0.034090
					CHANNELS 3 Zrotation Yrotation Xrotation
					JOINT LeftArm
					{
						OFFSET 0.090977 0.030469 -0.008868
						CHANNELS 3 Zrotation Yrotation Xrotation
						JOINT LeftForeArm
						{
							OFFSET 0.259612 -0.012772 -0.027456
							CHANNELS 3 Zrotation Yrotation Xrotation
							JOINT LeftHand
							{
								OFFSET 0.249234 0.008986 -0.001171
								CHANNELS 3 Zrotation Yrotation Xrotation
								End Site
								{
									OFFSET 0.000000 0.000000 0.000000
								}
							}
						}
					}
				}
				JOINT RightShoulder
				{
					OFFSET -0.081759 0.118833 -0.038615
					CHANNELS 3 Zrotation Yrotation Xrotation
					JOINT RightArm
					{
						OFFSET -0.096012 0.032551 -0.009143
						CHANNELS 3 Zrotation Yrotation Xrotation
						JOINT RightForeArm
						{
							OFFSET -0.253742 -0.013329 -0.021401
							CHANNELS 3 Zrotation Yrotation Xrotation
							JOINT RightHand
							{
								OFFSET -0.255298 0.007772 -0.005559
								CHANNELS 3 Zrotation Yrotation Xrotation
								End Site
								{
									OFFSET 0.000000 0.000000 0.000000
								}
							}
						}
					}
				}
			}
		}
	}
}
MOTION
Frames: 41
Frame Time: 0.050000
0.000000 0.879861 0.000000 -2.349393 4.912471 -11.443323 4.699448 -0.563954 -10.908826 -4.059894 0.137353 20.882744 7.770699 11.680977 -15.819328 0.000000 0.000000 0.000000 -5.322016 0.020449 -2.249097 5.012617 -1.627207 39.590173 -5.737073 -11.830381 -16.041800 0.000000 0.000000 0.000000 -3.211920 -0.263597 9.660562 4.721467 -0.699397 -21.294645 3.527645 9.565116 28.821736 3.422411 0.936298 -18.418396 0.000000 0.000000 0.000000 -23.304190 9.481439 -10.760205 -47.675980 13.053509 -11.965153 -17.522664 -36.173963 6.428339 0.000000 0.000000 0.000000 12.942054 1.721354 2.266869 50.442871 21.290073 1.312684 10.519835 62.249161 13.657501 0.000000 0.000000 0.000000 
0.000000 0.879861 0.000000 -2.349393 4.912471 -11.443323 4.699448 -0.563954 -10.908826 -4.059894 0.137353 20.882744 7.770699 11.680977 -15.819328 0.000000 0.000000 0.000000 -5.322016 0.020449 -2.249097 5.012617 -1.627207 39.590173 -5.737073 -11.830381 -16.041800 0.000000 0.000000 0.000000 -3.211920 -0.263597 9.660562 4.721467 -0.699397 -21.294645 3.527645 9.565116 28.821736 3.422411 0.936298 -18.418396 0.000000 0.000000 0.000000 -23.304190 9.481439 -10.760205 -47.675980 13.053509 -11.965153 -17.522664 -36.173963 6.428339 0.000000 0.000000 0.000000 12.942054 1.721354 2.266869 50.442871 21.290073 1.312684 10.519835 62.249161 13.657501 0.000000 0.000000 0.000000 
0.000000 0.945989 0.000000 -0.919979 9.245374 2.614032 -3.194573 -0.276105 -3.276364 6.696624 -0.873654 2.209106 1.520365 6.117657 6.410765 0.000000 0.000000 0.000000 -6.093968 0.112254 -1.391802 3.519840 -0.480679 8.189968 -5.097123 -13.130658 0.515999 0.000000 0.000000 0.000000 -4.149057 0.003144 5.374452 4.639591 -0.559326 -20.420182 0.825741 1.871739 28.982731 3.394792 0.977549 -27.116097 0.000000 0.000000 0.000000 -20.471466 2.990873 -5.054095 -58.226257 -0.629347 -8.944950 -9.330802 -21.764290 2.597010 0.000000 0.000000 0.000000 14.097830 5.214625 3.511815 62.957716 20.724474 2.916342 7.190655 25.145238 2.956851 0.000000 0.000000 0.000000 
0.000000 0.942753 0.000000 -1.088495 8.967966 2.286069 -3.770591 -1.561127 -12.874058 5.745680 -1.254547 7.319512 0.037504 3.998290 7.530247 0.000000 0.000000 0.000000 -5.053791 0.010827 0.477520 2.512672 -0.281341 10.413012 -5.466080 -14.094552 1.205182 0.000000 0.000000 0.000000 -3.987429 -0.015376 5.852234 3.843313 -0.270603 -21.937851 1.779193 3.342502 29.805944 3.672384 1.120973 -27.747121 0.000000 0.000000 0.000000 -21.666862 4.751368 -6.762691 -57.079982 5.431915 -11.453405 -5.952459 -22.048656 1.902842 0.000000 0.000000 0.000000 11.650567 5.090091 3.405042 59.466642 28.830256 7.062015 20.238211 27.725107 6.782226 0.000000 0.000000 0.000000 
0.000000 0.937885 0.000000 -0.897589 6.843403 1.631882 -3.481619 -1.697401 -14.049179 5.358972 -1.215385 7.623962 2.038221 6.976994 6.536622 0.000000 0.000000 0.000000 -5.141132 -0.001876 0.975018 2.522453 -0.246227 14.038041 -4.168372 -10.728419 0.154349 0.000000 0.000000 0.000000 -4.001698 -0.018953 6.385163 3.256736 -0.197427 -20.909709 3.223899 6.390160 28.708840 4.028446 0.897078 -24.649569 0.000000 0.000000 0.000000 -23.615301 3.615007 -7.158104 -53.042725 10.277957 -12.257532 -7.823670 -26.262092 2.549673 0.000000 0.000000 0.000000 15.036778 5.178520 4.147662 55.510268 27.635590 5.254785 15.417200 32.745761 6.785721 0.000000 0.000000 0.000000 
0.000000 0.936402 0.000000 -1.102314 9.908071 3.977049 2.646057 -0.190160 -1.349721 -1.402747 0.193143 -3.731137 4.303884 8.019494 -1.701738 0.000000 0.000000 0.000000 -3.540923 0.375845 -4.710664 2.287548 -0.247924 9.090413 -5.647574 -14.478750 1.392378 0.000000 0.000000 0.000000 -3.506486 -0.042269 6.549251 4.825496 -0.545275 -21.095635 0.728804 0.872691 28.579331 2.511974 1.127048 -24.467135 0.000000 0.000000 0.000000 -23.221633 3.333047 -5.693384 -54.085899 3.263405 -9.825473 -13.654454 -25.622255 4.054883 0.000000 0.000000 0.000000 18.327185 5.085037 3.736690 57.551933 15.654054 -0.811878 7.297193 28.339801 3.455321 0.000000 0.000000 0.000000 
0.000000 0.935448 0.000000 -1.127815 9.846764 7.545842 2.400825 -0.220748 -1.719508 -1.104703 -0.011655 3.427148 6.441793 11.582680 -4.080584 0.000000 0.000000 0.000000 -2.795398 0.719619 -9.069024 0.896365 0.036523 8.337040 -5.863988 -14.993360 0.072416 0.000000 0.000000 0.000000 -2.771769 -0.018341 4.786073 4.924391 -0.647559 -19.530374 -0.434636 -1.041077 28.530317 1.175338 1.636690 -25.115499 0.000000 0.000000 0.000000 -21.801625 2.666805 -4.423311 -55.162258 -2.935314 -7.444001 -18.944652 -27.762630 5.901719 0.000000 0.000000 0.000000 19.041507 4.464678 2.959522 60.165124 7.016077 -5.008625 5.258481 28.816739 2.988583 0.000000 0.000000 0.000000 
0.000000 0.931054 0.000000 -0.416890 10.266023 8.104726 1.717116 -0.225410 -2.102108 -0.906536 -0.154110 6.398523 6.598230 11.188480 -6.049590 0.000000 0.000000 0.000000 -3.653130 0.696915 -9.700074 0.982203 0.023325 12.230452 -5.209705 -13.304930 -2.601564 0.000000 0.000000 0.000000 -3.285772 -0.023174 6.792618 4.615485 -0.488804 -20.566513 -0.523909 -0.763457 28.573319 1.045710 1.845222 -25.849626 0.000000 0.000000 0.000000 -21.260677 2.380030 -4.315567 -54.395757 -2.937549 -7.336486 -20.558279 -29.415434 6.648119 0.000000 0.000000 0.000000 19.215879 4.228967 2.980294 59.620048 5.610985 -5.698751 7.466307 29.243009 3.600973 0.000000 0.000000 0.000000 
0.000000 0.923756 0.000000 0.148303 9.869811 8.910994 0.843660 -0.207065 -2.224154 -0.581347 -0.325672 9.064567 7.154590 11.959342 -7.602733 0.000000 0.000000 0.000000 -4.572076 0.717094 -11.355168 1.444132 -0.137802 18.044664 -5.285152 -13.345199 -6.662201 0.000000 0.000000 0.000000 -4.201313 0.060763 7.273432 4.973628 -0.590314 -20.480168 -0.837095 -0.040641 29.192804 0.263440 2.444980 -26.982860 0.000000 0.000000 0.000000 -22.177125 3.307710 -5.168943 -53.284495 -2.811852 -7.231617 -21.057245 -31.621434 7.281589 0.000000 0.000000 0.000000 19.789518 4.455488 3.324378 60.402628 6.439503 -5.427805 6.627307 27.898253 3.227861 0.000000 0.000000 0.000000 
0.000000 0.911490 0.000000 0.917560 9.665603 8.941472 0.942342 -0.232917 -2.505905 -2.384781 -0.249199 14.649432 7.702122 12.163601 -11.079550 0.000000 0.000000 0.000000 -5.838046 0.643805 -12.480662 2.043508 -0.510835 25.187409 -5.270001 -13.057392 -8.962900 0.000000 0.000000 0.000000 -5.778624 0.194769 9.126350 5.032337 -0.592001 -20.684466 -0.445647 1.411008 30.174395 0.887735 2.391104 -28.011211 0.000000 0.000000 0.000000 -23.345910 1.502229 -4.767782 -50.399244 -6.103803 -5.452942 -21.789370 -34.650146 8.108578 0.000000 0.000000 0.000000 20.410552 4.606287 3.914340 58.501883 6.340064 -5.647711 7.286393 26.865968 3.251023 0.000000 0.000000 0.000000 
0.000000 0.894436 0.000000 1.837003 11.358019 8.402063 0.354104 -0.187891 -2.208343 -1.741555 -0.816815 20.517772 7.317190 9.925565 -13.202601 0.000000 0.000000 0.000000 -6.868417 0.516503 -16.823401 2.318110 -1.833524 41.700007 -5.936205 -14.874592 -9.114246 0.000000 0.000000 0.000000 -6.942482 0.277180 11.304959 4.662452 -0.559742 -18.876672 -0.440804 -0.474709 29.644115 1.027853 2.275651 -30.407321 0.000000 0.000000 0.000000 -25.549906 0.307329 -4.163264 -47.335052 -11.146146 -3.196530 -21.283117 -42.329594 9.980410 0.000000 0.000000 0.000000 19.580963 5.582755 4.092885 57.529501 3.117646 -7.000709 8.705601 26.202867 3.355672 0.000000 0.000000 0.000000 
0.000000 0.875054 0.000000 2.641007 14.478169 7.415530 1.362291 -0.111657 -0.686027 -2.026353 -1.332072 25.388379 7.028997 6.759024 -16.085540 0.000000 0.000000 0.000000 -8.867344 -0.342611 -26.540180 3.459910 -5.924875 63.298258 -6.130528 -14.901389 -3.503554 0.000000 0.000000 0.000000 -8.489720 0.336100 16.272319 6.526496 -0.920072 -20.698610 -1.310037 -3.043038 30.356230 1.532380 2.040818 -33.647602 0.000000 0.000000 0.000000 -27.344728 -1.712416 -2.868414 -44.570864 -20.456898 0.154451 -19.635101 -53.415356 12.352947 0.000000 0.000000 0.000000 17.414107 2.368569 1.975123 56.855719 -4.651810 -10.411537 11.436725 24.836460 3.722997 0.000000 0.000000 0.000000 
0.000000 0.858141 0.000000 2.293817 17.905259 6.935487 3.609570 -0.092089 3.536763 -0.807915 -1.752586 24.094423 7.115367 5.479045 -16.525116 0.000000 0.000000 0.000000 -11.169662 -2.290594 -35.570986 5.128960 -10.244606 74.041507 -6.532179 -15.382941 -5.118259 0.000000 0.000000 0.000000 -7.240008 -0.069168 19.213684 7.457595 -1.130961 -20.425429 -3.337064 -6.944559 29.456157 0.615444 2.216501 -35.759315 0.000000 0.000000 0.000000 -26.988288 -4.175004 -0.404464 -41.343449 -30.170123 3.106078 -9.504356 -70.176803 10.556037 0.000000 0.000000 0.000000 17.396268 1.011909 0.649265 54.000936 -13.752980 -13.570960 12.447071 26.009607 3.978062 0.000000 0.000000 0.000000 
0.000000 0.850183 0.000000 1.719392 20.796228 8.384122 5.820899 -0.430509 8.599316 2.295290 -1.987732 18.803250 5.111784 0.830500 -14.086296 0.000000 0.000000 0.000000 -11.998916 -4.420598 -43.738487 8.914233 -13.629421 71.560775 -8.112200 -19.328082 -9.322454 0.000000 0.000000 0.000000 -5.202689 -0.459815 18.644364 8.548449 -1.454983 -19.462836 -4.776003 -13.124855 27.524474 -1.126355 2.376608 -37.782944 0.000000 0.000000 0.000000 -23.517390 -2.579511 0.453004 -39.022060 -40.510299 5.979993 67.879337 -86.937613 -57.901220 0.000000 0.000000 0.000000 14.719731 -0.029837 -0.918812 49.731355 -23.099896 -15.658895 16.441755 26.336745 4.565731 0.000000 0.000000 0.000000 
0.000000 0.849989 0.000000 -0.005380 21.170379 11.317532 8.687802 -1.304811 13.861664 4.379444 -1.541192 12.143537 0.375024 -1.297341 -2.636892 0.000000 0.000000 0.000000 -11.535785 -5.551902 -50.626707 14.345163 -14.309498 59.640369 -9.225002 -22.777263 -10.520976 0.000000 0.000000 0.000000 -2.002891 -0.638050 14.192637 10.905820 -2.039879 -20.322915 -7.930285 -13.998790 28.041144 -0.993399 2.223908 -36.842819 0.000000 0.000000 0.000000 -17.034510 -1.339155 0.110573 -39.916333 -46.453712 8.520375 153.211221 -77.537998 -137.773595 0.000000 0.000000 0.000000 12.079851 -3.419379 -2.519009 46.579354 -28.964849 -16.466819 20.551111 24.999127 5.045511 0.000000 0.000000 0.000000 
0.000000 0.850775 0.000000 -0.508599 21.187147 12.843511 9.281288 -1.521561 14.561072 6.279050 -2.623004 16.803569 -2.650538 0.419771 8.564321 0.000000 0.000000 0.000000 -9.040779 -3.998305 -49.579182 15.835181 -14.113710 54.508003 -9.706157 -23.858263 -7.441044 0.000000 0.000000 0.000000 1.541371 -0.952672 11.448672 8.204198 -1.357547 -19.092517 -5.480813 -16.751966 25.548128 -3.509073 2.899326 -34.721117 0.000000 0.000000 0.000000 -17.102486 -1.783127 0.906894 -41.191259 -45.099486 8.652306 170.916542 -72.878129 -156.168262 0.000000 0.000000 0.000000 8.250848 -3.338934 -2.422291 47.306670 -30.597141 -17.368530 20.610322 26.312723 5.144617 0.000000 0.000000 0.000000 
0.000000 0.843946 0.000000 -0.562631 18.749055 12.848641 7.089016 -0.637318 7.713097 7.563576 -6.740669 35.001254 -1.698394 3.005943 11.086241 0.000000 0.000000 0.000000 -6.256954 -1.434187 -45.030430 13.615696 -13.665492 59.544733 -8.163387 -19.931471 -7.291150 0.000000 0.000000 0.000000 3.741965 -1.208479 10.774800 6.650417 -0.798533 -21.158690 -5.495427 -14.887314 26.717340 -3.561310 2.959713 -34.232792 0.000000 0.000000 0.000000 -19.018925 0.551441 -0.425572 -44.023561 -37.790996 6.186013 -159.380247 -71.398698 163.616847 0.000000 0.000000 0.000000 12.489582 -3.241102 -2.901158 45.202341 -25.869520 -14.850390 18.646732 31.310801 5.800478 0.000000 0.000000 0.000000 
0.000000 0.832874 0.000000 -0.969819 15.215294 10.623681 4.247043 -0.429918 -3.137806 2.857344 -9.529682 58.687026 5.009470 12.497446 8.338457 0.000000 0.000000 0.000000 -3.319597 0.824054 -37.044185 12.385807 -12.626469 61.805109 -8.107010 -20.036105 -7.823470 0.000000 0.000000 0.000000 3.645601 -1.556834 14.603241 5.769336 -0.601012 -21.685826 -2.141669 -9.856468 27.614543 -4.649857 3.930417 -35.595885 0.000000 0.000000 0.000000 -27.188394 0.927364 -2.015377 -41.822700 -27.339656 1.731991 -123.153238 -71.097516 114.287986 0.000000 0.000000 0.000000 20.705720 0.850811 -0.910338 42.609138 -12.153177 -9.755481 12.877222 34.736585 5.144786 0.000000 0.000000 0.000000 
0.000000 0.823548 0.000000 -1.657672 8.843771 7.857743 2.744981 -1.494899 -17.927753 -3.572204 -4.864362 77.640283 8.345634 17.701433 5.019697 0.000000 0.000000 0.000000 1.567541 2.496512 -26.587358 8.035960 -6.840281 61.741870 -6.495680 -15.151486 -12.546793 0.000000 0.000000 0.000000 2.344225 -1.583082 18.986215 6.470008 -0.873788 -22.327691 1.790227 0.621510 28.072482 -3.942346 4.659486 -36.779420 0.000000 0.000000 0.000000 -30.050640 0.652515 -4.878075 -41.475714 -11.583137 -2.669076 -79.636467 -66.656484 61.100348 0.000000 0.000000 0.000000 24.272244 4.585123 3.342408 38.982086 3.600231 -5.146859 7.284247 40.060124 4.665852 0.000000 0.000000 0.000000 
0.000000 0.817528 0.000000 0.215511 3.523290 6.336395 4.370980 -2.575195 -37.568675 -6.208819 1.183869 86.661839 9.198932 19.214601 6.828943 0.000000 0.000000 0.000000 1.665406 1.330737 -12.287007 4.608781 -1.724593 53.045687 -6.732563 -14.973407 -18.818424 0.000000 0.000000 0.000000 -1.583561 -0.655420 20.458110 6.348710 -1.078334 -20.521933 5.189512 7.452999 28.617895 -3.002952 4.851517 -37.486200 0.000000 0.000000 0.000000 -33.038464 3.507457 -9.273846 -38.697994 2.361419 -5.926003 -60.211533 -56.664813 36.290848 0.000000 0.000000 0.000000 20.741678 9.938742 7.302214 40.117734 17.521947 -1.306662 -6.478294 49.675900 0.771725 0.000000 0.000000 0.000000 
0.000000 0.826185 0.000000 3.120427 1.154230 6.871197 5.078605 -2.940229 -51.842977 -8.296676 4.571214 77.681332 9.487058 19.614217 1.282961 0.000000 0.000000 0.000000 -2.249141 -0.156678 3.011173 2.597167 0.155651 38.110384 -6.226095 -11.855130 -19.880828 0.000000 0.000000 0.000000 -5.973443 0.384889 19.074534 6.073147 -1.059661 -20.131131 5.829941 13.494560 28.566225 -0.998748 4.724063 -35.497157 0.000000 0.000000 0.000000 -28.642555 8.160348 -12.983550 -36.683565 17.037169 -9.243921 -58.297131 -46.580163 26.761039 0.000000 0.000000 0.000000 17.672965 9.533394 7.622300 40.548408 26.144552 1.702236 -13.472639 64.229486 -1.453189 0.000000 0.000000 0.000000 
0.000000 0.842935 0.000000 5.742229 1.674111 7.457135 5.959439 -3.026054 -57.251444 -12.348405 5.902261 55.558325 8.572574 18.058032 1.190352 0.000000 0.000000 0.000000 -4.782727 -0.905046 17.413362 0.994876 0.469417 22.200211 -3.411203 -6.668986 -6.223515 0.000000 0.000000 0.000000 -9.813524 0.985989 14.985611 4.408162 -0.690464 -18.649278 8.124146 18.342558 27.550988 -1.176069 5.514919 -32.045277 0.000000 0.000000 0.000000 -24.390760 11.624865 -15.124244 -31.543794 24.270905 -9.334310 -65.386404 -41.934238 25.691991 0.000000 0.000000 0.000000 12.950044 6.825187 5.969684 45.254075 27.387640 3.828140 -26.150390 78.705755 -9.277776 0.000000 0.000000 0.000000 
0.000000 0.856364 0.000000 7.000279 3.849125 9.069096 4.723320 -3.931207 -52.969712 -13.120442 4.336472 38.570816 6.818860 15.279796 4.093551 0.000000 0.000000 0.000000 -3.628118 -1.691563 22.507192 -2.672158 1.401032 20.450541 2.222962 -1.431316 15.373837 0.000000 0.000000 0.000000 -12.863300 1.256533 11.981891 2.254194 0.017322 -19.551346 11.025056 18.440327 26.020875 -0.762105 5.420800 -31.456612 0.000000 0.000000 0.000000 -21.488727 13.492901 -15.117189 -31.173078 29.218683 -10.631844 -66.659330 -43.166729 26.760582 0.000000 0.000000 0.000000 11.524400 4.237899 4.520117 48.869426 21.393216 2.334534 103.390675 86.302422 116.299288 0.000000 0.000000 0.000000 
0.000000 0.852872 0.000000 6.730119 5.905482 8.205640 -0.184314 -5.644262 -46.327718 -11.406818 3.165914 39.725603 7.171581 14.581580 -4.520925 0.000000 0.000000 0.000000 -3.818954 -1.749943 21.900106 0.214377 0.532682 33.145483 -0.219095 -7.515452 22.995618 0.000000 0.000000 0.000000 -14.836175 1.274599 10.770894 4.162815 -0.539659 -18.538704 9.203484 17.058380 25.963542 0.322296 4.970221 -32.988399 0.000000 0.000000 0.000000 -21.892697 13.653181 -15.350324 -38.104014 27.292829 -12.855416 -60.097329 -46.467996 25.803224 0.000000 0.000000 0.000000 10.271549 4.481026 4.335506 53.221299 19.181702 2.163059 83.429297 81.029550 90.937055 0.000000 0.000000 0.000000 
0.000000 0.838682 0.000000 6.771765 5.948158 7.273575 -2.913147 -5.302331 -38.265886 -9.192660 2.110377 45.875762 9.760589 19.224223 -17.692297 0.000000 0.000000 0.000000 -7.164373 -0.494039 13.705503 5.209063 -2.894494 52.508623 -4.137713 -12.654293 13.346859 0.000000 0.000000 0.000000 -16.002023 1.530464 12.733077 4.932321 -0.770577 -18.471040 6.530143 14.419922 26.276805 1.834682 4.023329 -37.593322 0.000000 0.000000 0.000000 -25.985350 9.311085 -14.131929 -43.883932 16.466070 -10.882788 -45.161532 -54.212648 23.009013 0.000000 0.000000 0.000000 10.894014 3.762206 3.772838 56.144361 17.857526 1.718730 47.654629 75.495278 50.606888 0.000000 0.000000 0.000000 
0.000000 0.828665 0.000000 5.279522 4.777501 7.679452 -5.165145 -3.963369 -27.621345 -2.589991 -1.283931 44.752177 10.286764 19.539716 -30.947431 0.000000 0.000000 0.000000 -8.273844 0.275175 -1.219392 8.880268 -7.149478 70.050345 -7.455883 -18.676316 10.718829 0.000000 0.000000 0.000000 -13.389911 1.273543 12.713661 4.601091 -0.775672 -17.261217 2.984182 8.247060 26.127621 1.332710 3.256162 -39.018275 0.000000 0.000000 0.000000 -24.518590 8.324146 -10.517494 -48.000862 4.034926 -8.175878 -28.182457 -60.183042 17.456690 0.000000 0.000000 0.000000 12.381610 7.368076 4.847743 55.930809 17.907670 1.102176 21.518891 71.399072 24.198466 0.000000 0.000000 0.000000 
0.000000 0.842173 0.000000 2.714475 2.404988 7.291489 -4.980615 -2.215143 -17.197821 -0.209208 -1.951779 42.673791 11.310152 24.906967 -26.793844 0.000000 0.000000 0.000000 -6.133719 0.782867 -12.841169 11.284076 -8.847454 76.415302 -10.023836 -23.572691 7.969560 0.000000 0.000000 0.000000 -9.178594 0.745400 12.089116 5.699623 -0.873177 -20.935071 0.858662 6.703744 29.500211 2.140019 2.467555 -38.045309 0.000000 0.000000 0.000000 -22.696065 6.696114 -7.896431 -46.240512 -4.546177 -5.503856 -18.744636 -63.199077 13.651205 0.000000 0.000000 0.000000 14.304880 8.160402 5.118096 51.728957 17.041635 -0.439638 19.953810 70.678389 21.852383 0.000000 0.000000 0.000000 
0.000000 0.873852 0.000000 0.068223 -2.023005 4.217946 -2.468760 -1.492287 -13.840080 -1.767429 -0.249750 47.621951 12.074300 25.395660 -7.497665 0.000000 0.000000 0.000000 -4.137437 0.938744 -12.008163 11.771204 -5.757462 68.449923 -10.424442 -25.103126 1.344012 0.000000 0.000000 0.000000 -4.990489 0.179412 11.625158 6.263197 -1.001283 -22.694228 0.632269 7.915395 30.792818 -0.046977 2.990819 -29.807470 0.000000 0.000000 0.000000 -19.592963 7.741130 -7.093535 -45.122286 -2.480524 -6.490612 -23.639544 -64.960418 17.755386 0.000000 0.000000 0.000000 11.888928 10.972086 5.775122 50.978979 19.037335 0.378989 14.280360 68.234862 16.178728 0.000000 0.000000 0.000000 
0.000000 0.901702 0.000000 -0.539826 -4.407509 3.016383 0.015866 -1.979493 -23.710011 -4.371907 2.200119 54.914348 9.285900 19.005462 -4.240128 0.000000 0.000000 0.000000 -2.760549 0.559255 -5.958004 8.588409 -1.775374 55.448418 -10.143810 -24.754632 -3.604865 0.000000 0.000000 0.000000 -4.541143 0.116767 9.303296 6.932741 -1.614235 -18.453311 2.083627 12.136928 27.076481 -0.133479 3.304696 -25.269835 0.000000 0.000000 0.000000 -17.324791 8.659893 -7.703319 -42.557988 1.108195 -6.831220 -34.358887 -60.521314 21.616968 0.000000 0.000000 0.000000 8.689455 11.973609 5.969120 49.622776 20.337353 1.503753 10.771344 65.680711 13.240344 0.000000 0.000000 0.000000 
0.000000 0.912023 0.000000 0.549094 -5.552425 -0.101549 2.377444 -1.710138 -29.425178 -9.847024 5.316058 47.327143 10.283026 21.538120 -13.072312 0.000000 0.000000 0.000000 -2.546892 0.286176 -2.648318 5.072154 0.854313 53.159259 -8.506668 -20.300184 -6.996032 0.000000 0.000000 0.000000 -7.485596 0.414938 10.622482 6.803961 -1.572369 -19.266566 4.695529 14.384105 28.933586 -2.009335 4.661348 -23.319131 0.000000 0.000000 0.000000 -19.833447 8.850350 -8.892316 -38.451419 2.176519 -6.304059 -41.136921 -65.044478 27.675855 0.000000 0.000000 0.000000 9.830973 9.953084 5.440541 49.299346 18.459252 0.372778 13.058858 66.806930 15.757524 0.000000 0.000000 0.000000 
0.000000 0.895775 0.000000 1.173022 -2.447835 -2.407687 2.531074 -2.095198 -32.449410 -10.036003 3.483491 34.334840 9.728236 19.784223 -10.789836 0.000000 0.000000 0.000000 -3.362158 0.390863 -4.533616 5.887802 -0.446577 60.867730 -7.385318 -17.760116 -4.439883 0.000000 0.000000 0.000000 -10.182106 0.626423 11.548437 8.199781 -2.018488 -18.581661 4.749610 13.806123 29.273052 -2.567912 5.255831 -27.726593 0.000000 0.000000 0.000000 -18.475561 7.850357 -8.191799 -41.339369 -0.894242 -5.849055 -35.673546 -69.902286 25.859482 0.000000 0.000000 0.000000 11.444613 7.941820 4.970759 51.228160 14.152082 -1.438185 21.904438 64.531629 21.276065 0.000000 0.000000 0.000000 
0.000000 0.865740 0.000000 0.893729 1.451918 -9.929330 2.576690 -1.896564 -25.705807 -9.410362 2.674781 36.298038 6.966389 12.453926 -9.339887 0.000000 0.000000 0.000000 -6.813304 0.326987 -9.256337 8.860614 -4.847840 73.259324 -8.339542 -20.210874 -4.267464 0.000000 0.000000 0.000000 -11.096178 0.603055 16.250756 9.314972 -2.576591 -17.295369 2.251235 10.403210 29.783805 0.331750 3.454989 -27.600130 0.000000 0.000000 0.000000 -21.376638 6.736708 -7.889660 -39.126608 -10.417657 -2.739701 -17.752391 -70.832362 13.800672 0.000000 0.000000 0.000000 14.504131 6.882408 4.652279 51.099745 8.062795 -4.435078 21.934378 56.558011 17.427130 0.000000 0.000000 0.000000 
0.000000 0.845620 0.000000 -0.981740 6.129772 -14.051387 2.340073 -1.294544 -16.495220 -6.602675 0.169108 48.851166 8.471904 12.539677 -21.454931 0.000000 0.000000 0.000000 -9.413944 -0.105940 -20.218245 9.783833 -8.171512 73.255861 -9.745735 -24.206530 -10.410392 0.000000 0.000000 0.000000 -9.906950 0.189096 17.567357 9.973400 -2.847867 -16.786407 -1.075974 3.728112 30.203915 -1.375868 3.666794 -26.766789 0.000000 0.000000 0.000000 -25.138996 3.403618 -5.525598 -35.936470 -20.697165 -0.118603 -4.177884 -73.304252 5.585151 0.000000 0.000000 0.000000 16.621176 4.048195 2.681696 47.834569 -3.066211 -8.657133 22.011952 49.054633 13.606030 0.000000 0.000000 0.000000 
0.000000 0.838868 0.000000 -3.785350 10.068568 -14.187263 3.672465 -0.464387 -7.590483 -1.084753 -4.642932 51.764843 9.362522 12.714630 -25.293841 0.000000 0.000000 0.000000 -9.550569 -0.649503 -29.113475 9.060570 -6.875416 56.389566 -10.869396 -27.207004 -9.111082 0.000000 0.000000 0.000000 -6.907978 -0.249731 14.896509 12.148092 -3.630465 -16.118145 -4.924304 -3.062390 30.031566 -2.442689 3.387856 -23.660058 0.000000 0.000000 0.000000 -23.930932 2.812947 -3.620853 -38.912133 -24.911388 0.769535 -18.984989 -80.859617 20.803994 0.000000 0.000000 0.000000 15.888593 0.274783 -0.068302 47.407830 -12.523762 -11.821348 27.921433 47.743567 15.167288 0.000000 0.000000 0.000000 
0.000000 0.840978 0.000000 -4.347853 8.448517 -13.694153 7.384208 -0.069972 -1.838099 -3.427493 -3.469356 57.475610 8.985501 14.368047 -19.672774 0.000000 0.000000 0.000000 -6.570101 0.409363 -31.975587 6.054596 -2.354294 34.295923 -8.432990 -20.028667 -1.119858 0.000000 0.000000 0.000000 -3.575595 -0.344909 10.849509 12.756764 -3.825488 -16.256477 -7.608857 -4.000218 28.208517 -1.812161 2.551910 -19.384123 0.000000 0.000000 0.000000 -19.509551 5.294507 -4.095483 -45.878368 -23.210266 0.717294 -79.315116 -83.613120 79.586155 0.000000 0.000000 0.000000 11.961481 -2.822860 -1.713870 49.119155 -21.723061 -15.367678 35.933804 50.488214 19.929679 0.000000 0.000000 0.000000 
0.000000 0.835888 0.000000 -3.903622 6.311849 -15.837591 9.948377 -0.016069 -9.362567 -5.597497 -2.519961 72.060200 7.384551 13.325963 -9.869009 0.000000 0.000000 0.000000 -5.224100 0.876519 -24.581786 6.664541 -2.503924 35.905321 -7.592619 -18.289730 -9.521697 0.000000 0.000000 0.000000 -1.825439 -0.265666 6.600115 8.546276 -2.276358 -16.924496 -3.761661 -0.658530 27.966374 -2.823118 3.598819 -16.872637 0.000000 0.000000 0.000000 -21.292301 7.868005 -6.482103 -50.828954 -11.080065 -3.872419 -85.115942 -66.389150 67.352207 0.000000 0.000000 0.000000 6.711248 -3.500071 -1.477783 53.488106 -17.607711 -14.830380 46.476312 59.031198 31.877496 0.000000 0.000000 0.000000 
0.000000 0.824042 0.000000 -4.105289 4.411247 -21.765860 9.224343 -0.162238 -19.193850 -4.911257 -2.382226 71.014213 8.419108 14.430214 -17.285566 0.000000 0.000000 0.000000 -3.219226 0.732921 -12.640004 6.273407 -3.340036 56.464164 -7.219113 -16.565507 -15.461768 0.000000 0.000000 0.000000 -1.033553 -0.437291 10.342875 6.418613 -1.380205 -20.101693 0.864900 6.956435 29.184607 1.366860 1.668383 -15.747768 0.000000 0.000000 0.000000 -18.247503 14.383929 -10.725259 -50.643715 6.542556 -10.862036 -62.747513 -54.339720 36.245024 0.000000 0.000000 0.000000 6.474510 -2.540269 -0.666282 52.594086 3.106100 -5.955454 26.434037 73.624609 29.229691 0.000000 0.000000 0.000000 
0.000000 0.816973 0.000000 -2.319802 1.188705 -25.245054 9.031369 -0.062148 -23.135002 -6.580911 0.924539 59.014863 8.678655 16.028524 -10.043955 0.000000 0.000000 0.000000 -3.577774 0.314598 -6.916171 4.762770 -0.967351 67.933407 -5.105970 -10.306113 -9.251616 0.000000 0.000000 0.000000 -1.711495 -0.473395 12.736821 4.448668 -0.873195 -20.222282 5.223903 14.381670 29.408117 3.350364 1.049239 -14.853438 0.000000 0.000000 0.000000 -15.450409 15.690815 -11.280020 -45.793947 16.829854 -13.434601 -48.033379 -51.978288 24.282354 0.000000 0.000000 0.000000 6.917060 -1.565830 -0.004540 49.448043 13.881321 -1.267227 -15.757031 76.087603 -0.696966 0.000000 0.000000 0.000000 
0.000000 0.813733 0.000000 -2.305657 0.793204 -25.760266 9.361261 -0.031064 -26.379568 -7.545473 1.698865 48.716688 6.122906 12.058515 -0.483204 0.000000 0.000000 0.000000 -3.090445 0.119303 -3.577156 3.586748 0.253279 69.739141 -4.889239 -10.558189 -6.292090 0.000000 0.000000 0.000000 -1.615953 -0.489461 13.429961 3.726619 -0.568973 -21.638711 6.579434 16.149927 30.292544 3.805022 1.200989 -16.128321 0.000000 0.000000 0.000000 -14.303690 18.230099 -12.319215 -42.644802 20.858051 -13.842020 -40.329504 -48.278289 18.168188 0.000000 0.000000 0.000000 4.673026 -0.950380 -0.023272 46.940704 20.938527 1.748594 -34.018648 73.759188 -13.633712 0.000000 0.000000 0.000000 
0.000000 0.879861 0.000000 -2.349393 4.912471 -11.443323 4.699448 -0.563954 -10.908826 -4.059894 0.137353 20.882744 7.770699 11.680977 -15.819328 0.000000 0.000000 0.000000 -5.322016 0.020449 -2.249097 5.012617 -1.627207 39.590173 -5.737073 -11.830381 -16.041800 0.000000 0.000000 0.000000 -3.211920 -0.263597 9.660562 4.721467 -0.699397 -21.294645 3.527645 9.565116 28.821736 3.422411 0.936298 -18.418396 0.000000 0.000000 0.000000 -23.304190 9.481439 -10.760205 -47.675980 13.053509 -11.965153 -17.522664 -36.173963 6.428339 0.000000 0.000000 0.000000 12.942054 1.721354 2.266869 50.442871 21.290073 1.312684 10.519835 62.249161 13.657501 0.000000 0.000000 0.000000 
0.000000 0.879861 0.000000 -2.349393 4.912471 -11.443323 4.699448 -0.563954 -10.908826 -4.059894 0.137353 20.882744 7.770699 11.680977 -15.819328 0.000000 0.000000 0.000000 -5.322016 0.020449 -2.249097 5.012617 -1.627207 39.590173 -5.737073 -11.830381 -16.041800 0.000000 0.000000 0.000000 -3.211920 -0.263597 9.660562 4.721467 -0.699397 -21.294645 3.527645 9.565116 28.821736 3.422411 0.936298 -18.418396 0.000000 0.000000 0.000000 -23.304190 9.481439 -10.760205 -47.675980 13.053509 -11.965153 -17.522664 -36.173963 6.428339 0.000000 0.000000 0.000000 12.942054 1.721354 2.266869 50.442871 21.290073 1.312684 10.519835 62.249161 13.657501 0.000000 0.000000 0.000000 
