HIERARCHY
ROOT Hips
{
	OFFSET -0.001795 -0.223333 0.028219
	CHANNELS 6 Xposition Yposition Zposition Zrotation Yrotation Xrotation 
	JOINT LeftUpLeg
	{
		OFFSET 0.069520 -0.091406 -0.006815
		CHANNELS 3 Zrotation Yrotation Xrotation
		JOINT LeftLeg
		{
			OFFSET 0.034277 -0.375199 -0.004496
			CHANNELS 3 Zrotation Yrotation Xrotation
			JOINT LeftFoot
			{
				OFFSET -0.013596 -0.397961 -0.043693
				CHANNELS 3 Zrotation Yrotation Xrotation
				JOINT LeftToe
				{
					OFFSET 0.026358 -0.055791 0.119288
					CHANNELS 3 Zrotation Yrotation Xrotation
					End Site
					{
						OFFSET 0.000000 0.000000 0.000000
					}
				}
			}
		}
	}
	JOINT RightUpLeg
	{
		OFFSET -0.067670 -0.090522 -0.004320
		CHANNELS 3 Zrotation Yrotation Xrotation
		JOINT RightLeg
		{
			OFFSET -0.038290 -0.382569 -0.008850
			CHANNELS 3 Zrotation Yrotation Xrotation
			JOINT RightFoot
			{
				OFFSET 0.015774 -0.398415 -0.042312
				CHANNELS 3 Zrotation Yrotation Xrotation
				JOINT RightToe
				{
					OFFSET -0.025372 -0.048144 0.123348
					CHANNELS 3 Zrotation Yrotation Xrotation
					End Site
					{
						OFFSET 0.000000 0.000000 0.000000
					}
				}
			}
		}
	}
	JOINT Spine
	{
		OFFSET -0.002533 0.108963 -0.026696
		CHANNELS 3 Zrotation Yrotation Xrotation
		JOINT Spine1
		{
			OFFSET 0.005487 0.135180 0.001092
			CHANNELS 3 Zrotation Yrotation Xrotation
			JOINT Spine2
			{
				OFFSET 0.001457 0.052922 0.025425
				CHANNELS 3 Zrotation Yrotation Xrotation
				JOINT Neck
				{
					OFFSET -0.002778 0.213870 -0.042857
					CHANNELS 3 Zrotation Yrotation Xrotation
					JOINT Head
					{
						OFFSET 0.005152 0.064970 0.051349
						CHANNELS 3 Zrotation Yrotation Xrotation
						End Site
						{
							OFFSET 0.000000 0.000000 0.000000
						}
					}
				}
				JOINT LeftShoulder
				{
					OFFSET 0.078845 0.121749 -0.034090
					CHANNELS 3 Zrotation Yrotation Xrotation
					JOINT LeftArm
					{
						OFFSET 0.090977 0.030469 -0.008868
						CHANNELS 3 Zrotation Yrotation Xrotation
						JOINT LeftForeArm
						{
							OFFSET 0.259612 -0.012772 -0.027456
							CHANNELS 3 Zrotation Yrotation Xrotation
							JOINT LeftHand
							{
								OFFSET 0.249234 0.008986 -0.001171
								CHANNELS 3 Zrotation Yrotation Xrotation
								End Site
								{
									OFFSET 0.000000 0.000000 0.000000
								}
							}
						}
					}
				}
				JOINT RightShoulder
				{
					OFFSET -0.081759 0.118833 -0.038615
					CHANNELS 3 Zrotation Yrotation Xrotation
					JOINT RightArm
					{
						OFFSET -0.096012 0.032551 -0.009143
						CHANNELS 3 Zrotation Yrotation Xrotation
						JOINT RightForeArm
						{
							OFFSET -0.253742 -0.013329 -0.021401
							CHANNELS 3 Zrotation Yrotation Xrotation
							JOINT RightHand
							{
								OFFSET -0.255298 0.007772 -0.005559
								CHANNELS 3 Zrotation Yrotation Xrotation
								End Site
								{
									OFFSET 0.000000 0.000000 0.000000
								}
							}
						}
					}
				}
			}
		}
	}
}
MOTION
Frames: 81
Frame Time: 0.050000
-0.002478 0.829973 0.018929 -3.094009 -9.803832 3.961171 16.147037 -0.194675 25.809451 -10.126686 0.418716 -35.231561 77.522024 51.918611 79.423770 0.000000 0.000000 0.000000 -24.075166 3.260532 10.584314 29.326724 4.345155 -25.746393 -66.808246 -62.409183 52.158042 0.000000 0.000000 0.000000 4.239561 0.944910 -10.925045 0.837360 0.445751 -28.058907 2.176125 8.501935 37.172622 12.233590 -0.071417 -62.042085 0.000000 0.000000 0.000000 -16.734630 7.286074 -4.779170 -51.099851 -8.065194 -6.455280 -39.502074 45.112786 -17.419828 0.000000 0.000000 0.000000 18.613256 -13.676547 -7.939175 49.283697 -12.061841 -12.806850 131.614197 -57.518521 -100.329186 0.000000 0.000000 0.000000 
-0.002277 0.829480 0.020998 -2.693539 -8.077962 6.003213 15.953953 -0.473334 26.672499 -10.256755 0.162620 -42.759514 87.195443 38.948870 105.837538 0.000000 0.000000 0.000000 -23.228279 3.629671 15.176331 25.406760 6.337510 -39.199708 -97.648674 -54.131342 92.782701 0.000000 0.000000 0.000000 2.639833 0.919616 -12.595044 2.232137 0.712909 -35.151863 2.309254 6.267386 44.919839 8.261892 1.981681 -75.263875 0.000000 0.000000 0.000000 -18.124541 7.074404 -4.324533 -51.644223 -9.398350 -7.053092 -56.251200 53.228716 -28.741807 0.000000 0.000000 0.000000 16.472030 -14.531811 -8.086788 50.234817 -13.099062 -14.324093 166.928550 -56.366923 -153.321987 0.000000 0.000000 0.000000 
-0.001624 0.826133 0.021783 -2.844773 -8.037548 7.578160 16.050448 -0.547146 27.280088 -10.555508 0.101478 -47.186789 93.670640 33.950711 114.882016 0.000000 0.000000 0.000000 -23.912291 4.209213 17.487154 25.002401 7.805185 -46.399016 -102.680422 -48.366505 103.066782 0.000000 0.000000 0.000000 2.579243 1.070592 -14.384947 2.476480 0.861781 -37.358350 2.976697 6.580015 48.368909 8.783963 2.277737 -80.173711 0.000000 0.000000 0.000000 -17.679975 9.231643 -5.517789 -53.091031 -9.848935 -7.418879 -79.373831 58.464950 -46.879948 0.000000 0.000000 0.000000 16.360987 -16.317641 -8.942197 51.139123 -15.391644 -15.836457 178.159294 -52.664820 -171.808823 0.000000 0.000000 0.000000 
-0.000633 0.824938 0.021894 -2.597166 -7.545617 8.761402 15.582918 -0.559557 26.770429 -9.605110 0.341524 -49.579934 93.065354 30.493018 118.982827 0.000000 0.000000 0.000000 -24.020550 4.574608 19.806808 23.977203 8.553341 -52.268430 -103.119884 -43.584880 109.030583 0.000000 0.000000 0.000000 1.772701 1.089907 -15.715263 2.746539 1.022757 -39.708386 3.162154 5.683942 51.402683 7.985569 2.572061 -83.229948 0.000000 0.000000 0.000000 -17.238945 10.008415 -5.709118 -54.784636 -8.875054 -8.404899 -98.265265 59.226187 -61.448241 0.000000 0.000000 0.000000 15.986404 -16.390635 -8.914602 53.218298 -17.086511 -17.553002 -175.415014 -48.307956 175.889818 0.000000 0.000000 0.000000 
0.000557 0.823363 0.021184 -2.490695 -7.585559 8.690618 16.167541 -0.682664 26.258699 -9.342391 0.440465 -49.627272 95.987031 30.036167 120.117581 0.000000 0.000000 0.000000 -24.778112 4.879305 20.427750 24.614645 9.052417 -53.416148 -104.894036 -43.278056 110.257591 0.000000 0.000000 0.000000 1.379088 1.107724 -16.350414 3.215125 0.996971 -39.916945 3.792124 6.255696 52.575989 8.693668 2.538695 -84.804446 0.000000 0.000000 0.000000 -17.148950 10.760607 -6.267785 -55.385328 -8.572006 -8.761992 -113.459102 57.882789 -74.020620 0.000000 0.000000 0.000000 16.517798 -16.900711 -9.128973 54.316170 -17.657379 -18.283456 -171.538384 -44.664245 167.681072 0.000000 0.000000 0.000000 
0.002156 0.822629 0.019369 -2.324782 -6.286298 8.379078 17.023277 -1.055607 25.607320 -10.223364 -0.109442 -50.007563 97.869092 30.094545 119.642220 0.000000 0.000000 0.000000 -24.998658 4.856715 21.509922 24.270110 8.903508 -55.184411 -106.808514 -40.641056 114.142564 0.000000 0.000000 0.000000 0.324692 0.895976 -15.609997 3.571961 1.165853 -42.737695 3.958157 5.164064 54.964063 6.977939 2.778185 -86.876900 0.000000 0.000000 0.000000 -16.308045 11.017979 -6.223542 -56.748307 -8.423238 -9.263208 -119.329306 58.422281 -79.932519 0.000000 0.000000 0.000000 15.807707 -16.775514 -8.906353 56.121161 -17.347252 -18.975093 -170.668647 -42.471022 165.741809 0.000000 0.000000 0.000000 
0.004222 0.820746 0.017005 -2.266732 -6.054888 7.917096 17.204989 -1.128106 26.167256 -10.226200 -0.186086 -50.469389 101.017102 31.719791 118.158769 0.000000 0.000000 0.000000 -25.802335 5.232256 22.889167 25.362547 9.315432 -55.410742 -105.966672 -40.967842 113.612337 0.000000 0.000000 0.000000 0.093292 0.903844 -16.202709 3.152723 1.186549 -42.878954 4.773076 4.951017 55.370239 6.260058 2.824245 -87.369030 0.000000 0.000000 0.000000 -15.703707 10.013353 -5.569028 -57.524946 -8.706548 -9.255776 -121.131647 57.785680 -80.901825 0.000000 0.000000 0.000000 14.642320 -16.262713 -8.366134 57.733143 -17.153257 -19.398236 -169.851696 -39.883828 162.740122 0.000000 0.000000 0.000000 
0.006815 0.818630 0.015140 -2.030395 -5.135830 6.573949 18.047046 -1.434337 26.506640 -10.763757 -0.626803 -51.077000 102.336649 31.309949 118.430657 0.000000 0.000000 0.000000 -26.382654 5.276193 23.815638 25.428406 9.131716 -55.615596 -108.389091 -39.462012 116.265596 0.000000 0.000000 0.000000 -0.204616 0.800385 -15.626370 2.312792 1.256018 -43.966889 5.610958 3.840328 56.242072 3.226873 2.982982 -88.433853 0.000000 0.000000 0.000000 -16.022227 8.715112 -4.782330 -57.258622 -10.653917 -8.476331 -119.579549 59.737267 -81.349156 0.000000 0.000000 0.000000 14.762261 -15.257408 -7.830760 58.324098 -14.384791 -18.504579 -167.647576 -39.069931 156.945731 0.000000 0.000000 0.000000 
0.010207 0.817914 0.014913 -1.916299 -4.642100 4.711353 18.347736 -1.546362 27.291296 -10.904372 -0.861477 -51.162171 105.314712 32.622007 117.402697 0.000000 0.000000 0.000000 -27.328417 5.593182 25.386488 26.617252 9.453990 -55.274871 -105.910119 -40.073190 114.968160 0.000000 0.000000 0.000000 0.005076 0.770463 -15.082357 1.855713 1.170489 -42.968237 6.180400 4.025546 55.258412 2.265157 2.853474 -87.545452 0.000000 0.000000 0.000000 -18.445079 5.535740 -3.336193 -53.752400 -13.227832 -7.158125 -111.055579 60.463021 -74.736831 0.000000 0.000000 0.000000 15.611710 -13.455654 -6.775723 56.437689 -10.291327 -16.270271 -165.254411 -38.925144 150.725072 0.000000 0.000000 0.000000 
0.014055 0.816708 0.016380 -1.629209 -4.281158 2.400450 18.903480 -1.656239 27.500573 -12.474771 -1.410895 -48.331628 106.490312 38.083553 111.787039 0.000000 0.000000 0.000000 -28.185085 5.753258 26.173723 27.530930 9.088507 -52.334291 -105.884173 -43.566753 111.298593 0.000000 0.000000 0.000000 0.269667 0.759210 -14.650430 1.737558 0.926772 -39.283075 6.211376 5.117196 51.062716 1.330989 2.752506 -83.279588 0.000000 0.000000 0.000000 -19.337221 3.821715 -2.921714 -51.497768 -13.677843 -6.153565 -93.095841 64.766002 -64.937455 0.000000 0.000000 0.000000 16.823578 -11.943677 -5.948175 53.639640 -7.488274 -13.894416 -153.930688 -39.489143 124.505796 0.000000 0.000000 0.000000 
0.017764 0.817394 0.018610 -1.467791 -5.129910 0.132732 18.812430 -1.447801 28.871443 -13.145472 -1.387648 -45.975841 106.009095 41.694874 108.178528 0.000000 0.000000 0.000000 -28.987540 6.054396 26.149622 28.080859 8.793544 -49.054601 -103.397506 -45.933431 107.395195 0.000000 0.000000 0.000000 0.904137 0.798448 -13.736657 2.603398 0.721671 -37.336662 5.585521 6.867433 48.475916 2.831621 2.555433 -80.366815 0.000000 0.000000 0.000000 -21.565349 2.168218 -2.567410 -48.200290 -13.305058 -5.663200 -56.220948 64.940160 -37.219456 0.000000 0.000000 0.000000 17.720215 -10.102208 -4.856424 51.115144 -4.452145 -11.940941 -134.372636 -40.931379 92.981242 0.000000 0.000000 0.000000 
0.020484 0.816706 0.020867 -1.317458 -5.693557 -1.686869 19.087230 -1.341561 29.071635 -14.225873 -1.447746 -43.081667 109.034831 46.282921 104.624017 0.000000 0.000000 0.000000 -28.945194 5.936631 25.523201 28.363361 8.165421 -45.370135 -104.751495 -51.159886 101.933529 0.000000 0.000000 0.000000 1.624064 0.890117 -13.561385 1.840869 0.586480 -33.685388 6.001608 8.444239 44.485118 3.665128 2.383995 -75.738922 0.000000 0.000000 0.000000 -21.889954 0.706725 -2.274397 -48.282948 -12.703124 -5.219745 -27.445144 57.913848 -16.196507 0.000000 0.000000 0.000000 18.419917 -9.712496 -4.594884 50.216776 -1.569737 -10.201442 -97.786796 -41.337723 54.930330 0.000000 0.000000 0.000000 
0.021952 0.816414 0.023288 -1.422706 -5.986034 -3.018955 19.333038 -1.333987 29.889711 -15.398195 -1.605785 -41.287521 108.962185 48.490002 102.358290 0.000000 0.000000 0.000000 -28.637886 5.716610 25.009948 28.669023 7.386920 -41.549316 -104.815989 -53.993368 98.559950 0.000000 0.000000 0.000000 2.371769 0.947749 -12.962367 1.684170 0.584258 -33.336481 5.374286 8.865236 43.422493 2.250094 2.584101 -74.608297 0.000000 0.000000 0.000000 -23.847334 -0.062737 -2.126267 -46.408884 -11.850242 -5.245242 -12.977595 50.508593 -7.207011 0.000000 0.000000 0.000000 19.653241 -8.191881 -3.779971 49.680067 0.402022 -9.384094 -62.177939 -33.987619 25.881667 0.000000 0.000000 0.000000 
0.022672 0.816083 0.026519 -1.359235 -6.827093 -4.417425 19.085640 -1.041206 29.401605 -15.909601 -1.244106 -36.733203 108.291676 55.778064 94.112875 0.000000 0.000000 0.000000 -28.376394 5.355026 23.068925 29.171511 6.014192 -34.888577 -94.993253 -61.188101 82.259494 0.000000 0.000000 0.000000 3.161252 1.006362 -12.182024 1.436498 0.347550 -28.660824 4.425975 10.679785 37.936658 3.377301 2.463624 -67.856778 0.000000 0.000000 0.000000 -24.229561 -0.121876 -2.803797 -45.916070 -8.619472 -5.471808 -4.322291 40.552723 -2.906616 0.000000 0.000000 0.000000 20.327886 -8.637546 -4.070051 50.298540 0.046100 -8.911337 -35.681795 -13.742345 6.724845 0.000000 0.000000 0.000000 
0.023177 0.816700 0.030485 -1.571664 -6.916207 -5.146271 19.703964 -1.164080 29.855911 -16.611089 -1.258771 -35.146509 103.247393 56.182535 90.592231 0.000000 0.000000 0.000000 -27.777389 5.003912 22.319423 28.983557 5.279584 -32.075020 -89.953216 -62.757740 75.801067 0.000000 0.000000 0.000000 3.440853 1.042404 -12.094456 1.240833 0.337793 -27.782332 4.212564 10.142992 36.228964 1.021198 2.954869 -65.504785 0.000000 0.000000 0.000000 -25.725823 0.235756 -3.130550 -45.000677 -6.193742 -6.024070 0.601060 34.657419 -0.959667 0.000000 0.000000 0.000000 20.094553 -8.656951 -4.285900 49.903074 -1.725570 -9.269022 -21.731370 -2.779899 1.667344 0.000000 0.000000 0.000000 
0.023453 0.816870 0.034567 -1.712720 -7.301142 -5.156892 19.749539 -1.128430 30.414817 -16.657835 -1.188213 -34.725271 101.563565 57.074401 88.539911 0.000000 0.000000 0.000000 -27.948086 5.057115 21.974190 29.713339 5.017409 -30.206784 -82.433906 -63.117766 68.351230 0.000000 0.000000 0.000000 3.877630 1.194630 -13.006471 1.230178 0.285017 -26.862948 3.778011 10.326138 35.689526 1.581578 2.840774 -64.463103 0.000000 0.000000 0.000000 -25.733814 1.126746 -3.689990 -44.375476 -4.921687 -6.332660 2.334594 32.091674 -0.420556 0.000000 0.000000 0.000000 20.281950 -8.750414 -4.394455 49.186754 -3.311938 -9.687882 -11.681979 -0.732766 0.578040 0.000000 0.000000 0.000000 
0.022990 0.815667 0.038027 -1.584008 -7.109287 -4.382909 19.962724 -1.270390 30.942982 -17.261253 -1.456257 -36.241965 102.530146 55.017110 91.646342 0.000000 0.000000 0.000000 -27.798048 5.123104 22.446322 29.138924 5.245565 -31.746528 -86.905441 -62.604070 73.279508 0.000000 0.000000 0.000000 3.851974 1.326429 -14.506945 0.889356 0.411775 -27.770954 4.107849 10.152441 36.548092 -0.606197 3.324991 -64.078968 0.000000 0.000000 0.000000 -25.214882 1.461554 -3.771429 -44.456671 -4.090112 -6.734856 4.649288 32.689469 0.281167 0.000000 0.000000 0.000000 20.630053 -8.809254 -4.439956 48.058149 -4.721462 -10.089620 -7.896427 -5.015762 0.507232 0.000000 0.000000 0.000000 
0.021795 0.814343 0.040786 -1.754151 -6.782208 -3.540775 20.559458 -1.625362 32.980074 -17.869392 -2.121945 -41.085646 105.262938 48.446331 100.948978 0.000000 0.000000 0.000000 -27.564331 5.531272 25.012257 28.713824 6.510762 -37.436753 -95.102010 -58.409848 86.162849 0.000000 0.000000 0.000000 3.210252 1.330361 -15.681902 1.207073 0.589543 -32.183169 5.150728 8.508443 41.762658 -3.300504 3.606987 -70.307385 0.000000 0.000000 0.000000 -26.099888 1.514281 -3.177291 -44.037106 -4.937203 -7.215349 6.588825 37.487212 1.275371 0.000000 0.000000 0.000000 20.506585 -8.013286 -4.037434 46.371815 -4.259390 -10.243578 -9.479841 -16.074010 1.382301 0.000000 0.000000 0.000000 
0.020218 0.811372 0.042887 -1.392856 -6.458139 -2.466753 20.660624 -1.779015 33.393393 -19.220213 -2.704697 -43.201526 108.778514 47.307829 103.627598 0.000000 0.000000 0.000000 -27.443251 5.831618 26.668684 27.487053 7.176687 -41.835409 -100.002613 -56.734065 91.921715 0.000000 0.000000 0.000000 2.513959 1.328756 -17.006552 0.575610 0.779534 -33.825322 6.090424 8.290854 43.534214 -5.970149 3.976133 -71.587610 0.000000 0.000000 0.000000 -25.221316 1.584727 -3.060927 -44.372065 -5.593556 -7.268954 9.280229 39.553217 2.437786 0.000000 0.000000 0.000000 21.106186 -7.802982 -3.834672 45.151946 -3.449729 -9.984033 -10.994350 -25.305261 2.608435 0.000000 0.000000 0.000000 
0.019016 0.808764 0.044850 -1.217516 -6.222087 -1.661464 21.193629 -2.112153 35.228617 -20.280507 -3.596994 -47.741209 107.088262 39.946919 110.732098 0.000000 0.000000 0.000000 -27.594429 6.463165 29.627459 26.592142 8.431211 -48.530218 -104.581221 -50.537509 102.389565 0.000000 0.000000 0.000000 1.982479 1.323347 -18.027546 0.552801 1.026383 -38.326424 6.843384 6.847029 49.234181 -9.701101 3.985519 -78.164508 0.000000 0.000000 0.000000 -25.527111 1.368465 -2.273030 -43.815893 -8.313490 -7.192659 9.718656 45.304589 3.488799 0.000000 0.000000 0.000000 20.166607 -6.699468 -3.081339 44.441492 -1.365852 -9.872636 -13.808619 -36.938291 5.182756 0.000000 0.000000 0.000000 
0.018572 0.805950 0.046832 -1.078957 -6.022191 -0.795097 21.153829 -2.208315 35.764771 -21.050368 -4.002704 -48.938544 108.772558 39.276662 111.826902 0.000000 0.000000 0.000000 -27.712079 6.861059 31.357748 25.806673 8.944034 -52.294835 -103.973262 -48.630981 104.357311 0.000000 0.000000 0.000000 1.941477 1.390229 -19.013354 0.677408 1.078629 -39.645498 6.806404 6.937735 50.874122 -8.951970 3.684661 -80.147285 0.000000 0.000000 0.000000 -24.521875 1.350385 -2.150600 -43.549640 -9.813573 -6.893610 8.726698 47.549933 3.315908 0.000000 0.000000 0.000000 19.559416 -5.907016 -2.404451 42.220946 0.064624 -9.260967 -13.408402 -43.620671 6.171681 0.000000 0.000000 0.000000 
0.018543 0.803742 0.048405 -0.745752 -6.547165 -0.141063 20.731319 -2.001521 36.395795 -21.531749 -4.185702 -50.186480 107.365101 38.423210 112.407192 0.000000 0.000000 0.000000 -28.305603 7.495870 32.368474 25.588846 9.565847 -54.877428 -103.126276 -47.115072 105.610466 0.000000 0.000000 0.000000 2.230897 1.539316 -19.856313 1.026866 1.127999 -40.673477 6.819800 7.532690 52.418438 -9.109517 3.499313 -82.097824 0.000000 0.000000 0.000000 -25.162633 0.993496 -1.990075 -42.083451 -10.642160 -6.655428 7.632820 48.567589 2.856044 0.000000 0.000000 0.000000 18.648247 -4.368585 -1.337519 39.161205 1.124690 -8.611337 -9.564880 -48.392026 5.047619 0.000000 0.000000 0.000000 
0.018255 0.801562 0.049285 -0.523005 -6.568984 0.256268 20.137673 -1.795475 35.733184 -21.107409 -3.939390 -49.730893 111.306557 39.148379 112.877214 0.000000 0.000000 0.000000 -27.987136 7.480642 32.666463 24.830921 9.420663 -55.647283 -103.973700 -47.204821 105.879209 0.000000 0.000000 0.000000 2.705061 1.607396 -19.741478 1.499227 1.169546 -41.841698 6.341611 8.422418 53.366096 -7.081430 3.190373 -82.923753 0.000000 0.000000 0.000000 -25.124803 0.365600 -1.803903 -41.538481 -11.710035 -6.315594 4.581674 49.357806 1.397761 0.000000 0.000000 0.000000 18.082269 -3.377437 -0.542084 35.819696 2.644522 -7.762734 -4.940024 -51.351540 3.036456 0.000000 0.000000 0.000000 
0.017470 0.799274 0.049522 -0.559470 -6.782670 0.364028 19.871786 -1.669088 35.852335 -20.457927 -3.719858 -50.092612 112.375582 40.052724 112.379169 0.000000 0.000000 0.000000 -28.121324 7.562568 32.437067 25.469661 9.746505 -55.561377 -104.948367 -48.397960 104.947395 0.000000 0.000000 0.000000 3.137596 1.690531 -19.726118 2.106382 1.191265 -42.584951 6.240875 8.959306 53.950039 -5.563358 2.987956 -83.542222 0.000000 0.000000 0.000000 -25.317266 -0.280330 -1.520381 -41.148404 -12.372472 -6.086337 2.252075 49.114285 0.252227 0.000000 0.000000 0.000000 17.029501 -2.560152 -0.014255 33.493557 3.481517 -7.191409 -1.392877 -50.775446 1.110332 0.000000 0.000000 0.000000 
0.016153 0.795824 0.050153 -0.433622 -6.133201 0.637881 19.875350 -1.827251 35.675547 -20.248552 -3.806054 -50.279746 114.568526 40.870097 112.004973 0.000000 0.000000 0.000000 -27.478806 7.207185 32.707682 25.071116 9.483593 -55.901520 -107.114862 -49.361049 105.048743 0.000000 0.000000 0.000000 2.611506 1.589716 -19.996200 2.205500 1.180631 -42.889484 6.107821 8.619324 53.617959 -4.264104 2.917843 -83.154414 0.000000 0.000000 0.000000 -25.020536 -1.607582 -0.682605 -40.695619 -13.810057 -5.561950 -0.473571 49.683027 -1.011960 0.000000 0.000000 0.000000 15.802273 -1.866172 0.301755 32.288461 3.961857 -6.777303 1.358703 -50.090991 -0.355081 0.000000 0.000000 0.000000 
0.014815 0.791499 0.052181 -0.174310 -6.171714 0.370013 19.594586 -1.748762 36.503842 -19.763182 -3.849565 -51.897081 117.411307 40.437897 113.253759 0.000000 0.000000 0.000000 -27.473093 7.405132 33.669022 25.320749 9.853912 -56.940445 -108.631327 -50.533961 104.562545 0.000000 0.000000 0.000000 2.752222 1.700239 -20.814976 2.653449 1.086872 -42.102962 5.548538 8.588088 53.310747 -2.392939 2.813733 -83.357654 0.000000 0.000000 0.000000 -25.630804 -1.917392 -0.485101 -39.211367 -15.008877 -5.060789 -4.370271 48.316023 -2.853271 0.000000 0.000000 0.000000 14.923759 -1.503139 0.388521 30.860489 4.839474 -6.268561 2.371799 -48.326740 -1.024551 0.000000 0.000000 0.000000 
0.013899 0.787713 0.055951 -0.157707 -6.159345 -0.134199 19.696983 -1.807273 37.506741 -19.311068 -3.845313 -52.791912 118.846971 40.365330 113.750766 0.000000 0.000000 0.000000 -27.751907 7.629171 34.409539 25.985784 10.342174 -57.717947 -109.444214 -51.521496 103.980467 0.000000 0.000000 0.000000 2.792823 1.817468 -21.871818 3.417352 0.984386 -41.686013 4.869796 8.519172 53.616673 1.023968 2.586894 -82.885239 0.000000 0.000000 0.000000 -25.223905 -2.644730 0.130339 -37.921628 -15.899064 -4.824652 -6.952886 46.940705 -3.928872 0.000000 0.000000 0.000000 13.147053 -1.032964 0.516568 30.519061 4.496254 -6.252062 0.791314 -45.133294 -0.335890 0.000000 0.000000 0.000000 
0.013426 0.783187 0.060412 0.062757 -6.151983 -0.525990 19.616275 -1.799129 38.369655 -19.613033 -4.010339 -53.020069 118.706763 42.372721 111.927740 0.000000 0.000000 0.000000 -28.125346 7.889555 35.026860 26.102988 10.384792 -57.688612 -107.717014 -53.194995 101.204665 0.000000 0.000000 0.000000 2.997978 1.993243 -23.144434 3.519795 0.763345 -39.246415 4.108634 8.731931 51.639015 3.929775 2.344302 -80.958819 0.000000 0.000000 0.000000 -25.749167 -3.419767 0.481985 -36.279926 -15.722798 -4.536056 -7.138748 43.906644 -3.917951 0.000000 0.000000 0.000000 12.904653 -0.942795 0.495875 28.391629 3.759517 -5.845897 -0.451499 -41.404844 -0.068162 0.000000 0.000000 0.000000 
0.013093 0.780048 0.064056 0.085030 -6.071652 -0.608404 19.553684 -1.827322 38.979736 -19.532819 -4.148304 -54.043281 118.437496 42.268735 111.851968 0.000000 0.000000 0.000000 -28.030656 7.800896 34.956403 26.054916 10.262563 -57.371226 -109.794213 -54.383728 101.060901 0.000000 0.000000 0.000000 3.415705 2.139431 -23.756445 3.379757 0.732445 -38.787151 3.737633 8.368781 51.376657 5.571915 2.175998 -80.282277 0.000000 0.000000 0.000000 -25.612816 -3.662192 0.796511 -34.740637 -16.465193 -4.297614 -4.680602 41.593329 -2.796496 0.000000 0.000000 0.000000 11.676155 -1.151263 0.279504 26.495789 3.517385 -5.502601 -3.724450 -37.750247 0.960273 0.000000 0.000000 0.000000 
0.013081 0.777408 0.066028 0.300537 -6.205719 -0.518708 19.872566 -1.929879 39.785048 -20.860204 -4.711177 -54.734656 117.534010 44.013528 109.913049 0.000000 0.000000 0.000000 -28.786265 8.060082 34.505682 27.008225 10.557948 -56.731534 -110.044365 -55.589254 99.834893 0.000000 0.000000 0.000000 3.858343 2.291044 -24.171880 2.938539 0.734232 -38.278319 3.339320 8.449249 51.149209 7.308841 1.961661 -80.523025 0.000000 0.000000 0.000000 -25.609496 -4.441860 1.359487 -32.564755 -16.216720 -4.249738 -1.320789 39.296381 -1.502283 0.000000 0.000000 0.000000 11.289241 -1.465573 0.123959 24.275895 3.115360 -5.200291 -6.577738 -34.062544 1.693523 0.000000 0.000000 0.000000 
0.013142 0.776248 0.066594 0.418771 -6.270281 -0.552477 19.820700 -1.921782 40.451422 -20.895920 -4.907642 -56.038664 115.082471 43.449668 109.551316 0.000000 0.000000 0.000000 -29.264989 8.184272 34.136477 27.192361 10.515428 -56.210331 -109.126792 -56.046778 98.774190 0.000000 0.000000 0.000000 4.364894 2.396482 -24.093958 2.169389 0.911158 -39.606670 3.400638 7.591533 52.456088 7.457350 2.031599 -81.938357 0.000000 0.000000 0.000000 -25.758984 -4.674413 1.959035 -31.003000 -16.751720 -4.327681 2.401423 39.342200 -0.069113 0.000000 0.000000 0.000000 9.711481 -1.327668 0.055576 23.254283 2.583938 -5.137881 -10.791517 -31.884755 2.815282 0.000000 0.000000 0.000000 
0.013222 0.776865 0.066699 0.361723 -6.557001 -0.252631 19.589578 -1.798848 40.970539 -20.602532 -4.852088 -56.959506 114.888904 42.004311 110.928329 0.000000 0.000000 0.000000 -29.502262 8.180996 33.260063 27.412966 10.471570 -55.415368 -110.107578 -55.988109 99.347724 0.000000 0.000000 0.000000 4.766531 2.502273 -24.112910 1.821207 0.987758 -40.187247 3.184249 7.333134 53.128675 8.550810 1.989706 -83.278493 0.000000 0.000000 0.000000 -24.472502 -5.063656 2.498191 -29.711386 -17.181129 -4.343927 5.660807 41.090186 1.230335 0.000000 0.000000 0.000000 9.083981 -1.429214 -0.034929 21.975172 3.170370 -4.887397 -15.317988 -30.249523 3.974679 0.000000 0.000000 0.000000 
0.013297 0.775718 0.066822 0.253228 -6.744614 0.393917 19.251770 -1.705876 42.672782 -20.789810 -5.278144 -59.713680 109.932366 38.889094 112.369903 0.000000 0.000000 0.000000 -29.780280 8.592539 34.172637 27.089804 10.792518 -57.295829 -110.346566 -52.844105 102.935520 0.000000 0.000000 0.000000 4.736384 2.493070 -24.057931 2.147787 1.172093 -42.999659 2.933402 6.783597 56.494354 9.285864 2.213212 -88.052640 0.000000 0.000000 0.000000 -24.398049 -4.811311 2.903252 -28.100549 -18.847719 -4.517466 8.142889 45.343127 2.617967 0.000000 0.000000 0.000000 8.239520 -1.423039 -0.046259 20.922754 3.812502 -4.869054 -19.995404 -30.523207 5.353300 0.000000 0.000000 0.000000 
0.013355 0.774897 0.067437 0.177412 -6.742576 1.063727 18.825300 -1.621443 44.611549 -20.268507 -5.549619 -63.140758 102.764806 35.164178 114.179785 0.000000 0.000000 0.000000 -30.014454 9.182514 36.117718 26.396851 11.107020 -60.225584 -106.236019 -49.174738 104.914024 0.000000 0.000000 0.000000 4.663396 2.507418 -24.393874 2.601021 1.335530 -45.329632 2.430072 6.497116 59.657479 10.286829 2.476224 -92.463638 0.000000 0.000000 0.000000 -23.703343 -4.713563 3.274895 -26.470577 -19.976693 -4.750094 8.576169 48.835629 3.146829 0.000000 0.000000 0.000000 8.230353 -1.312940 0.069315 20.271560 5.164170 -4.918972 -24.765622 -33.012728 7.305775 0.000000 0.000000 0.000000 
0.013238 0.773611 0.068083 0.348360 -7.399945 1.336283 18.280230 -1.227972 45.813731 -19.893697 -5.452050 -64.873780 99.434580 34.051521 114.698981 0.000000 0.000000 0.000000 -30.582714 9.690004 36.191057 25.823537 11.112833 -60.831061 -106.374670 -47.150377 107.128695 0.000000 0.000000 0.000000 4.584606 2.499063 -24.063605 3.465715 1.446388 -46.535704 2.554992 7.252640 61.656299 11.438510 2.557651 -95.558686 0.000000 0.000000 0.000000 -24.051016 -4.769616 3.405115 -25.164676 -20.932126 -4.788474 7.386817 50.141097 2.623264 0.000000 0.000000 0.000000 8.031206 -2.155132 -0.231646 20.088371 7.052808 -4.970911 -27.734162 -35.350328 8.990879 0.000000 0.000000 0.000000 
0.012971 0.772536 0.068558 0.392396 -7.139188 1.728994 18.239323 -1.324136 47.205934 -19.759738 -5.802658 -67.170508 93.486268 32.560008 114.779309 0.000000 0.000000 0.000000 -30.916757 10.155385 37.762870 24.227418 10.811134 -63.585888 -103.330152 -42.479559 111.133993 0.000000 0.000000 0.000000 4.052858 2.287732 -23.471424 3.111574 1.782259 -50.032270 2.836663 5.762098 65.000451 8.294689 2.952594 -98.632656 0.000000 0.000000 0.000000 -24.205204 -4.047791 3.632576 -25.165981 -22.100902 -5.210877 5.731160 50.737477 2.201057 0.000000 0.000000 0.000000 6.498002 -2.050992 -0.306329 20.441370 8.019733 -5.204250 -28.173197 -37.215428 9.555866 0.000000 0.000000 0.000000 
0.012461 0.772197 0.068775 0.467749 -7.412185 1.878885 18.024803 -1.151753 47.661479 -19.730453 -5.778536 -67.595133 92.603074 32.852782 114.209258 0.000000 0.000000 0.000000 -31.135571 10.365328 37.777443 22.975381 10.312042 -64.006139 -102.658394 -41.385919 112.034921 0.000000 0.000000 0.000000 3.948971 2.197640 -22.760193 3.410508 1.809312 -49.864588 2.790491 6.353362 64.573531 9.427795 3.026966 -99.606117 0.000000 0.000000 0.000000 -23.393523 -3.499275 3.160609 -25.836608 -21.454315 -5.301816 4.808532 49.289328 1.715610 0.000000 0.000000 0.000000 6.739534 -2.724451 -0.568132 19.822005 8.013344 -5.073177 -26.988599 -37.764689 9.246744 0.000000 0.000000 0.000000 
0.011416 0.772073 0.068588 0.444505 -7.594191 2.568146 17.694801 -0.975577 47.594650 -19.422133 -5.619245 -68.285674 91.123465 31.928737 115.038013 0.000000 0.000000 0.000000 -31.012042 10.420463 37.787825 21.229890 9.750468 -65.639227 -100.874451 -38.075167 115.097818 0.000000 0.000000 0.000000 3.582096 2.083671 -22.391007 3.245058 1.895635 -50.330420 2.947337 5.840602 64.615962 8.096385 3.169181 -99.991164 0.000000 0.000000 0.000000 -23.164954 -2.390910 2.644732 -26.724895 -21.676097 -5.382760 4.175089 49.111703 1.592428 0.000000 0.000000 0.000000 5.578779 -2.872601 -0.752638 19.873699 7.881940 -5.019533 -25.376460 -37.731758 8.550651 0.000000 0.000000 0.000000 
0.009822 0.773419 0.068250 0.402135 -7.830003 3.176483 17.744915 -0.931728 47.028444 -19.553407 -5.572781 -68.384537 91.100284 31.582835 115.507345 0.000000 0.000000 0.000000 -30.535980 10.219124 37.320267 19.737605 9.124214 -66.143259 -99.067043 -37.030821 115.580612 0.000000 0.000000 0.000000 3.909190 2.145077 -22.329545 2.677378 1.816843 -49.191176 2.927076 6.202505 63.634638 7.974532 3.166445 -100.238125 0.000000 0.000000 0.000000 -22.984852 -1.666592 2.097953 -26.153414 -21.356810 -5.259643 2.966974 48.651550 0.866682 0.000000 0.000000 0.000000 6.238238 -3.527633 -1.002790 18.363328 7.689682 -4.663429 -23.594938 -37.665493 7.689361 0.000000 0.000000 0.000000 
0.007906 0.777412 0.067863 0.220348 -8.270521 3.522696 17.587477 -0.742361 45.773937 -19.027200 -4.914164 -66.858700 91.355222 31.856078 115.469510 0.000000 0.000000 0.000000 -29.843236 9.724077 35.862734 19.026419 8.647357 -64.630440 -99.136823 -37.948575 114.297626 0.000000 0.000000 0.000000 4.342247 2.217626 -22.081506 2.384099 1.592097 -46.249763 3.102077 6.955830 60.127739 10.029070 3.026763 -97.680316 0.000000 0.000000 0.000000 -22.510521 -1.474822 1.563336 -25.881085 -19.818501 -4.909976 2.185516 47.302575 0.197849 0.000000 0.000000 0.000000 6.389696 -4.441012 -1.434256 17.588596 5.759312 -4.385578 -24.157102 -35.084901 7.307486 0.000000 0.000000 0.000000 
0.005957 0.781837 0.067433 0.027495 -8.728898 3.301479 17.924834 -0.740379 44.017108 -18.817166 -4.319676 -64.146700 93.519264 33.753519 113.860360 0.000000 0.000000 0.000000 -30.007828 9.306647 33.352483 19.398641 8.462260 -61.500609 -99.572821 -39.506490 112.404473 0.000000 0.000000 0.000000 4.600556 2.201386 -21.334812 2.435711 1.283263 -42.584268 3.099983 7.825070 55.962529 9.111726 2.873377 -95.263043 0.000000 0.000000 0.000000 -21.700358 -1.136866 0.916080 -25.435078 -18.420943 -4.484200 1.896800 46.493561 -0.223904 0.000000 0.000000 0.000000 6.812210 -4.991319 -1.711107 16.222065 4.494885 -3.908105 -24.487122 -33.554881 7.008772 0.000000 0.000000 0.000000 
0.004292 0.786441 0.066940 -0.070711 -8.784397 3.323623 18.127983 -0.813052 41.381251 -18.435154 -3.671879 -60.602154 96.981302 35.240553 113.198859 0.000000 0.000000 0.000000 -29.685012 8.473492 30.394336 19.694682 7.974640 -57.624340 -102.297901 -41.740662 110.690342 0.000000 0.000000 0.000000 4.711407 2.115135 -20.514544 1.668807 1.168059 -40.479190 3.935774 7.992336 53.191818 9.206547 2.660983 -92.877378 0.000000 0.000000 0.000000 -20.934741 -0.992871 0.554421 -24.726342 -17.292527 -4.184665 1.626324 45.528959 -0.538468 0.000000 0.000000 0.000000 6.908913 -6.464017 -2.410213 15.059703 3.003299 -3.574250 -25.818875 -31.197485 6.878719 0.000000 0.000000 0.000000 
0.003204 0.790224 0.066393 -0.188530 -8.629491 3.447253 18.282125 -0.911450 40.095840 -17.807427 -3.280739 -59.317289 96.649283 34.681826 113.819651 0.000000 0.000000 0.000000 -29.630088 8.224281 29.584294 19.978282 7.903975 -56.706131 -101.891514 -40.865028 111.559972 0.000000 0.000000 0.000000 4.654555 2.014820 -19.904953 1.240867 1.157972 -39.675171 4.260531 7.924709 52.030385 8.414001 2.782551 -92.305553 0.000000 0.000000 0.000000 -18.922758 -0.437910 0.174040 -25.151504 -17.001822 -4.076930 1.830109 46.492400 -0.474351 0.000000 0.000000 0.000000 5.951277 -6.995068 -2.676100 14.841917 1.342088 -3.482619 -27.887836 -30.673170 7.370409 0.000000 0.000000 0.000000 
0.002558 0.793017 0.065475 -0.060330 -8.340223 2.781372 18.718456 -1.095179 38.523211 -18.171544 -3.287769 -57.202622 101.062819 35.698187 113.839244 0.000000 0.000000 0.000000 -29.865613 7.803212 27.959695 20.805477 7.704600 -53.941831 -104.372930 -42.658478 110.582015 0.000000 0.000000 0.000000 4.536953 1.826881 -18.591058 1.338451 1.035300 -38.155934 4.014264 8.720311 50.297476 9.779204 2.640417 -90.715397 0.000000 0.000000 0.000000 -16.769072 0.115883 -0.421286 -25.038079 -17.499581 -3.655860 2.444867 46.372254 -0.407455 0.000000 0.000000 0.000000 6.172344 -7.592482 -2.928173 13.855121 1.019391 -3.184787 -28.820849 -30.075434 7.569561 0.000000 0.000000 0.000000 
0.002184 0.795602 0.064305 0.019969 -7.973569 1.950080 19.383431 -1.360364 38.099121 -18.475826 -3.424845 -56.177475 102.206805 35.419436 114.400221 0.000000 0.000000 0.000000 -30.137713 7.724318 27.877869 21.280468 7.770993 -53.559988 -104.381493 -42.842393 110.508699 0.000000 0.000000 0.000000 4.223027 1.664462 -17.639771 1.400370 1.046453 -38.669677 4.237957 8.315782 51.345597 11.189408 2.708977 -91.797255 0.000000 0.000000 0.000000 -16.477678 -0.389910 -0.069243 -24.074614 -17.778577 -3.645110 0.563836 47.039944 -1.278228 0.000000 0.000000 0.000000 6.735589 -7.038657 -2.670385 13.163086 1.745886 -3.058516 -30.423480 -32.230524 8.533429 0.000000 0.000000 0.000000 
0.001838 0.797315 0.062814 0.023047 -7.581022 1.066511 19.885940 -1.556666 37.241699 -18.421836 -3.398503 -54.996083 106.044718 34.631144 116.170907 0.000000 0.000000 0.000000 -30.001615 7.353051 27.190664 21.379330 7.463871 -52.006186 -107.826630 -43.971155 110.790738 0.000000 0.000000 0.000000 4.141840 1.528444 -16.553485 1.677152 1.062486 -39.435311 3.910399 8.509424 52.245109 13.293952 2.714041 -92.501514 0.000000 0.000000 0.000000 -15.473185 -0.906879 0.192960 -23.780781 -18.771715 -3.547228 1.777942 48.239260 -0.792728 0.000000 0.000000 0.000000 7.663748 -6.415429 -2.340036 12.005685 2.214774 -2.847266 -29.774503 -33.356087 8.552167 0.000000 0.000000 0.000000 
0.001341 0.798322 0.061451 -0.174315 -7.423069 0.260080 20.212019 -1.646329 36.542733 -18.877176 -3.472330 -53.502407 110.363163 36.065757 115.749970 0.000000 0.000000 0.000000 -30.231483 7.117036 26.281390 22.221489 7.303870 -49.650381 -110.288120 -46.236491 109.520050 0.000000 0.000000 0.000000 3.880830 1.389044 -15.543130 2.372501 0.926736 -38.720164 3.586765 8.809587 51.451076 15.933958 2.678118 -92.407187 0.000000 0.000000 0.000000 -14.950730 -1.394085 0.340284 -22.927627 -18.976215 -3.333206 1.123435 46.886439 -1.196162 0.000000 0.000000 0.000000 8.777306 -5.445550 -1.859672 11.401637 2.607662 -2.689763 -28.812310 -33.133302 8.184639 0.000000 0.000000 0.000000 
0.000777 0.797350 0.060206 -0.443119 -7.477239 0.343341 20.649746 -1.759067 36.305415 -18.945184 -3.561268 -54.263183 112.387362 34.662271 117.541757 0.000000 0.000000 0.000000 -30.613516 7.320984 26.552778 22.936283 7.684249 -50.182293 -110.349744 -45.637032 110.198466 0.000000 0.000000 0.000000 3.809536 1.396195 -15.671621 3.312597 0.986355 -40.554897 3.304128 8.825867 53.574785 17.053280 2.870095 -94.268442 0.000000 0.000000 0.000000 -15.299831 -1.825995 0.685094 -22.449713 -19.392442 -3.498535 2.450715 47.891335 -0.589209 0.000000 0.000000 0.000000 9.806005 -4.330432 -1.254299 11.267266 3.201730 -2.748849 -29.064442 -34.140497 8.455255 0.000000 0.000000 0.000000 
0.000265 0.797055 0.059359 -0.665173 -7.343938 0.218943 21.135249 -1.947710 36.589780 -19.632941 -3.925263 -54.800140 113.093910 33.716367 118.505604 0.000000 0.000000 0.000000 -30.888980 7.487618 27.081065 23.815899 7.919739 -49.926304 -109.481979 -46.514606 108.972886 0.000000 0.000000 0.000000 3.844413 1.381867 -15.507864 3.927442 1.015624 -41.545479 3.245218 9.119897 54.379539 17.000454 2.911217 -94.652344 0.000000 0.000000 0.000000 -14.925190 -2.182166 0.826554 -22.982421 -19.856330 -3.524656 3.463507 48.470637 -0.118221 0.000000 0.000000 0.000000 10.226166 -3.535814 -0.791623 12.233154 2.445388 -3.024676 -29.449587 -34.254035 8.741716 0.000000 0.000000 0.000000 
-0.000077 0.797043 0.058661 -0.983557 -7.269742 0.131869 21.561175 -2.117018 37.005554 -19.972542 -4.149569 -55.257262 114.137426 33.360561 118.979657 0.000000 0.000000 0.000000 -31.093539 7.603783 27.421473 24.931817 8.192431 -49.391812 -108.359131 -48.202507 106.711876 0.000000 0.000000 0.000000 4.031298 1.442934 -15.840828 4.592554 0.951739 -41.597216 3.005068 9.566138 54.756149 18.146788 2.797874 -94.666948 0.000000 0.000000 0.000000 -15.152879 -2.706100 1.022831 -22.890496 -19.786219 -3.551723 2.686559 47.534841 -0.529309 0.000000 0.000000 0.000000 11.110404 -3.076795 -0.445010 12.308690 1.939391 -3.113191 -29.078237 -34.019267 8.602398 0.000000 0.000000 0.000000 
-0.000182 0.796834 0.058037 -1.091612 -6.325072 -0.042426 22.447470 -2.600643 36.542756 -20.867570 -4.686654 -54.930605 114.676973 33.404695 118.724031 0.000000 0.000000 0.000000 -31.520973 7.676940 28.337636 25.395482 8.208485 -49.775937 -105.872309 -47.754324 106.251019 0.000000 0.000000 0.000000 3.703874 1.347518 -15.652107 5.192475 1.030881 -43.319034 2.596648 8.900466 56.674513 18.883817 2.880679 -95.589136 0.000000 0.000000 0.000000 -15.682136 -2.578660 1.079756 -23.399438 -20.736017 -3.739016 3.549334 47.167874 -0.007344 0.000000 0.000000 0.000000 11.398591 -2.453199 -0.054587 12.720915 1.766033 -3.322551 -30.076274 -34.875143 9.165795 0.000000 0.000000 0.000000 
-0.000004 0.796460 0.057552 -0.967877 -5.750117 -0.132552 22.302184 -2.711016 36.719164 -20.949493 -4.890904 -55.145676 113.425581 33.848356 117.915580 0.000000 0.000000 0.000000 -32.192878 7.938359 29.208146 26.239872 8.378904 -49.843491 -102.950730 -47.951648 104.743432 0.000000 0.000000 0.000000 3.818597 1.359250 -15.816576 4.608986 1.010437 -43.029042 3.070420 8.746474 56.761274 18.018404 2.784304 -95.876943 0.000000 0.000000 0.000000 -16.406289 -3.346598 1.396984 -23.288940 -20.688010 -3.721654 2.823595 46.540265 -0.365677 0.000000 0.000000 0.000000 11.089991 -2.225645 0.083339 13.436506 0.523834 -3.552912 -29.455974 -35.357592 9.179998 0.000000 0.000000 0.000000 
0.000388 0.796435 0.056179 -0.937509 -5.324474 0.025309 21.995160 -2.679649 36.043226 -21.195816 -5.043092 -55.041450 115.764845 34.689980 117.497343 0.000000 0.000000 0.000000 -32.661320 7.870117 28.738753 27.125885 8.393328 -48.999239 -103.122096 -47.862580 105.034574 0.000000 0.000000 0.000000 3.941814 1.328631 -15.514628 4.531408 0.990212 -42.934647 3.290409 9.051337 56.644135 16.259093 2.592609 -95.366088 0.000000 0.000000 0.000000 -17.184300 -3.945904 1.493070 -23.049576 -20.379685 -3.599440 0.932881 46.202339 -1.318225 0.000000 0.000000 0.000000 10.727677 -2.252179 0.090519 14.248866 -0.727230 -3.783889 -29.354555 -35.772909 9.400406 0.000000 0.000000 0.000000 
0.000935 0.798390 0.053247 -0.740629 -4.467032 0.239058 21.821057 -2.727646 34.433266 -21.694121 -5.239065 -53.969813 116.308786 35.510670 116.630251 0.000000 0.000000 0.000000 -32.845929 7.540394 28.097401 27.384778 8.172175 -48.535206 -103.422900 -47.501709 105.777356 0.000000 0.000000 0.000000 3.519690 1.148988 -14.509215 4.126289 1.023444 -43.495742 3.657839 8.237512 56.851877 11.956397 2.596298 -95.564762 0.000000 0.000000 0.000000 -18.037061 -4.648809 1.837342 -23.838397 -20.245921 -3.603397 -0.104921 46.555446 -1.718882 0.000000 0.000000 0.000000 9.625248 -1.711054 0.212437 15.740095 -2.016830 -4.165618 -29.517282 -37.061300 9.908457 0.000000 0.000000 0.000000 
0.001415 0.801840 0.048825 -0.744950 -4.317706 0.344731 21.413910 -2.561939 33.277282 -21.519092 -5.105516 -53.445448 119.314010 35.795487 117.013117 0.000000 0.000000 0.000000 -32.845915 7.169945 26.663394 27.699247 8.003278 -47.472823 -105.439689 -47.968379 106.266658 0.000000 0.000000 0.000000 3.565515 1.041530 -13.304459 3.814118 1.001838 -42.992692 3.894841 8.482079 55.617714 9.446879 2.477495 -94.707300 0.000000 0.000000 0.000000 -18.028296 -4.866081 1.732580 -25.297816 -19.620902 -3.531033 -0.382496 46.703026 -1.852976 0.000000 0.000000 0.000000 9.358774 -1.397702 0.311591 16.799736 -3.437587 -4.410481 -29.556131 -38.770674 10.491534 0.000000 0.000000 0.000000 
0.001645 0.806802 0.043982 -0.761580 -3.812392 0.626310 21.172853 -2.468858 31.225542 -21.271536 -4.938325 -52.357766 121.388162 34.346077 118.490072 0.000000 0.000000 0.000000 -32.014480 6.353819 24.644453 26.989343 7.451964 -46.590004 -110.376635 -47.453974 109.222744 0.000000 0.000000 0.000000 3.381955 0.881607 -11.842635 3.575738 1.008767 -43.084395 4.083729 8.334579 54.819020 7.079437 2.417168 -94.542666 0.000000 0.000000 0.000000 -18.024722 -5.111157 1.703002 -26.207902 -19.335321 -3.442345 -2.437380 47.734258 -2.842941 0.000000 0.000000 0.000000 9.361069 -1.195380 0.393533 18.128657 -4.367162 -4.752357 -31.947693 -41.410934 12.371197 0.000000 0.000000 0.000000 
0.001675 0.811260 0.040301 -0.920945 -4.065791 1.333269 20.647688 -2.162286 29.146946 -20.432864 -4.360190 -51.175786 122.104670 33.019858 119.752674 0.000000 0.000000 0.000000 -31.581702 5.880086 22.443878 26.677099 7.149616 -45.513291 -110.407474 -46.712458 109.937850 0.000000 0.000000 0.000000 3.581276 0.846122 -11.241694 3.869942 0.956343 -42.400628 3.824405 9.069073 53.377703 5.607525 2.281197 -92.160903 0.000000 0.000000 0.000000 -17.836917 -5.117825 1.452708 -27.929078 -17.751508 -3.506055 -2.121927 46.868688 -2.690815 0.000000 0.000000 0.000000 9.383987 -1.230315 0.361945 19.520214 -4.407621 -4.983849 -33.674044 -42.479721 13.672309 0.000000 0.000000 0.000000 
0.001586 0.814117 0.038707 -1.034705 -4.203550 1.943105 20.023339 -1.926380 27.874089 -20.270090 -4.033650 -49.687136 123.983333 34.654796 118.866996 0.000000 0.000000 0.000000 -31.142302 5.570245 21.135462 26.237939 6.748761 -44.280518 -109.265020 -46.480457 109.614406 0.000000 0.000000 0.000000 3.774681 0.822685 -10.837186 3.497062 0.872947 -40.792344 3.754644 9.620243 50.785877 5.307716 2.235016 -89.208705 0.000000 0.000000 0.000000 -16.879558 -5.397418 1.378748 -29.965708 -16.053511 -3.575404 -4.221863 46.425437 -3.630969 0.000000 0.000000 0.000000 10.283863 -0.948353 0.525017 20.613452 -4.488807 -5.068226 -34.559271 -44.156261 14.753129 0.000000 0.000000 0.000000 
0.001485 0.817120 0.038549 -1.366755 -5.036761 2.607735 19.445767 -1.638791 27.326230 -19.834249 -3.633333 -49.427216 121.805883 34.194502 119.066249 0.000000 0.000000 0.000000 -31.188573 5.433395 19.252189 27.142820 6.935521 -43.085844 -108.285026 -46.516139 108.988875 0.000000 0.000000 0.000000 4.079877 0.851756 -10.801290 3.658526 0.726195 -38.672353 3.588013 10.540150 48.166697 4.258455 2.252255 -86.389915 0.000000 0.000000 0.000000 -16.986564 -5.680022 1.290865 -30.908934 -13.646815 -3.738837 -5.299859 46.300196 -4.190161 0.000000 0.000000 0.000000 11.025432 -1.368332 0.334032 21.424897 -4.065998 -5.047509 -34.036843 -43.694633 14.474194 0.000000 0.000000 0.000000 
0.001362 0.816704 0.038977 -1.469948 -5.672825 2.974695 19.390987 -1.539947 27.547657 -20.485376 -3.579128 -48.604142 123.351387 36.783400 117.481404 0.000000 0.000000 0.000000 -31.250279 5.356553 17.994797 27.147072 6.678295 -41.405844 -105.913375 -46.934382 107.299580 0.000000 0.000000 0.000000 4.175394 0.848873 -10.617722 3.794361 0.568463 -36.677119 3.055911 11.421532 45.294511 4.155980 2.278006 -82.489394 0.000000 0.000000 0.000000 -16.107777 -5.499203 1.038480 -32.109379 -11.733780 -3.910717 -6.117812 46.146058 -4.622769 0.000000 0.000000 0.000000 12.339655 -1.865118 0.142578 22.376242 -2.758774 -4.966154 -32.205200 -43.283109 13.637826 0.000000 0.000000 0.000000 
0.001395 0.817844 0.039631 -1.844141 -6.768044 3.154697 18.801711 -1.268568 29.073917 -19.799199 -3.343677 -50.587362 120.062948 35.354173 118.266427 0.000000 0.000000 0.000000 -31.498633 5.509730 17.213005 28.213052 7.061924 -40.639521 -103.238882 -46.406225 106.421413 0.000000 0.000000 0.000000 4.635018 0.927496 -10.853573 4.276406 0.382037 -34.868035 2.446620 12.513796 43.531240 4.982543 2.239597 -80.385952 0.000000 0.000000 0.000000 -15.549654 -5.495273 0.947838 -33.432735 -9.362118 -4.365097 -6.689247 46.274585 -4.938581 0.000000 0.000000 0.000000 12.784534 -2.095477 0.015598 24.546968 -1.363254 -5.115971 -30.444492 -43.236016 13.034436 0.000000 0.000000 0.000000 
0.001521 0.817580 0.039863 -1.999724 -7.800742 3.106351 18.790183 -1.096089 29.956095 -20.597355 -3.336253 -50.269643 120.894527 37.299106 117.112107 0.000000 0.000000 0.000000 -31.830702 5.497555 15.756629 29.030477 6.923072 -38.213816 -100.169669 -47.956589 102.840598 0.000000 0.000000 0.000000 4.837559 0.921575 -10.436809 4.543820 0.204770 -33.215590 1.925942 13.543371 41.279700 6.394963 2.118848 -77.402583 0.000000 0.000000 0.000000 -14.533941 -5.272828 0.771218 -35.283345 -8.323437 -4.594482 -7.054771 47.219829 -5.246777 0.000000 0.000000 0.000000 13.068587 -2.391308 -0.155883 26.589907 -0.016387 -5.142263 -27.133662 -41.702801 11.304823 0.000000 0.000000 0.000000 
0.001832 0.817438 0.039502 -1.974410 -8.649105 3.082436 18.043182 -0.754238 29.925157 -20.909828 -3.154710 -49.668724 123.793548 39.273068 116.437599 0.000000 0.000000 0.000000 -31.420029 5.208800 14.044576 29.244029 6.508492 -35.577250 -100.010927 -49.311370 100.897193 0.000000 0.000000 0.000000 4.651652 0.904951 -10.269985 4.593374 0.075397 -31.852843 1.665956 13.664391 39.922263 6.144158 2.162251 -74.952709 0.000000 0.000000 0.000000 -14.917888 -5.096272 0.713583 -36.342565 -8.130552 -4.671390 -7.230443 48.768364 -5.429534 0.000000 0.000000 0.000000 13.546144 -2.202563 -0.159113 28.321861 2.010859 -4.979903 -24.972035 -41.177240 10.254497 0.000000 0.000000 0.000000 
0.002633 0.817730 0.038926 -2.010489 -9.230908 3.188552 17.497986 -0.524867 29.857977 -21.086321 -3.034573 -49.400585 123.076414 40.630310 115.327576 0.000000 0.000000 0.000000 -31.742838 5.238191 13.263100 29.620625 6.492188 -34.701491 -98.380576 -49.675309 99.432069 0.000000 0.000000 0.000000 4.175481 0.867386 -10.188488 4.805883 -0.019558 -31.158835 1.699387 13.526457 39.215384 6.844674 2.114555 -74.350122 0.000000 0.000000 0.000000 -15.813589 -5.183502 0.769788 -37.412329 -8.819093 -4.555285 -10.437972 50.247114 -7.016000 0.000000 0.000000 0.000000 14.146031 -1.733441 -0.001283 30.914116 3.989108 -4.918535 -23.367623 -42.350814 9.941319 0.000000 0.000000 0.000000 
0.003856 0.818263 0.038438 -1.970182 -9.363220 4.009213 16.294560 -0.240298 30.350624 -21.041543 -3.090666 -50.665748 121.139889 40.257777 115.128928 0.000000 0.000000 0.000000 -31.799447 5.373547 13.399942 29.565175 6.748167 -35.690561 -97.432380 -48.393663 100.477687 0.000000 0.000000 0.000000 3.505166 0.900527 -11.120352 4.521583 0.035858 -31.152142 1.884505 12.707173 39.936540 6.818338 2.174620 -75.020932 0.000000 0.000000 0.000000 -16.109342 -4.769222 0.773189 -39.337130 -10.442939 -4.448396 -16.072339 52.538783 -9.913352 0.000000 0.000000 0.000000 14.456028 -1.457233 0.025367 34.165197 4.793813 -5.189485 -23.574939 -42.336217 10.121672 0.000000 0.000000 0.000000 
0.005004 0.820235 0.038181 -2.193331 -9.639559 4.835454 15.589103 -0.043799 30.470079 -20.571911 -3.000146 -52.273720 119.814286 38.653169 116.218488 0.000000 0.000000 0.000000 -31.312991 5.623556 14.514688 29.478033 7.400901 -38.014933 -96.678958 -47.302727 101.365056 0.000000 0.000000 0.000000 3.414966 1.010212 -12.300124 4.857807 0.019177 -31.458389 1.991696 12.645931 41.485264 8.308101 2.045550 -76.437631 0.000000 0.000000 0.000000 -16.612624 -4.704635 0.831981 -41.429474 -12.603061 -4.188022 -27.100447 54.588501 -15.958517 0.000000 0.000000 0.000000 14.751639 -1.240441 0.163195 38.383412 4.620331 -5.914596 -29.211932 -45.610676 14.009688 0.000000 0.000000 0.000000 
0.005959 0.820874 0.037866 -2.209392 -9.196119 5.801772 14.672390 0.065087 29.836007 -20.416248 -3.040751 -52.711816 119.375166 37.907899 116.597705 0.000000 0.000000 0.000000 -30.769517 5.501949 14.640004 28.877844 7.320087 -38.786967 -98.728351 -46.676123 103.276011 0.000000 0.000000 0.000000 2.861613 0.987850 -12.755009 5.102081 0.088272 -32.461512 1.996766 12.352420 43.083081 9.099836 1.997740 -77.905521 0.000000 0.000000 0.000000 -15.992913 -4.682076 0.919521 -45.438942 -14.896906 -3.889176 -40.890436 54.714243 -23.204415 0.000000 0.000000 0.000000 15.219469 -1.636198 0.044034 42.497632 4.526404 -6.620710 -41.996879 -51.973426 23.993298 0.000000 0.000000 0.000000 
0.006653 0.820994 0.037639 -2.310842 -8.683191 6.873542 13.357511 0.292296 30.131737 -19.777946 -3.140753 -55.157327 118.505381 37.177647 116.809760 0.000000 0.000000 0.000000 -30.835260 5.892905 16.469867 29.336196 8.013693 -41.532438 -97.840798 -44.553609 105.564786 0.000000 0.000000 0.000000 2.777385 0.977279 -12.938137 4.821306 0.359480 -34.749719 2.156382 11.896202 45.624738 9.093678 2.070223 -80.356480 0.000000 0.000000 0.000000 -16.213040 -5.318777 1.365572 -47.876435 -16.385375 -3.789491 -53.708301 51.345790 -28.110792 0.000000 0.000000 0.000000 14.919447 -1.957878 -0.054034 45.515198 1.257837 -8.357000 -72.640401 -60.897925 51.631067 0.000000 0.000000 0.000000 
0.007258 0.817557 0.037482 -2.488387 -7.548778 7.867987 12.999614 0.182715 30.429868 -19.957264 -3.623595 -56.440356 116.371351 36.972777 116.062384 0.000000 0.000000 0.000000 -30.340391 5.986985 18.342349 29.338775 8.002658 -42.757862 -96.587783 -44.234848 105.531527 0.000000 0.000000 0.000000 2.640309 0.932079 -12.982879 4.166951 0.533789 -35.876233 1.826489 11.067404 46.674006 10.215715 1.998008 -80.727025 0.000000 0.000000 0.000000 -15.067255 -4.737392 1.183224 -51.362668 -17.846637 -3.455763 -63.392385 49.407861 -31.738875 0.000000 0.000000 0.000000 13.867387 -3.099214 -0.638270 47.661166 -3.301760 -10.334609 -120.541038 -52.699114 89.492627 0.000000 0.000000 0.000000 
0.007845 0.812432 0.037498 -3.035671 -6.368909 10.140873 11.876723 0.294653 31.746208 -18.000158 -3.594188 -61.280223 109.932263 34.803409 116.039536 0.000000 0.000000 0.000000 -29.947008 6.270030 20.725713 29.704307 8.550878 -45.975046 -92.056799 -41.064433 107.745079 0.000000 0.000000 0.000000 2.770475 1.048547 -14.701492 3.664107 0.744296 -37.890562 1.389209 9.660252 49.429151 9.574838 2.191992 -83.144076 0.000000 0.000000 0.000000 -14.452056 -4.405092 1.318211 -53.629038 -19.050642 -3.435349 -71.500436 45.919274 -32.622611 0.000000 0.000000 0.000000 11.955926 -4.350994 -1.309365 48.589198 -7.867477 -12.447703 -140.815969 -41.570289 102.023837 0.000000 0.000000 0.000000 
0.008345 0.805786 0.038181 -3.178067 -4.079572 11.688841 11.777962 -0.094368 31.876093 -17.171312 -4.096058 -63.364525 106.601546 33.782941 115.467614 0.000000 0.000000 0.000000 -29.096068 6.175657 23.731338 29.746634 8.395936 -48.022626 -86.954129 -39.764753 107.667190 0.000000 0.000000 0.000000 3.032745 1.093028 -16.006778 2.000038 0.853454 -38.038329 0.493234 8.109347 50.502293 9.540252 2.163469 -82.955677 0.000000 0.000000 0.000000 -12.744709 -3.683762 1.093028 -56.578780 -20.448425 -2.925605 -76.071506 43.448656 -32.404121 0.000000 0.000000 0.000000 10.798520 -5.828282 -2.038488 48.974383 -14.478561 -14.935768 -145.728257 -36.517842 101.861030 0.000000 0.000000 0.000000 
0.008467 0.799332 0.039765 -3.473084 -3.661050 13.476960 10.653398 0.195190 32.960432 -15.488522 -3.563904 -65.224564 100.981350 33.984190 113.648715 0.000000 0.000000 0.000000 -29.136417 6.473138 25.153393 30.917976 8.577644 -47.886089 -78.681837 -39.822601 103.371363 0.000000 0.000000 0.000000 3.781031 1.251074 -17.365850 0.792490 0.972263 -38.175665 0.125501 8.651912 51.080379 10.368677 1.873917 -82.228628 0.000000 0.000000 0.000000 -11.321106 -3.510889 1.004390 -57.793303 -20.096375 -3.325871 -77.566979 39.905582 -29.992423 0.000000 0.000000 0.000000 10.776721 -8.292374 -3.158164 47.860269 -20.640260 -16.793024 -147.400831 -32.759702 98.239848 0.000000 0.000000 0.000000 
0.008154 0.793428 0.041889 -3.372506 -2.337772 14.582727 10.266176 0.086165 33.349754 -13.997888 -3.324644 -66.172420 94.737935 33.563844 111.974267 0.000000 0.000000 0.000000 -28.603009 6.285828 26.478609 30.525550 8.036663 -47.793560 -72.400429 -39.731288 99.975158 0.000000 0.000000 0.000000 4.006871 1.350138 -19.064383 -0.729794 1.025843 -36.174330 -0.306599 8.195332 49.886790 10.910982 1.648258 -80.319800 0.000000 0.000000 0.000000 -10.686117 -2.704552 0.581161 -58.298751 -20.481416 -3.019598 -79.308325 39.144309 -30.416675 0.000000 0.000000 0.000000 11.641059 -10.090123 -4.054475 47.772803 -26.050591 -18.466171 -150.758955 -32.961778 104.673888 0.000000 0.000000 0.000000 
0.007347 0.787571 0.043566 -3.536786 -1.687234 16.044177 9.963229 0.087798 34.457328 -12.935223 -3.115307 -68.297556 89.580821 32.628387 111.421354 0.000000 0.000000 0.000000 -28.190017 6.343860 27.993254 30.121445 7.952776 -48.899624 -66.741829 -38.558753 98.466822 0.000000 0.000000 0.000000 3.716305 1.365703 -20.200326 -1.486850 1.107972 -36.748653 -0.324013 7.733108 50.206485 10.172521 1.681020 -80.370523 0.000000 0.000000 0.000000 -9.556934 -2.136179 0.416183 -59.576057 -20.140609 -3.296568 -82.294948 39.825754 -32.151336 0.000000 0.000000 0.000000 11.507792 -11.616812 -4.837318 48.794843 -30.406937 -20.402145 -154.060813 -33.508124 112.244099 0.000000 0.000000 0.000000 
0.006394 0.783347 0.044462 -3.700300 -1.246135 16.922467 9.204148 0.285612 34.801627 -11.764143 -2.655687 -68.563699 87.523699 33.301232 109.658702 0.000000 0.000000 0.000000 -27.132745 6.071491 28.850878 29.257826 7.436176 -48.380118 -61.491945 -37.901906 95.907927 0.000000 0.000000 0.000000 3.836247 1.428559 -21.147612 -3.188526 1.275560 -35.360871 0.028931 7.214091 49.150680 8.456433 1.808603 -78.825038 0.000000 0.000000 0.000000 -8.693759 -2.657560 0.694272 -60.859398 -20.019140 -3.126476 -84.479660 39.379932 -32.749473 0.000000 0.000000 0.000000 11.364614 -12.508154 -5.346257 51.587791 -32.776334 -22.331423 -158.376411 -34.687891 124.016857 0.000000 0.000000 0.000000 
0.005497 0.781369 0.044648 -3.903869 -1.680570 17.070836 9.529028 0.275839 35.390887 -12.332086 -2.807829 -68.967179 85.952951 33.222062 109.429909 0.000000 0.000000 0.000000 -27.182672 6.136989 28.320194 29.042592 7.343086 -47.712324 -60.294585 -37.564908 95.478244 0.000000 0.000000 0.000000 3.239315 1.405226 -21.352145 -3.380985 1.309609 -34.797834 0.323202 6.607469 48.403078 6.106285 2.149136 -78.609486 0.000000 0.000000 0.000000 -9.432508 -2.669196 0.755968 -60.464333 -19.635022 -3.143403 -88.825882 38.556795 -34.057068 0.000000 0.000000 0.000000 12.406004 -12.113905 -5.322752 52.394524 -32.143778 -22.535426 -163.704106 -35.442543 137.549631 0.000000 0.000000 0.000000 
0.004859 0.781442 0.044579 -4.194020 -2.368014 16.700694 10.108356 0.190314 34.867678 -13.084336 -2.864114 -67.594866 87.693619 35.722763 106.615727 0.000000 0.000000 0.000000 -27.326327 5.983937 26.125814 29.560916 6.989331 -44.510050 -59.870268 -39.045035 91.467380 0.000000 0.000000 0.000000 2.795628 1.292299 -19.980699 -2.417987 1.188243 -34.352287 -0.274773 7.016842 46.679431 6.804704 2.012512 -76.234982 0.000000 0.000000 0.000000 -9.650811 -3.362221 1.016541 -60.206600 -19.628227 -2.876057 -92.416330 36.251172 -33.966683 0.000000 0.000000 0.000000 13.720726 -11.748873 -5.284100 51.981402 -30.413449 -21.558891 -168.412852 -34.062195 148.024021 0.000000 0.000000 0.000000 
0.004196 0.781648 0.044466 -4.108074 -3.923549 15.986474 9.673408 0.598990 33.838448 -13.366558 -2.268463 -63.500737 88.466974 39.151845 102.620478 0.000000 0.000000 0.000000 -28.668241 6.202828 23.097652 30.987275 6.645108 -39.722482 -61.421122 -41.815692 86.345382 0.000000 0.000000 0.000000 2.736880 1.326683 -19.353801 -2.991281 1.256987 -31.647749 0.386914 6.890117 43.550362 5.845458 2.086032 -72.818971 0.000000 0.000000 0.000000 -9.991160 -4.287102 1.466689 -58.874066 -17.674716 -3.296602 -94.801212 33.654321 -32.889316 0.000000 0.000000 0.000000 14.077725 -10.507379 -4.895443 52.873620 -28.931250 -21.085837 -174.521760 -32.947490 163.926278 0.000000 0.000000 0.000000 
0.003541 0.781667 0.044726 -4.496547 -4.702666 15.790652 10.270463 0.484672 32.683943 -13.368860 -1.869007 -61.078048 89.744728 40.625158 101.447088 0.000000 0.000000 0.000000 -28.170641 6.085858 22.223699 31.484962 6.591345 -38.055493 -61.767756 -42.365329 85.093533 0.000000 0.000000 0.000000 2.433996 1.185212 -17.601521 -2.091389 1.138330 -32.606266 -0.452827 6.622938 42.986272 7.983740 1.840781 -74.049262 0.000000 0.000000 0.000000 -10.384488 -5.335562 2.060256 -56.639688 -16.168897 -3.973211 -98.192744 31.191487 -31.760763 0.000000 0.000000 0.000000 15.466012 -9.027898 -4.375596 52.979167 -25.550379 -19.897550 177.965169 -32.748959 -172.483677 0.000000 0.000000 0.000000 
0.002721 0.784579 0.044805 -5.160510 -6.267824 14.617938 11.576661 0.313606 31.348322 -14.666677 -1.686738 -55.567755 82.430077 47.515678 87.526045 0.000000 0.000000 0.000000 -29.587149 6.167703 19.140043 34.152533 5.898038 -31.681592 -49.485402 -42.747865 69.896927 0.000000 0.000000 0.000000 3.315727 1.298061 -17.033637 -0.777281 0.828548 -29.086921 -2.292163 9.257297 39.176207 12.290413 0.737849 -67.602252 0.000000 0.000000 0.000000 -7.596152 -4.704524 1.528719 -59.789156 -15.489672 -3.834407 -101.119430 29.296554 -32.257382 0.000000 0.000000 0.000000 12.871708 -8.341620 -3.728564 55.120833 -27.579743 -20.836928 178.388305 -33.098092 -174.170221 0.000000 0.000000 0.000000 
0.001785 0.784956 0.044874 -5.388717 -4.885187 13.819175 13.490001 -0.502755 30.670583 -16.640856 -2.732299 -54.660633 83.608530 47.853683 87.110547 0.000000 0.000000 0.000000 -28.789141 6.022065 21.441707 34.267976 6.799939 -35.939193 -56.733437 -43.460657 77.601003 0.000000 0.000000 0.000000 3.136522 1.045502 -15.121695 -1.112137 1.094723 -35.028980 -1.730083 6.228902 44.301848 11.259065 1.115849 -71.111736 0.000000 0.000000 0.000000 -9.167891 -3.110343 1.183605 -62.531467 -14.412325 -4.905983 -98.562268 33.034213 -32.287776 0.000000 0.000000 0.000000 10.240991 -7.205143 -3.172221 57.013993 -22.689239 -20.165747 173.570270 -32.935407 -157.887811 0.000000 0.000000 0.000000 
