HIERARCHY
ROOT Hips
{
	OFFSET -0.001795 -0.223333 0.028219
	CHANNELS 6 Xposition Yposition Zposition Zrotation Yrotation Xrotation 
	JOINT LeftUpLeg
	{
		OFFSET 0.069520 -0.091406 -0.006815
		CHANNELS 3 Zrotation Yrotation Xrotation
		JOINT LeftLeg
		{
			OFFSET 0.034277 -0.375199 -0.004496
			CHANNELS 3 Zrotation Yrotation Xrotation
			JOINT LeftFoot
			{
				OFFSET -0.013596 -0.397961 -0.043693
				CHANNELS 3 Zrotation Yrotation Xrotation
				JOINT LeftToe
				{
					OFFSET 0.026358 -0.055791 0.119288
					CHANNELS 3 Zrotation Yrotation Xrotation
					End Site
					{
						OFFSET 0.000000 0.000000 0.000000
					}
				}
			}
		}
	}
	JOINT RightUpLeg
	{
		OFFSET -0.067670 -0.090522 -0.004320
		CHANNELS 3 Zrotation Yrotation Xrotation
		JOINT RightLeg
		{
			OFFSET -0.038290 -0.382569 -0.008850
			CHANNELS 3 Zrotation Yrotation Xrotation
			JOINT RightFoot
			{
				OFFSET 0.015774 -0.398415 -0.042312
				CHANNELS 3 Zrotation Yrotation Xrotation
				JOINT RightToe
				{
					OFFSET -0.025372 -0.048144 0.123348
					CHANNELS 3 Zrotation Yrotation Xrotation
					End Site
					{
						OFFSET 0.000000 0.000000 0.000000
					}
				}
			}
		}
	}
	JOINT Spine
	{
		OFFSET -0.002533 0.108963 -0.026696
		CHANNELS 3 Zrotation Yrotation Xrotation
		JOINT Spine1
		{
			OFFSET 0.005487 0.135180 0.001092
			CHANNELS 3 Zrotation Yrotation Xrotation
			JOINT Spine2
			{
				OFFSET 0.001457 0.052922 0.025425
				CHANNELS 3 Zrotation Yrotation Xrotation
				JOINT Neck
				{
					OFFSET -0.002778 0.213870 -0.042857
					CHANNELS 3 Zrotation Yrotation Xrotation
					JOINT Head
					{
						OFFSET 0.005152 0.064970 0.051349
						CHANNELS 3 Zrotation Yrotation Xrotation
						End Site
						{
							OFFSET 0.000000 0.000000 0.000000
						}
					}
				}
				JOINT LeftShoulder
				{
					OFFSET 0.078845 0.121749 -0.034090
					CHANNELS 3 Zrotation Yrotation Xrotation
					JOINT LeftArm
					{
						OFFSET 0.090977 0.030469 -0.008868
						CHANNELS 3 Zrotation Yrotation Xrotation
						JOINT LeftForeArm
						{
							OFFSET 0.259612 -0.012772 -0.027456
							CHANNELS 3 Zrotation Yrotation Xrotation
							JOINT LeftHand
							{
								OFFSET 0.249234 0.008986 -0.001171
								CHANNELS 3 Zrotation Yrotation Xrotation
								End Site
								{
									OFFSET 0.000000 0.000000 0.000000
								}
							}
						}
					}
				}
				JOINT RightShoulder
				{
					OFFSET -0.081759 0.118833 -0.038615
					CHANNELS 3 Zrotation Yrotation Xrotation
					JOINT RightArm
					{
						OFFSET -0.096012 0.032551 -0.009143
						CHANNELS 3 Zrotation Yrotation Xrotation
						JOINT RightForeArm
						{
							OFFSET -0.253742 -0.013329 -0.021401
							CHANNELS 3 Zrotation Yrotation Xrotation
							JOINT RightHand
							{
								OFFSET -0.255298 0.007772 -0.005559
								CHANNELS 3 Zrotation Yrotation Xrotation
								End Site
								{
									OFFSET 0.000000 0.000000 0.000000
								}
							}
						}
					}
				}
			}
		}
	}
}
MOTION
Frames: 81
Frame Time: 0.050000
-0.002478 0.829973 0.018929 -3.322006 -10.007863 4.253073 15.602699 -0.040901 24.542606 -8.692851 0.700488 -33.353011 86.512484 46.187744 95.653171 0.000000 0.000000 0.000000 -22.641147 2.892507 9.566617 27.065774 3.699719 -24.390954 -70.767532 -56.506374 66.655342 0.000000 0.000000 0.000000 4.565898 1.133468 -12.112633 1.255222 0.258407 -27.912914 1.900895 8.956291 37.699993 14.124107 -0.870455 -62.843645 0.000000 0.000000 0.000000 -22.949625 5.615689 -4.622442 -44.943669 -7.854068 -6.365910 -39.645722 44.054264 -17.261306 0.000000 0.000000 0.000000 25.043910 -11.955629 -7.858433 43.626091 -11.423510 -11.606807 126.868649 -55.724412 -92.736189 0.000000 0.000000 0.000000 
-0.002277 0.829480 0.020998 -2.911842 -8.193534 6.638550 15.406969 -0.321004 24.865716 -8.834718 0.566805 -40.605754 81.876236 41.332949 99.499526 0.000000 0.000000 0.000000 -21.896180 3.163909 13.574220 23.474674 5.492085 -37.381059 -78.727879 -49.852777 85.468372 0.000000 0.000000 0.000000 2.778051 1.129259 -14.390269 3.264607 0.655412 -36.928007 1.802041 6.654024 48.662785 9.615653 1.694572 -79.568101 0.000000 0.000000 0.000000 -24.483311 5.468763 -3.756379 -45.382569 -10.461933 -7.204913 -56.384509 51.566652 -27.822197 0.000000 0.000000 0.000000 23.107343 -12.745388 -7.879253 44.857523 -11.277465 -13.226204 161.155896 -55.498642 -142.322347 0.000000 0.000000 0.000000 
-0.001624 0.826133 0.021783 -3.104785 -8.176071 8.325339 15.521699 -0.388885 25.287715 -9.094504 0.594667 -44.892771 80.873805 39.534920 101.770176 0.000000 0.000000 0.000000 -22.588493 3.668168 15.639176 23.261240 6.896830 -44.386436 -79.828375 -45.618436 93.245843 0.000000 0.000000 0.000000 2.752425 1.320934 -16.402589 3.593736 0.887768 -39.649049 2.471957 6.881157 53.155738 10.272772 2.094403 -85.420111 0.000000 0.000000 0.000000 -24.126179 7.629448 -4.989568 -46.880597 -11.563514 -7.636845 -78.553665 56.604869 -44.210162 0.000000 0.000000 0.000000 23.087759 -14.519581 -8.735969 45.969821 -12.932597 -14.717693 172.492219 -52.232698 -159.693948 0.000000 0.000000 0.000000 
-0.000633 0.824938 0.021894 -2.859327 -7.658465 9.552491 15.076552 -0.412294 24.678484 -8.180384 0.838793 -47.186107 79.751504 36.670950 105.797764 0.000000 0.000000 0.000000 -22.749536 3.992920 17.826159 22.392640 7.632415 -50.140160 -83.420995 -42.766359 100.250673 0.000000 0.000000 0.000000 1.876789 1.331891 -17.829155 3.992908 1.146106 -42.672910 2.561714 5.876315 57.265275 9.316869 2.441718 -89.130632 0.000000 0.000000 0.000000 -23.674949 8.490174 -5.090060 -48.750414 -11.191978 -8.670393 -96.522981 57.416002 -56.902428 0.000000 0.000000 0.000000 22.691582 -14.596837 -8.631952 48.227542 -14.150704 -16.442328 179.385225 -48.201708 -171.198949 0.000000 0.000000 0.000000 
0.000557 0.823363 0.021184 -2.775913 -7.701365 9.518424 15.659816 -0.526511 24.149275 -7.888984 0.940836 -47.230809 80.610321 31.904689 114.458433 0.000000 0.000000 0.000000 -23.486435 4.267509 18.412489 23.045056 8.117408 -51.307962 -91.946921 -42.206849 105.676550 0.000000 0.000000 0.000000 1.487658 1.362186 -18.606870 4.616103 1.117763 -42.795583 3.117249 6.457125 58.580586 10.196874 2.440041 -90.928336 0.000000 0.000000 0.000000 -23.671036 9.221403 -5.732417 -49.346049 -11.043725 -8.979257 -111.142627 56.251431 -68.210364 0.000000 0.000000 0.000000 23.283522 -15.089202 -8.748796 49.322724 -14.432270 -17.147803 -176.337091 -44.800226 -179.121313 0.000000 0.000000 0.000000 
0.002156 0.822629 0.019369 -2.569254 -6.345195 9.269891 16.472414 -0.869997 23.396222 -8.587953 0.479419 -47.913556 83.723024 28.332478 120.081928 0.000000 0.000000 0.000000 -23.713914 4.238017 19.435197 22.659886 7.926084 -53.100226 -99.621985 -39.508566 112.693144 0.000000 0.000000 0.000000 0.263390 1.089324 -17.949233 5.155489 1.406455 -46.421742 3.147223 5.229251 62.010582 8.060114 2.692550 -93.181992 0.000000 0.000000 0.000000 -22.748220 9.582010 -5.641421 -50.922525 -11.263307 -9.598860 -116.889688 56.989228 -73.323668 0.000000 0.000000 0.000000 22.298082 -15.043258 -8.464105 51.404035 -13.827091 -18.023671 -175.001904 -42.655564 179.135072 0.000000 0.000000 0.000000 
0.004222 0.820746 0.017005 -2.533360 -6.114204 8.867991 16.660815 -0.937970 23.877994 -8.339730 0.503517 -49.166062 83.407155 25.445515 124.315401 0.000000 0.000000 0.000000 -24.485136 4.571046 20.742225 23.720969 8.308704 -53.366949 -101.386740 -39.787625 113.149804 0.000000 0.000000 0.000000 0.048509 1.108333 -18.747743 4.549295 1.384775 -46.261741 4.119758 4.779172 62.177774 7.019846 2.751731 -93.457345 0.000000 0.000000 0.000000 -22.179077 8.612453 -4.915001 -51.696511 -11.452109 -9.591375 -118.706096 56.423076 -74.210625 0.000000 0.000000 0.000000 20.864231 -14.617598 -7.954122 53.120037 -13.750871 -18.480231 -173.740371 -40.129690 175.598854 0.000000 0.000000 0.000000 
0.006815 0.818630 0.015140 -2.274003 -5.167966 7.604667 17.454288 -1.212188 24.144969 -9.153841 -0.002447 -49.918387 86.841576 20.761656 130.559660 0.000000 0.000000 0.000000 -25.055150 4.609754 21.647856 23.734405 8.092968 -53.671519 -103.644805 -38.274646 115.899969 0.000000 0.000000 0.000000 -0.301903 0.987914 -18.410805 3.473116 1.433403 -47.461709 5.107130 3.311342 63.362516 3.220047 2.880024 -94.585627 0.000000 0.000000 0.000000 -22.465135 7.386931 -3.952278 -51.425908 -13.452958 -8.972126 -117.134812 58.440650 -74.727618 0.000000 0.000000 0.000000 20.581436 -13.629794 -7.359245 53.792809 -11.041192 -17.788802 -171.132304 -39.469497 168.785225 0.000000 0.000000 0.000000 
0.010207 0.817914 0.014913 -2.159435 -4.664839 5.817089 17.727026 -1.310074 24.870956 -9.800374 -0.376023 -49.266656 92.644290 18.869234 132.418200 0.000000 0.000000 0.000000 -25.956357 4.893451 23.188526 24.845915 8.366779 -53.442135 -101.390418 -38.876424 114.637770 0.000000 0.000000 0.000000 -0.074504 0.969243 -18.158097 2.950477 1.296492 -46.179323 5.757133 3.402980 62.351927 2.061562 2.704609 -93.883407 0.000000 0.000000 0.000000 -24.801521 4.180577 -2.262449 -47.674451 -15.727475 -7.769734 -108.721987 58.950333 -68.963456 0.000000 0.000000 0.000000 21.295869 -11.851073 -6.118283 51.721214 -7.065637 -15.783036 -168.454715 -39.512187 161.190737 0.000000 0.000000 0.000000 
0.014055 0.816708 0.016380 -1.884504 -4.314445 3.510141 18.257977 -1.409528 25.163517 -11.704775 -0.992383 -45.793479 102.484708 19.153415 131.405000 0.000000 0.000000 0.000000 -26.761217 5.047400 24.039253 25.662780 8.005475 -50.607086 -101.271731 -42.139061 110.922328 0.000000 0.000000 0.000000 0.272557 0.977848 -17.928112 2.778251 0.917194 -41.272160 5.905291 4.710913 56.733876 0.864650 2.590380 -89.116084 0.000000 0.000000 0.000000 -25.712813 2.326303 -2.012706 -45.278496 -15.319550 -6.602049 -91.174487 63.046370 -60.778298 0.000000 0.000000 0.000000 22.540531 -10.362446 -5.238846 48.623296 -4.885911 -13.394806 -156.770572 -40.848709 132.618639 0.000000 0.000000 0.000000 
0.017764 0.817394 0.018610 -1.732146 -5.164352 1.235567 18.159336 -1.219283 26.592633 -12.563653 -1.014917 -43.212130 106.727996 19.689777 131.191469 0.000000 0.000000 0.000000 -27.510799 5.335277 24.127065 26.123467 7.730417 -47.444232 -96.739622 -44.318858 106.062686 0.000000 0.000000 0.000000 1.001324 1.063710 -17.151773 3.865631 0.622210 -38.626531 5.023309 6.850970 53.382398 2.922050 2.386561 -85.853824 0.000000 0.000000 0.000000 -27.715606 0.629663 -1.769213 -41.986582 -14.329852 -5.972182 -56.571241 63.140055 -36.172199 0.000000 0.000000 0.000000 23.603162 -8.520647 -3.982288 45.818545 -2.266469 -11.527598 -136.257278 -43.314226 98.762459 0.000000 0.000000 0.000000 
0.020484 0.816706 0.020867 -1.581632 -5.756527 -0.605279 18.406709 -1.116668 26.907544 -13.750660 -1.049333 -39.615342 112.825808 20.292297 130.792097 0.000000 0.000000 0.000000 -27.461579 5.250397 23.587584 26.341902 7.157242 -43.838360 -94.395982 -48.391376 99.395248 0.000000 0.000000 0.000000 1.818276 1.206352 -17.096530 2.755972 0.382720 -33.651689 5.646390 8.466148 47.660614 3.806334 2.244227 -80.034674 0.000000 0.000000 0.000000 -28.070532 -0.895989 -1.648614 -42.047385 -12.913128 -5.388597 -28.702193 56.709323 -16.576569 0.000000 0.000000 0.000000 24.296406 -8.175311 -3.805387 44.681246 -0.077401 -9.848545 -97.132046 -44.148904 56.703006 0.000000 0.000000 0.000000 
0.021952 0.816414 0.023288 -1.669828 -6.051977 -1.981495 18.632212 -1.105000 27.814524 -14.169281 -1.036409 -38.031264 114.765266 20.727372 130.550359 0.000000 0.000000 0.000000 -27.154996 5.067754 23.180308 26.562331 6.435384 -40.111302 -90.013011 -50.301940 93.954737 0.000000 0.000000 0.000000 2.605145 1.289354 -16.499969 2.492215 0.375118 -33.123808 5.017920 8.936329 46.358776 2.214536 2.462670 -78.766528 0.000000 0.000000 0.000000 -29.854945 -1.635341 -1.493550 -40.257802 -11.872453 -5.337757 -14.367217 49.687156 -7.816890 0.000000 0.000000 0.000000 25.536768 -6.653968 -2.902624 44.012342 1.645649 -9.125272 -60.104778 -36.027712 25.676956 0.000000 0.000000 0.000000 
0.022672 0.816083 0.026519 -1.599251 -6.934275 -3.529908 18.383089 -0.833302 27.591319 -13.979669 -0.631306 -33.694188 120.010531 21.220265 130.554605 0.000000 0.000000 0.000000 -26.905811 4.785466 21.477953 26.991042 5.205890 -33.599030 -83.637334 -54.717062 82.459089 0.000000 0.000000 0.000000 3.499940 1.369805 -15.487930 2.037991 0.056716 -27.014461 3.879349 11.019327 38.549558 3.755910 2.353050 -69.672658 0.000000 0.000000 0.000000 -29.975202 -1.713804 -2.541543 -39.968853 -7.704274 -5.293523 -5.224618 40.126229 -3.297205 0.000000 0.000000 0.000000 26.354383 -7.141885 -3.341611 44.524700 0.530291 -8.582868 -34.575413 -15.031226 6.658280 0.000000 0.000000 0.000000 
0.023177 0.816700 0.030485 -1.798426 -7.028541 -4.288500 18.978554 -0.942077 28.108465 -14.720781 -0.679141 -32.413093 118.342032 21.381136 130.487747 0.000000 0.000000 0.000000 -26.306132 4.471340 20.794277 26.746490 4.532576 -30.858034 -84.444352 -54.862404 82.852104 0.000000 0.000000 0.000000 3.764988 1.411598 -15.409428 1.780311 0.043644 -25.821805 3.668014 10.485160 36.344911 0.964422 2.965001 -66.530399 0.000000 0.000000 0.000000 -31.418561 -1.356748 -2.903394 -39.092636 -5.115347 -5.695022 -0.278388 34.448368 -1.304645 0.000000 0.000000 0.000000 25.994440 -7.198772 -3.683382 44.286334 -1.507507 -8.832626 -21.371183 -3.835529 1.722545 0.000000 0.000000 0.000000 
0.023453 0.816870 0.034567 -1.948487 -7.433623 -4.347840 19.037182 -0.904700 28.726146 -14.714980 -0.649431 -32.557873 116.662810 21.240752 130.817369 0.000000 0.000000 0.000000 -26.464352 4.530846 20.505664 27.449266 4.306940 -29.032790 -79.696454 -55.737637 77.375335 0.000000 0.000000 0.000000 4.249913 1.599594 -16.321963 1.700968 -0.017972 -24.529006 3.156061 10.697007 35.381847 1.710386 2.813518 -65.128323 0.000000 0.000000 0.000000 -31.316547 -0.470868 -3.537318 -38.549223 -3.811508 -5.899138 1.498570 31.988854 -0.731017 0.000000 0.000000 0.000000 26.161137 -7.300379 -3.829950 43.665076 -3.192967 -9.134951 -11.629339 -1.525264 0.600389 0.000000 0.000000 0.000000 
0.022990 0.815667 0.038027 -1.817791 -7.231349 -3.536639 19.239934 -1.031213 29.173892 -15.439802 -0.926392 -34.542237 113.774349 21.133720 130.806199 0.000000 0.000000 0.000000 -26.332902 4.577719 20.894052 26.907689 4.501807 -30.492774 -78.661430 -55.575423 76.741624 0.000000 0.000000 0.000000 4.217013 1.761531 -17.974869 1.213648 0.151738 -25.563479 3.682450 10.379795 36.610588 -0.992485 3.426093 -64.907243 0.000000 0.000000 0.000000 -30.875581 -0.148862 -3.558863 -38.652271 -3.173730 -6.256717 3.713312 32.671796 -0.064965 0.000000 0.000000 0.000000 26.384522 -7.367598 -3.879613 42.670279 -4.497455 -9.461897 -7.798107 -5.651656 0.506476 0.000000 0.000000 0.000000 
0.021795 0.814343 0.040786 -1.978793 -6.871712 -2.522156 19.802803 -1.342703 30.922470 -16.131552 -1.482716 -39.260582 106.675206 20.972646 130.780595 0.000000 0.000000 0.000000 -26.117373 4.908483 23.179326 26.545394 5.632642 -36.018971 -77.748342 -53.204461 79.942952 0.000000 0.000000 0.000000 3.435129 1.768659 -19.540073 1.760314 0.342105 -31.080393 4.873772 8.526096 43.891831 -4.439086 3.701908 -73.316730 0.000000 0.000000 0.000000 -32.048230 -0.100229 -2.596319 -38.089761 -4.901797 -6.803819 5.088964 37.548009 0.677212 0.000000 0.000000 0.000000 26.114168 -6.510072 -3.327607 41.118756 -3.421498 -9.659081 -8.872634 -16.691451 1.271050 0.000000 0.000000 0.000000 
0.020218 0.811372 0.042887 -1.606601 -6.519498 -1.396609 19.888626 -1.480789 31.223076 -16.884786 -1.893957 -41.778411 103.633266 20.976621 130.569407 0.000000 0.000000 0.000000 -26.036762 5.163198 24.699625 25.408300 6.220633 -40.262294 -81.125416 -52.645756 83.720044 0.000000 0.000000 0.000000 2.656161 1.753415 -21.018473 0.990293 0.583239 -33.052631 6.093037 8.025083 46.322445 -7.834527 4.128702 -75.056608 0.000000 0.000000 0.000000 -31.343228 -0.033440 -2.354049 -38.386037 -5.863333 -6.922736 7.611600 39.721390 1.778565 0.000000 0.000000 0.000000 26.544100 -6.300658 -3.074179 39.943046 -2.460103 -9.455258 -9.864589 -25.905816 2.266652 0.000000 0.000000 0.000000 
0.019016 0.808764 0.044850 -1.440790 -6.262194 -0.421095 20.400742 -1.773529 32.801137 -18.049201 -2.629301 -45.922944 95.645347 21.266954 130.035158 0.000000 0.000000 0.000000 -26.197424 5.698899 27.373113 24.617881 7.359932 -46.800468 -87.416664 -48.875288 94.200500 0.000000 0.000000 0.000000 2.070160 1.757888 -22.391596 0.985416 0.902636 -38.687409 6.929060 6.186386 54.052030 -12.402254 3.937024 -83.185599 0.000000 0.000000 0.000000 -31.643233 -0.133821 -1.161060 -37.864068 -9.498536 -7.113177 7.420674 45.476543 2.521440 0.000000 0.000000 0.000000 25.294213 -5.209537 -2.172985 39.436571 0.218558 -9.561144 -11.872984 -37.595057 4.395734 0.000000 0.000000 0.000000 
0.018572 0.805950 0.046832 -1.304663 -6.071093 0.468414 20.353859 -1.852856 33.271126 -18.451214 -2.958526 -47.894194 93.685573 22.251324 128.694915 0.000000 0.000000 0.000000 -26.342871 6.054420 28.990700 23.921907 7.836974 -50.459863 -92.603281 -47.181899 99.855295 0.000000 0.000000 0.000000 2.031939 1.835110 -23.441000 1.157590 0.985523 -40.303832 6.864441 6.255137 56.215136 -11.454991 3.547813 -85.463439 0.000000 0.000000 0.000000 -30.569943 -0.125549 -0.993455 -37.627664 -11.169520 -6.947418 6.312947 47.662633 2.278184 0.000000 0.000000 0.000000 24.668847 -4.470329 -1.389221 37.207413 1.705745 -9.049294 -10.896653 -44.255442 4.934736 0.000000 0.000000 0.000000 
0.018543 0.803742 0.048405 -0.997200 -6.609052 1.118498 19.940716 -1.655609 33.878746 -19.003583 -3.113907 -49.111003 92.457212 23.884280 126.858681 0.000000 0.000000 0.000000 -26.939978 6.634794 29.946172 23.775939 8.440233 -52.958523 -97.271500 -45.805321 104.081478 0.000000 0.000000 0.000000 2.424015 2.042567 -24.287368 1.497803 1.054826 -41.626219 6.838578 6.845390 58.271647 -11.582963 3.275083 -87.802986 0.000000 0.000000 0.000000 -31.068531 -0.442231 -0.755195 -36.217912 -12.147725 -6.783166 5.058065 48.619754 1.723042 0.000000 0.000000 0.000000 23.694590 -3.003944 -0.198369 34.198541 2.743913 -8.469511 -6.494936 -48.833678 3.299916 0.000000 0.000000 0.000000 
0.018255 0.801562 0.049285 -0.785935 -6.632458 1.484051 19.366445 -1.473556 33.232863 -19.030684 -2.972940 -48.109154 97.565910 26.341244 124.349937 0.000000 0.000000 0.000000 -26.629252 6.615759 30.232126 23.054660 8.300192 -53.647518 -100.515036 -45.821901 105.634323 0.000000 0.000000 0.000000 3.000673 2.138106 -24.066610 2.007443 1.135107 -43.244803 6.317457 7.831010 59.765236 -9.016900 2.923016 -88.864571 0.000000 0.000000 0.000000 -30.897631 -1.055816 -0.545882 -35.662080 -13.272376 -6.544520 1.986132 49.271102 0.261242 0.000000 0.000000 0.000000 23.210041 -2.051805 0.758294 30.776969 4.217693 -7.681097 -1.352179 -51.577944 0.793579 0.000000 0.000000 0.000000 
0.017470 0.799274 0.049522 -0.830907 -6.861118 1.589666 19.103103 -1.353221 33.345216 -18.601102 -2.796668 -48.219177 100.064584 26.991277 123.996996 0.000000 0.000000 0.000000 -26.741030 6.681026 29.979140 23.661862 8.598929 -53.540159 -101.668998 -47.010893 104.739940 0.000000 0.000000 0.000000 3.498280 2.255973 -24.025201 2.709910 1.174838 -44.198017 6.124035 8.459704 60.613374 -7.097600 2.705206 -89.592308 0.000000 0.000000 0.000000 -30.972926 -1.665287 -0.254588 -35.295605 -13.927295 -6.374812 -0.250259 48.915077 -0.824546 0.000000 0.000000 0.000000 22.168173 -1.277608 1.359851 28.450278 4.955617 -7.134168 2.132330 -50.839086 -1.129657 0.000000 0.000000 0.000000 
0.016153 0.795824 0.050153 -0.702155 -6.192691 1.839109 19.122783 -1.508254 33.177152 -18.502858 -2.920628 -48.408226 101.737813 27.828040 122.937364 0.000000 0.000000 0.000000 -26.099354 6.341580 30.234910 23.255558 8.322466 -53.818496 -103.853708 -47.942133 104.846564 0.000000 0.000000 0.000000 2.922388 2.102846 -24.246683 2.907590 1.185307 -44.624873 5.920163 8.149567 60.333934 -5.507166 2.661431 -89.093807 0.000000 0.000000 0.000000 -30.645554 -2.948088 0.621710 -34.771606 -15.197449 -5.952990 -2.851366 49.360226 -2.038447 0.000000 0.000000 0.000000 20.930292 -0.625052 1.676394 27.259535 5.296800 -6.740528 4.668296 -50.038230 -2.470375 0.000000 0.000000 0.000000 
0.014815 0.791499 0.052181 -0.465569 -6.238963 1.594266 18.857119 -1.435324 33.979934 -18.261351 -2.978015 -49.666527 104.889625 26.989086 124.124712 0.000000 0.000000 0.000000 -26.095715 6.517703 31.154515 23.538640 8.680070 -54.847998 -105.544002 -49.109544 104.394744 0.000000 0.000000 0.000000 3.135086 2.261905 -25.207058 3.388212 1.045950 -43.387297 5.194191 8.295841 59.616412 -3.140712 2.582034 -89.159172 0.000000 0.000000 0.000000 -31.103278 -3.234636 0.764668 -33.335868 -16.198807 -5.465431 -6.493301 47.830769 -3.775745 0.000000 0.000000 0.000000 20.079332 -0.267492 1.742953 25.855728 6.005760 -6.219801 5.328450 -48.244168 -2.895685 0.000000 0.000000 0.000000 
0.013899 0.787713 0.055951 -0.453107 -6.232300 1.072942 18.959467 -1.483552 35.005878 -18.324811 -3.069806 -49.971525 106.747359 27.238842 124.039649 0.000000 0.000000 0.000000 -26.371753 6.731668 31.923795 24.210442 9.146999 -55.659563 -106.495013 -50.094713 103.840606 0.000000 0.000000 0.000000 3.171413 2.408148 -26.395511 4.339254 0.896723 -42.537585 4.242861 8.461770 59.602208 1.062970 2.389168 -88.644256 0.000000 0.000000 0.000000 -30.534460 -3.901937 1.331832 -32.107850 -16.923979 -5.234069 -8.864590 46.386410 -4.760620 0.000000 0.000000 0.000000 18.349578 0.165035 1.859588 25.603577 5.610110 -6.182970 3.312501 -45.204160 -1.844786 0.000000 0.000000 0.000000 
0.013426 0.783187 0.060412 -0.240882 -6.224349 0.623882 18.894197 -1.477242 35.938626 -18.775037 -3.236055 -49.877878 109.344436 28.833111 122.763540 0.000000 0.000000 0.000000 -26.740144 6.981711 32.610587 24.336538 9.190558 -55.636930 -104.896293 -51.761907 101.086566 0.000000 0.000000 0.000000 3.418884 2.628983 -27.740567 4.407659 0.570458 -39.209583 3.333934 8.863213 56.639915 4.628640 2.157392 -86.490277 0.000000 0.000000 0.000000 -30.958102 -4.657520 1.555779 -30.543182 -16.372383 -4.830432 -8.742263 43.367366 -4.617717 0.000000 0.000000 0.000000 18.262099 0.257193 1.811561 23.488187 4.609280 -5.631843 1.656848 -41.576605 -1.283899 0.000000 0.000000 0.000000 
0.013093 0.780048 0.064056 -0.196236 -6.123391 0.533474 18.827617 -1.502697 36.545895 -18.657340 -3.287697 -50.328161 110.391347 29.018372 122.658531 0.000000 0.000000 0.000000 -26.663474 6.907734 32.574437 24.276759 9.068002 -55.343719 -106.900064 -52.864920 100.953632 0.000000 0.000000 0.000000 3.817991 2.798375 -28.422086 4.198017 0.522081 -38.514711 2.929643 8.504309 56.181469 6.606073 1.989139 -85.772362 0.000000 0.000000 0.000000 -30.788576 -4.871845 1.879200 -29.005716 -17.017657 -4.599747 -6.176002 41.167486 -3.451071 0.000000 0.000000 0.000000 17.051523 0.025030 1.527856 21.651471 4.260621 -5.232838 -1.964440 -38.158374 -0.000540 0.000000 0.000000 0.000000 
0.013081 0.777408 0.066028 0.022512 -6.239467 0.600965 19.135894 -1.594090 37.353773 -19.722512 -3.732620 -51.266866 108.223454 29.067589 122.313328 0.000000 0.000000 0.000000 -27.389921 7.144110 32.165431 25.173857 9.333772 -54.727449 -107.279199 -54.055643 99.778133 0.000000 0.000000 0.000000 4.305411 2.992630 -28.863641 3.574514 0.515423 -37.821169 2.579246 8.558360 55.863365 8.837963 1.755965 -86.275666 0.000000 0.000000 0.000000 -30.748570 -5.586663 2.464219 -26.852743 -16.710605 -4.496739 -2.770593 39.021145 -2.131300 0.000000 0.000000 0.000000 16.802119 -0.291190 1.377091 19.356040 3.810020 -4.832656 -5.010163 -34.694124 0.897521 0.000000 0.000000 0.000000 
0.013142 0.776248 0.066594 0.148961 -6.282762 0.588846 19.080721 -1.586009 37.977316 -19.887358 -3.894128 -52.117385 106.602857 29.025021 122.122085 0.000000 0.000000 0.000000 -27.858180 7.258379 31.814542 25.332464 9.290130 -54.251277 -106.406519 -54.485717 98.771636 0.000000 0.000000 0.000000 4.845902 3.133580 -28.842488 2.462520 0.751220 -39.474629 2.890950 7.438451 57.729062 8.943238 1.864254 -88.074730 0.000000 0.000000 0.000000 -30.969530 -5.748731 3.255931 -25.199870 -17.444096 -4.617779 0.748234 39.231018 -0.797199 0.000000 0.000000 0.000000 15.064466 -0.220591 1.212125 18.465120 3.341839 -4.762348 -9.394685 -32.801438 2.151512 0.000000 0.000000 0.000000 
0.013222 0.776865 0.066699 0.099888 -6.572119 0.892503 18.844050 -1.463719 38.472861 -19.540485 -3.846906 -53.288084 103.365009 28.666374 122.128864 0.000000 0.000000 0.000000 -28.095713 7.262129 30.948550 25.533073 9.255896 -53.469407 -107.282978 -54.388390 99.320994 0.000000 0.000000 0.000000 5.267793 3.273637 -28.867272 1.959604 0.844584 -40.265131 2.779760 7.099363 58.772285 10.345167 1.846679 -89.800547 0.000000 0.000000 0.000000 -29.700225 -6.048973 3.871862 -23.866873 -17.976705 -4.672326 3.814374 41.136769 0.369187 0.000000 0.000000 0.000000 14.439865 -0.359587 1.097179 17.146731 3.974536 -4.512270 -14.038543 -31.473131 3.412165 0.000000 0.000000 0.000000 
0.013297 0.775718 0.066822 -0.027612 -6.785754 1.613162 18.508146 -1.357444 40.058230 -18.867012 -3.966844 -56.899141 95.418214 28.106800 121.574121 0.000000 0.000000 0.000000 -28.392307 7.637054 31.737705 25.276637 9.587874 -55.323406 -107.593459 -51.392845 102.876688 0.000000 0.000000 0.000000 5.270364 3.293692 -28.908760 2.382467 1.080408 -44.008812 2.453720 6.566118 63.641434 11.554083 2.188909 -95.546156 0.000000 0.000000 0.000000 -29.444745 -5.633883 4.446791 -22.151792 -20.174473 -5.036993 5.622904 45.531671 1.336507 0.000000 0.000000 0.000000 13.411244 -0.488947 1.086391 16.230033 4.993780 -4.595406 -18.599061 -32.149893 4.795594 0.000000 0.000000 0.000000 
0.013355 0.774897 0.067437 -0.108137 -6.780628 2.329500 18.093211 -1.267276 41.894796 -18.047723 -4.075665 -60.822168 85.429708 27.778200 120.201924 0.000000 0.000000 0.000000 -28.669916 8.185216 33.598603 24.682105 9.921336 -58.255914 -103.758470 -47.938356 104.903142 0.000000 0.000000 0.000000 5.182605 3.314570 -29.309527 3.011708 1.315140 -47.216552 1.795258 6.385897 68.192560 13.133205 2.613840 -100.567289 0.000000 0.000000 0.000000 -28.440975 -5.340922 4.904903 -20.538343 -21.762965 -5.447826 5.400578 49.102571 1.414412 0.000000 0.000000 0.000000 13.263819 -0.507871 1.260837 15.602684 6.712330 -4.777275 -23.065546 -35.058475 6.644073 0.000000 0.000000 0.000000 
0.013238 0.773611 0.068083 0.044041 -7.458564 2.606703 17.546433 -0.883813 43.080031 -17.752930 -3.971066 -62.650703 81.243263 27.808954 119.547360 0.000000 0.000000 0.000000 -29.254062 8.669669 33.669890 24.161260 9.961029 -58.841185 -103.780070 -45.978033 107.053014 0.000000 0.000000 0.000000 5.160035 3.335918 -28.937670 4.191085 1.496401 -49.160336 1.715986 7.339276 71.322848 15.111193 2.840178 -104.225685 0.000000 0.000000 0.000000 -28.532030 -5.268390 5.061526 -19.186967 -23.062039 -5.641873 3.799720 50.372697 0.628435 0.000000 0.000000 0.000000 13.116528 -1.466695 1.016577 15.263566 8.998418 -4.987583 -25.729630 -37.729023 8.219299 0.000000 0.000000 0.000000 
0.012971 0.772536 0.068558 0.091908 -7.178120 3.055163 17.503253 -0.966626 44.369696 -17.621898 -4.278371 -65.235637 74.016185 27.778315 117.721569 0.000000 0.000000 0.000000 -29.622193 9.105822 35.187190 22.647305 9.691911 -61.604038 -100.771022 -41.481586 111.056329 0.000000 0.000000 0.000000 4.578272 3.067101 -28.362501 3.738280 1.981861 -53.933450 1.993522 5.567581 76.287586 11.046742 3.193771 -107.356002 0.000000 0.000000 0.000000 -28.476668 -4.374246 5.506007 -19.168125 -24.799820 -6.378016 1.793727 50.936703 0.068912 0.000000 0.000000 0.000000 11.069196 -1.551354 0.783563 15.908701 10.248190 -5.475970 -26.042426 -39.580345 8.709118 0.000000 0.000000 0.000000 
0.012461 0.772197 0.068775 0.148787 -7.457928 3.192343 17.299418 -0.803765 44.834211 -17.479559 -4.214622 -65.963698 72.078983 27.787963 117.287126 0.000000 0.000000 0.000000 -29.839472 9.305597 35.217685 21.440313 9.232966 -61.986369 -100.009706 -40.442694 111.901046 0.000000 0.000000 0.000000 4.522174 2.959912 -27.484919 4.151770 2.073165 -54.090084 1.930402 6.248665 76.048102 12.636820 3.357831 -108.380284 0.000000 0.000000 0.000000 -27.772828 -3.825604 5.007776 -19.793627 -24.209064 -6.474200 1.117194 49.468655 -0.180141 0.000000 0.000000 0.000000 11.494851 -2.208068 0.561465 15.168218 10.239574 -5.314796 -24.685781 -40.128313 8.275976 0.000000 0.000000 0.000000 
0.011416 0.772073 0.068588 0.139738 -7.632124 3.869830 16.966924 -0.639816 44.750965 -16.963317 -3.965339 -66.927012 69.898990 27.671966 116.945826 0.000000 0.000000 0.000000 -29.749063 9.366625 35.219069 19.754447 8.715600 -63.561462 -98.151033 -37.252909 114.930674 0.000000 0.000000 0.000000 4.096085 2.793280 -26.947299 3.980912 2.216777 -54.915504 2.076495 5.628196 76.221053 10.824970 3.429011 -108.633868 0.000000 0.000000 0.000000 -27.691729 -2.762437 4.559253 -20.595035 -24.501991 -6.639891 0.539097 49.262076 -0.225842 0.000000 0.000000 0.000000 10.274962 -2.373094 0.269017 15.302515 10.010540 -5.288747 -23.167891 -39.935968 7.593941 0.000000 0.000000 0.000000 
0.009822 0.773419 0.068250 0.094217 -7.871984 4.490784 17.013026 -0.602627 44.167582 -17.001037 -3.860206 -66.941417 68.517713 27.585775 116.825222 0.000000 0.000000 0.000000 -29.285103 9.169001 34.705454 18.296443 8.127540 -63.996207 -96.309737 -36.268277 115.380133 0.000000 0.000000 0.000000 4.460932 2.874181 -26.814617 3.207833 2.098223 -53.742589 2.268668 5.864532 75.117730 10.725788 3.432811 -109.077187 0.000000 0.000000 0.000000 -27.737602 -2.065414 4.019923 -19.891207 -24.163233 -6.466545 -0.698864 48.739663 -0.968897 0.000000 0.000000 0.000000 11.075614 -2.982978 0.037420 13.690836 9.735322 -4.816386 -21.186374 -39.846136 6.557513 0.000000 0.000000 0.000000 
0.007906 0.777412 0.067863 -0.089230 -8.327020 4.779193 16.866497 -0.436215 42.989587 -16.497644 -3.300104 -65.590509 69.666799 27.466983 117.723699 0.000000 0.000000 0.000000 -28.593760 8.712259 33.285844 17.594005 7.689165 -62.411339 -96.170352 -37.148987 114.010297 0.000000 0.000000 0.000000 4.933738 2.953590 -26.343273 2.844213 1.791591 -50.188785 2.617409 6.630921 70.494499 13.193791 3.312476 -106.526797 0.000000 0.000000 0.000000 -27.703999 -2.079646 3.390016 -19.485020 -22.160099 -5.822172 -1.225233 47.340806 -1.532206 0.000000 0.000000 0.000000 11.714370 -3.773960 -0.409632 12.689733 7.512246 -4.274550 -22.038191 -37.358455 6.362834 0.000000 0.000000 0.000000 
0.005957 0.781837 0.067433 -0.278088 -8.799812 4.516200 17.194123 -0.441153 41.315828 -16.672311 -2.953741 -62.504781 74.349064 27.376248 119.493958 0.000000 0.000000 0.000000 -28.716179 8.327312 30.864518 17.906958 7.505825 -59.286569 -96.277772 -38.604463 112.026566 0.000000 0.000000 0.000000 5.202502 2.927400 -25.431284 3.015022 1.372488 -45.521965 2.573951 7.720890 64.708431 12.099220 3.039941 -104.022867 0.000000 0.000000 0.000000 -27.267655 -1.945385 2.505296 -18.962139 -20.127340 -5.085340 -1.149585 46.496546 -1.836186 0.000000 0.000000 0.000000 12.699105 -4.126312 -0.673860 10.975768 5.794659 -3.506749 -22.578656 -35.862157 6.154333 0.000000 0.000000 0.000000 
0.004292 0.786441 0.066940 -0.365184 -8.857597 4.475618 17.408204 -0.531311 38.798093 -16.631117 -2.560261 -58.737704 80.662294 27.148077 121.448119 0.000000 0.000000 0.000000 -28.352940 7.555762 28.018314 18.121433 7.018525 -55.415342 -98.495013 -40.657902 110.215354 0.000000 0.000000 0.000000 5.321046 2.802832 -24.389510 1.971564 1.188544 -42.864977 3.705829 7.667715 60.797852 11.929715 2.734503 -101.498090 0.000000 0.000000 0.000000 -26.981578 -1.971421 2.075341 -18.097572 -18.511278 -4.574325 -1.128656 45.534561 -2.013260 0.000000 0.000000 0.000000 13.008713 -5.482180 -1.504544 9.686431 3.971531 -2.963931 -24.254254 -33.558602 6.198710 0.000000 0.000000 0.000000 
0.003204 0.790224 0.066393 -0.484105 -8.704047 4.645540 17.565893 -0.635552 37.491804 -16.449257 -2.371271 -57.148510 81.528037 26.997915 121.896417 0.000000 0.000000 0.000000 -28.279491 7.311635 27.169890 18.370328 6.940656 -54.516631 -98.023710 -39.798109 111.097433 0.000000 0.000000 0.000000 5.251256 2.674656 -23.737007 1.409189 1.174256 -41.757871 4.166957 7.500674 58.900943 10.523924 2.838572 -100.207210 0.000000 0.000000 0.000000 -25.203209 -1.499825 1.593823 -18.498392 -17.932628 -4.413963 -0.740444 46.549582 -1.900295 0.000000 0.000000 0.000000 12.020983 -5.962023 -1.895287 9.594828 2.063520 -2.782221 -26.607899 -33.061359 6.814715 0.000000 0.000000 0.000000 
0.002558 0.793017 0.065475 -0.359785 -8.415903 3.981149 18.000830 -0.817719 35.971552 -17.046988 -2.416193 -53.867812 86.484164 26.990842 122.717190 0.000000 0.000000 0.000000 -28.467755 6.922103 25.613056 19.109920 6.727053 -51.822759 -100.174521 -41.426443 110.085722 0.000000 0.000000 0.000000 5.160713 2.442553 -22.319997 1.553931 1.025024 -39.783908 3.900518 8.466629 56.254627 12.113007 2.708708 -97.996505 0.000000 0.000000 0.000000 -23.108109 -1.074794 0.733410 -18.439725 -18.018163 -3.967174 0.368436 46.480751 -1.602925 0.000000 0.000000 0.000000 12.446192 -6.465645 -2.146800 8.477129 1.485437 -2.377705 -27.727203 -32.465825 7.082712 0.000000 0.000000 0.000000 
0.002184 0.795602 0.064305 -0.265913 -8.037891 3.190690 18.637700 -1.062537 35.534986 -17.978623 -2.694910 -51.987507 87.238912 27.160531 122.477124 0.000000 0.000000 0.000000 -28.724021 6.848572 25.538522 19.535822 6.767708 -51.505369 -100.125305 -41.564786 110.037203 0.000000 0.000000 0.000000 4.802100 2.246928 -21.454108 1.683532 1.041458 -40.346160 4.086674 8.030761 57.479156 13.822340 2.871398 -99.121989 0.000000 0.000000 0.000000 -22.784216 -1.542696 1.129415 -17.515586 -18.307078 -3.949491 -1.613634 47.068940 -2.569281 0.000000 0.000000 0.000000 12.961844 -5.900064 -1.816056 7.742562 2.189633 -2.240899 -29.123739 -34.773308 7.916470 0.000000 0.000000 0.000000 
0.001838 0.797315 0.062814 -0.260835 -7.652543 2.375910 19.119944 -1.245312 34.658865 -18.471030 -2.726252 -49.491081 90.864101 27.262334 122.769769 0.000000 0.000000 0.000000 -28.565649 6.499377 24.824129 19.570378 6.454994 -49.997217 -103.328325 -42.544103 110.325050 0.000000 0.000000 0.000000 4.721819 2.095937 -20.477360 2.055267 1.072631 -41.258847 3.708502 8.308898 58.651725 16.479802 2.980270 -99.792324 0.000000 0.000000 0.000000 -21.673291 -2.019247 1.366368 -17.243131 -19.294835 -3.927139 -0.444682 48.336332 -2.149849 0.000000 0.000000 0.000000 13.908739 -5.252497 -1.351517 6.534490 2.606466 -1.986167 -28.208989 -35.947664 7.765945 0.000000 0.000000 0.000000 
0.001341 0.798322 0.061451 -0.447633 -7.502084 1.557622 19.432640 -1.326771 34.019776 -18.396786 -2.544579 -47.256392 95.120560 27.327249 123.269814 0.000000 0.000000 0.000000 -28.772818 6.294924 23.988737 20.331836 6.298560 -47.730135 -105.585726 -44.615024 109.032128 0.000000 0.000000 0.000000 4.407702 1.916085 -19.432997 3.077262 0.907861 -40.348723 3.140280 8.875395 57.537107 19.926468 3.027650 -99.567393 0.000000 0.000000 0.000000 -21.046433 -2.541995 1.417734 -16.486190 -19.282415 -3.674767 -0.792593 46.949929 -2.389390 0.000000 0.000000 0.000000 15.167574 -4.218745 -0.728389 5.766468 2.844791 -1.778983 -27.198352 -35.651498 7.373737 0.000000 0.000000 0.000000 
0.000777 0.797350 0.060206 -0.718701 -7.575679 1.686529 19.854201 -1.424608 33.746440 -18.592258 -2.568598 -47.099005 96.637732 27.237796 123.562702 0.000000 0.000000 0.000000 -29.147759 6.477706 24.198548 21.034009 6.659453 -48.272678 -105.816727 -44.073396 109.753706 0.000000 0.000000 0.000000 4.310705 1.936427 -19.688299 4.353400 1.010425 -42.607545 2.606707 9.082426 60.478437 21.586657 3.342367 -101.632632 0.000000 0.000000 0.000000 -21.153676 -2.837704 1.810542 -16.060799 -19.941931 -3.901340 0.198618 48.005978 -1.999449 0.000000 0.000000 0.000000 16.109452 -3.117002 0.064995 5.685170 3.572603 -1.876342 -27.134566 -36.798180 7.497077 0.000000 0.000000 0.000000 
0.000265 0.797055 0.059359 -0.931814 -7.452005 1.595050 20.313164 -1.586634 33.998860 -18.631785 -2.777380 -48.750919 97.695574 24.695546 126.448316 0.000000 0.000000 0.000000 -29.415776 6.625799 24.675096 21.866796 6.873455 -48.036806 -105.215500 -44.951268 108.588598 0.000000 0.000000 0.000000 4.315502 1.923264 -19.607922 5.190423 1.069578 -43.792084 2.424536 9.505478 61.631931 21.410901 3.385030 -101.876031 0.000000 0.000000 0.000000 -20.652911 -3.167410 1.935409 -16.629908 -20.472827 -4.001653 1.171817 48.628564 -1.548724 0.000000 0.000000 0.000000 16.506918 -2.335055 0.661102 6.702817 2.902819 -2.159070 -27.403717 -36.993513 7.769573 0.000000 0.000000 0.000000 
-0.000077 0.797043 0.058661 -1.248190 -7.398554 1.500909 20.727367 -1.731705 34.434548 -18.581054 -2.969343 -50.560494 98.468134 22.777823 128.492024 0.000000 0.000000 0.000000 -29.609338 6.733690 25.001866 22.941305 7.132039 -47.525522 -104.369477 -46.622869 106.374772 0.000000 0.000000 0.000000 4.491443 2.002169 -20.008884 6.157945 0.996355 -43.852140 1.961009 10.207273 62.234237 23.072691 3.300377 -101.975983 0.000000 0.000000 0.000000 -20.654268 -3.635487 2.079855 -16.657029 -20.476734 -4.034802 0.456524 47.644309 -1.896071 0.000000 0.000000 0.000000 17.462032 -1.886062 1.163624 6.784285 2.499927 -2.222914 -26.861836 -36.845938 7.587778 0.000000 0.000000 0.000000 
-0.000182 0.796834 0.058037 -1.325713 -6.439216 1.321845 21.582418 -2.174635 33.992650 -19.286298 -3.525550 -51.514158 100.405868 20.649034 130.291273 0.000000 0.000000 0.000000 -30.040862 6.805681 25.920417 23.369782 7.129886 -47.949392 -102.098946 -46.237242 105.985966 0.000000 0.000000 0.000000 4.072810 1.861563 -19.874910 7.095455 1.157968 -46.151427 1.313919 9.750411 65.119277 24.199823 3.455898 -103.094274 0.000000 0.000000 0.000000 -20.952753 -3.394661 2.167607 -17.140312 -21.779906 -4.380982 1.136051 47.321964 -1.435595 0.000000 0.000000 0.000000 17.650856 -1.315566 1.689671 7.316331 2.572251 -2.489466 -27.585022 -37.923884 8.058624 0.000000 0.000000 0.000000 
-0.000004 0.796460 0.057552 -1.202426 -5.853917 1.185462 21.459547 -2.286373 34.210313 -19.206617 -3.795378 -52.872431 102.001876 20.249943 130.379343 0.000000 0.000000 0.000000 -30.701758 7.053328 26.849418 24.203666 7.290464 -48.070504 -99.405566 -46.493470 104.530628 0.000000 0.000000 0.000000 4.218915 1.863784 -19.971178 6.221589 1.104680 -45.728674 2.010000 9.347546 65.006625 23.049291 3.357625 -103.485952 0.000000 0.000000 0.000000 -21.820478 -4.191178 2.559885 -16.934602 -21.656196 -4.328688 0.457326 46.649342 -1.732920 0.000000 0.000000 0.000000 17.255398 -1.092948 1.811097 8.122486 1.326796 -2.689728 -26.888652 -38.329960 8.001866 0.000000 0.000000 0.000000 
0.000388 0.796435 0.056179 -1.184568 -5.422446 1.303867 21.187067 -2.273179 33.571827 -19.420076 -3.987555 -53.180436 107.763785 21.523891 128.857049 0.000000 0.000000 0.000000 -31.144776 6.993135 26.450102 25.065409 7.310326 -47.282068 -99.497329 -46.397734 104.811592 0.000000 0.000000 0.000000 4.389682 1.817355 -19.532651 6.066996 1.095241 -45.706577 2.314039 9.593513 64.812517 20.773655 3.057107 -102.954783 0.000000 0.000000 0.000000 -22.601854 -4.856145 2.663138 -16.733935 -21.228443 -4.158713 -1.362045 46.192998 -2.624978 0.000000 0.000000 0.000000 16.859401 -1.112076 1.821520 9.059122 0.094728 -2.926455 -26.772624 -38.719487 8.208320 0.000000 0.000000 0.000000 
0.000935 0.798390 0.053247 -0.985524 -4.531873 1.495157 21.043561 -2.342899 31.980958 -19.921917 -4.214548 -52.099635 111.905712 23.120365 127.146435 0.000000 0.000000 0.000000 -31.304139 6.681290 25.873165 25.288828 7.083225 -46.871186 -99.660002 -46.025427 105.562639 0.000000 0.000000 0.000000 3.938535 1.568751 -18.346618 5.546212 1.176835 -46.564250 2.773352 8.588550 65.088745 15.231378 2.882153 -103.142067 0.000000 0.000000 0.000000 -23.543867 -5.623012 3.113384 -17.485029 -21.041949 -4.172640 -2.417975 46.459820 -3.018944 0.000000 0.000000 0.000000 15.573403 -0.584349 1.855568 10.751882 -1.184368 -3.377398 -26.971700 -39.906231 8.705334 0.000000 0.000000 0.000000 
0.001415 0.801840 0.048825 -1.016071 -4.386489 1.624592 20.670221 -2.202144 30.807732 -19.731996 -4.091309 -51.556317 114.849862 24.001215 126.437674 0.000000 0.000000 0.000000 -31.256611 6.327306 24.439382 25.556350 6.919208 -45.826996 -101.506717 -46.425438 106.028620 0.000000 0.000000 0.000000 4.049696 1.444412 -17.014506 5.058226 1.145110 -45.980804 3.187828 8.730557 63.393985 11.907253 2.613841 -102.031656 0.000000 0.000000 0.000000 -23.727648 -5.967625 2.988484 -18.909853 -20.216210 -4.062907 -2.506459 46.573476 -3.029343 0.000000 0.000000 0.000000 15.305968 -0.251763 1.916997 11.871572 -2.721370 -3.610363 -26.978296 -41.492926 9.200921 0.000000 0.000000 0.000000 
0.001645 0.806802 0.043982 -1.022489 -3.865915 1.969566 20.427830 -2.122032 28.694274 -19.459553 -3.944036 -50.435873 117.633869 24.066339 126.338981 0.000000 0.000000 0.000000 -30.419814 5.564212 22.380196 24.802746 6.381267 -44.942825 -106.010667 -45.794600 108.958311 0.000000 0.000000 0.000000 3.840893 1.244992 -15.473665 4.722390 1.154753 -46.225494 3.510696 8.475574 62.448196 8.811620 2.442285 -101.564505 0.000000 0.000000 0.000000 -23.866623 -6.299433 2.955996 -19.787651 -19.787864 -3.972365 -4.477982 47.512394 -3.977949 0.000000 0.000000 0.000000 15.288638 -0.013381 1.997118 13.235829 -3.702176 -3.974399 -29.259977 -44.195335 10.969088 0.000000 0.000000 0.000000 
0.001675 0.811260 0.040301 -1.193502 -4.138467 2.660990 19.930077 -1.849319 26.656402 -18.618233 -3.414701 -49.222425 120.030548 23.951608 126.619477 0.000000 0.000000 0.000000 -29.990352 5.136761 20.207897 24.503396 6.119928 -43.858945 -105.682290 -45.034354 109.585261 0.000000 0.000000 0.000000 4.075538 1.200207 -14.679129 5.049756 1.097016 -45.325589 3.249395 9.349357 60.331676 6.949260 2.189205 -98.716257 0.000000 0.000000 0.000000 -23.751618 -6.420754 2.588673 -21.586085 -17.950703 -3.924411 -3.884673 46.661158 -3.644225 0.000000 0.000000 0.000000 15.429252 -0.013640 1.959413 14.551701 -3.845015 -4.227092 -31.167006 -45.219457 12.365404 0.000000 0.000000 0.000000 
0.001586 0.814117 0.038707 -1.306083 -4.278971 3.226049 19.331115 -1.641153 25.433718 -18.458121 -3.133184 -47.720104 121.513204 27.038351 124.403427 0.000000 0.000000 0.000000 -29.568023 4.861987 18.951711 24.078946 5.763044 -42.621024 -103.388822 -44.145059 109.517637 0.000000 0.000000 0.000000 4.280422 1.162251 -14.069259 4.524578 0.962006 -43.289042 3.301400 9.899404 56.769839 6.397500 2.098356 -95.158151 0.000000 0.000000 0.000000 -22.947913 -6.800684 2.392803 -23.684480 -15.909986 -3.884855 -5.619778 46.172373 -4.367267 0.000000 0.000000 0.000000 16.405966 0.311817 2.101479 15.553423 -4.134240 -4.299747 -32.162524 -46.722331 13.431707 0.000000 0.000000 0.000000 
0.001485 0.817120 0.038549 -1.647079 -5.140953 3.867308 18.776366 -1.378468 24.926279 -18.034582 -2.755108 -47.467980 122.079975 28.747587 123.408422 0.000000 0.000000 0.000000 -29.607432 4.744929 17.095584 24.973865 5.969905 -41.437573 -100.559814 -42.711810 109.768062 0.000000 0.000000 0.000000 4.601588 1.198492 -13.891421 4.726699 0.754679 -40.608386 3.066736 10.970303 53.122857 5.078889 2.074277 -91.713860 0.000000 0.000000 0.000000 -23.103924 -7.157393 2.172908 -24.725077 -13.153262 -3.866818 -6.491745 46.009615 -4.820496 0.000000 0.000000 0.000000 17.323211 -0.067095 1.871056 16.193070 -3.883491 -4.263638 -31.891779 -46.056502 13.286402 0.000000 0.000000 0.000000 
0.001362 0.816704 0.038977 -1.759555 -5.788425 4.194813 18.733676 -1.287706 25.194419 -18.670025 -2.710600 -46.681034 120.668697 31.562272 121.236147 0.000000 0.000000 0.000000 -29.660410 4.682360 15.896078 24.970803 5.750368 -39.771907 -96.240204 -41.424362 109.289863 0.000000 0.000000 0.000000 4.721404 1.194236 -13.571274 4.884443 0.527044 -38.139607 2.425368 12.012196 49.344008 4.971099 2.083492 -87.148103 0.000000 0.000000 0.000000 -22.228310 -7.014491 1.743137 -26.004245 -10.944765 -3.920705 -7.067673 45.874646 -5.133624 0.000000 0.000000 0.000000 18.837483 -0.506280 1.674872 16.918910 -2.726016 -4.208020 -30.210028 -45.368586 12.502204 0.000000 0.000000 0.000000 
0.001395 0.817844 0.039631 -2.140191 -6.906681 4.395291 18.155823 -1.033531 26.666869 -18.027502 -2.458495 -48.625680 118.866722 32.496079 120.514758 0.000000 0.000000 0.000000 -29.885815 4.818661 15.096084 26.010225 6.126776 -39.032683 -91.847982 -40.189623 108.701439 0.000000 0.000000 0.000000 5.199325 1.305356 -13.825486 5.460642 0.263937 -35.775874 1.613551 13.289658 46.774194 5.990612 2.051995 -84.450009 0.000000 0.000000 0.000000 -21.545538 -7.013883 1.518324 -27.488390 -8.385351 -4.235316 -7.535041 46.004068 -5.404609 0.000000 0.000000 0.000000 19.345467 -0.734961 1.507231 19.038228 -1.363100 -4.476330 -28.672292 -45.028958 12.008653 0.000000 0.000000 0.000000 
0.001521 0.817580 0.039863 -2.303447 -7.965818 4.316620 18.135237 -0.864648 27.591432 -18.797169 -2.438890 -48.358438 117.524668 34.815740 118.615539 0.000000 0.000000 0.000000 -30.191914 4.817239 13.697978 26.778972 6.019960 -36.648831 -88.961987 -39.927512 107.472297 0.000000 0.000000 0.000000 5.423874 1.302646 -13.298164 5.776262 0.021421 -33.696227 0.924255 14.458791 43.722669 7.672297 1.919401 -80.722228 0.000000 0.000000 0.000000 -20.518684 -6.818088 1.202095 -29.343556 -7.093103 -4.413058 -7.759756 46.965873 -5.657223 0.000000 0.000000 0.000000 19.742135 -1.021776 1.295493 20.961282 -0.105070 -4.607925 -25.662213 -43.165867 10.443113 0.000000 0.000000 0.000000 
0.001832 0.817438 0.039502 -2.285915 -8.820196 4.236446 17.410200 -0.554362 27.624778 -19.102111 -2.273266 -47.771866 120.144371 37.739633 116.899676 0.000000 0.000000 0.000000 -29.769154 4.565120 12.084996 26.955163 5.647689 -34.053855 -92.044282 -42.810879 104.836984 0.000000 0.000000 0.000000 5.237440 1.275888 -13.005492 5.829832 -0.162703 -32.003975 0.559538 14.624008 41.780512 7.355186 1.958109 -77.799691 0.000000 0.000000 0.000000 -20.857800 -6.627585 1.106925 -30.430561 -6.797227 -4.484289 -7.906498 48.485893 -5.857461 0.000000 0.000000 0.000000 20.216117 -0.826446 1.226856 22.613184 1.816570 -4.578104 -23.723185 -42.355487 9.498768 0.000000 0.000000 0.000000 
0.002633 0.817730 0.038926 -2.322956 -9.412993 4.316646 16.874318 -0.343717 27.589768 -19.281461 -2.162089 -47.524889 121.407371 39.760013 115.640898 0.000000 0.000000 0.000000 -30.087003 4.601356 11.351666 27.329167 5.648414 -33.208995 -91.011610 -43.040556 103.901161 0.000000 0.000000 0.000000 4.711434 1.219961 -12.850426 6.153223 -0.297089 -31.178348 0.502288 14.539033 40.800699 8.160922 1.899275 -76.987104 0.000000 0.000000 0.000000 -21.728340 -6.698314 1.161030 -31.487199 -7.426828 -4.423003 -11.056822 49.874103 -7.432572 0.000000 0.000000 0.000000 20.827478 -0.349539 1.371035 25.071452 3.742329 -4.673028 -22.137010 -43.302878 9.174814 0.000000 0.000000 0.000000 
0.003856 0.818263 0.038438 -2.294338 -9.537283 5.148632 15.713740 -0.093545 28.008005 -19.279314 -2.203531 -48.736186 118.265532 44.110889 110.802898 0.000000 0.000000 0.000000 -30.140226 4.712741 11.442166 27.303197 5.884270 -34.142494 -87.459520 -44.040797 100.612505 0.000000 0.000000 0.000000 3.988610 1.250015 -13.807711 5.841920 -0.238402 -31.181701 0.776561 13.636888 41.623056 8.057175 1.968796 -77.841372 0.000000 0.000000 0.000000 -22.039757 -6.271345 1.243008 -33.375244 -9.214380 -4.448392 -16.721269 52.026857 -10.348975 0.000000 0.000000 0.000000 21.062254 -0.056265 1.346944 28.279981 4.630009 -5.053810 -22.349671 -43.204659 9.403158 0.000000 0.000000 0.000000 
0.005004 0.820235 0.038181 -2.531412 -9.826347 5.975277 15.034132 0.082797 28.091923 -18.831684 -2.087259 -50.284189 116.534572 44.985303 109.384952 0.000000 0.000000 0.000000 -29.674593 4.927892 12.473012 27.293495 6.495118 -36.350202 -81.948067 -45.425182 95.149125 0.000000 0.000000 0.000000 3.887757 1.383447 -15.032613 6.283664 -0.268610 -31.508086 0.827741 13.618558 43.410727 9.824284 1.824690 -79.640894 0.000000 0.000000 0.000000 -22.456599 -6.185064 1.347530 -35.442404 -11.583043 -4.348009 -27.610022 53.864631 -16.249712 0.000000 0.000000 0.000000 21.345390 0.172729 1.540009 32.456761 4.731599 -5.854592 -27.648990 -46.639504 13.171857 0.000000 0.000000 0.000000 
0.005959 0.820874 0.037866 -2.532358 -9.365241 6.924689 14.147135 0.167803 27.429216 -18.718113 -2.137992 -50.661625 114.652909 48.165667 105.292661 0.000000 0.000000 0.000000 -29.169555 4.812306 12.573995 26.727699 6.411648 -37.064896 -79.176133 -46.394476 91.819109 0.000000 0.000000 0.000000 3.242384 1.331471 -15.421637 6.696941 -0.163852 -32.861539 0.816207 13.349937 45.497338 10.787026 1.780152 -81.543266 0.000000 0.000000 0.000000 -21.843300 -6.168539 1.484699 -39.320813 -14.121777 -4.278659 -41.064338 53.852537 -23.135068 0.000000 0.000000 0.000000 21.862340 -0.200064 1.487058 36.446534 5.007319 -6.640879 -39.933954 -53.407380 22.993414 0.000000 0.000000 0.000000 
0.006653 0.820994 0.037639 -2.604628 -8.821496 8.005322 12.849670 0.363460 27.605305 -18.142182 -2.210620 -52.961899 111.191752 50.946111 100.487055 0.000000 0.000000 0.000000 -29.280632 5.156787 14.308629 27.225218 7.052615 -39.730527 -76.688162 -46.296184 90.284484 0.000000 0.000000 0.000000 3.075377 1.299156 -15.553257 6.408780 0.228213 -35.850454 1.162387 12.775660 48.994406 10.794303 1.879944 -84.621952 0.000000 0.000000 0.000000 -21.990057 -6.766871 2.092191 -41.725049 -15.991349 -4.372272 -53.538165 50.362658 -27.576176 0.000000 0.000000 0.000000 21.476486 -0.530032 1.418406 39.637252 2.217716 -8.283356 -70.985464 -63.335641 51.687128 0.000000 0.000000 0.000000 
0.007258 0.817557 0.037482 -2.755589 -7.664716 8.955447 12.506223 0.261001 27.872184 -18.379787 -2.674758 -54.167061 105.014561 54.348005 92.718526 0.000000 0.000000 0.000000 -28.840658 5.240589 16.145589 27.260758 7.033443 -40.914464 -76.849269 -46.605687 90.061591 0.000000 0.000000 0.000000 2.856560 1.210879 -15.433897 5.641385 0.480612 -37.432420 1.013499 11.833275 50.492349 12.078286 1.817496 -85.120983 0.000000 0.000000 0.000000 -20.877043 -6.197266 1.948368 -45.111357 -17.719031 -4.223625 -62.981180 48.446783 -30.846783 0.000000 0.000000 0.000000 20.458157 -1.668633 0.772023 41.985801 -2.012738 -10.075523 -122.960782 -55.254740 94.578160 0.000000 0.000000 0.000000 
0.007845 0.812432 0.037498 -3.275317 -6.472191 11.170398 11.418877 0.362950 29.111511 -16.575026 -2.630789 -58.829664 92.930470 55.296416 82.953854 0.000000 0.000000 0.000000 -28.528601 5.497800 18.445095 27.721702 7.561662 -44.042886 -78.367955 -43.634729 96.292405 0.000000 0.000000 0.000000 2.886598 1.308878 -17.021510 5.094023 0.786292 -40.144002 0.694248 10.338669 54.214407 11.396390 2.039241 -88.186410 0.000000 0.000000 0.000000 -20.127095 -5.789881 2.215079 -47.398802 -19.489566 -4.397370 -70.931499 44.935227 -31.317300 0.000000 0.000000 0.000000 18.442642 -2.979854 0.002261 43.339315 -6.069508 -12.073789 -143.920359 -43.497700 109.099060 0.000000 0.000000 0.000000 
0.008345 0.805786 0.038181 -3.354020 -4.146622 12.638327 11.328595 0.008820 29.241187 -15.878144 -3.172174 -60.810037 83.531887 56.000803 73.742761 0.000000 0.000000 0.000000 -27.792504 5.426581 21.433026 27.828679 7.409161 -46.092290 -80.584133 -40.304212 103.575331 0.000000 0.000000 0.000000 3.047468 1.308774 -18.169543 2.990391 0.896124 -40.475432 0.117007 8.552147 55.476255 11.316883 2.017913 -88.148385 0.000000 0.000000 0.000000 -18.339495 -5.023021 1.985185 -50.428638 -21.187638 -4.022507 -75.330843 42.577837 -30.806097 0.000000 0.000000 0.000000 17.257565 -4.489989 -0.866193 44.186098 -12.410183 -14.334158 -149.037242 -38.358701 110.141594 0.000000 0.000000 0.000000 
0.008467 0.799332 0.039765 -3.615934 -3.733210 14.271390 10.225472 0.282738 30.414414 -14.305732 -2.702146 -62.579524 69.429778 55.462717 60.983267 0.000000 0.000000 0.000000 -27.910046 5.725728 22.925915 29.050254 7.610520 -45.942457 -75.757721 -38.986388 103.115069 0.000000 0.000000 0.000000 3.786517 1.454416 -19.212409 1.422654 1.025996 -40.925880 0.091574 8.942805 56.343307 12.412807 1.681995 -87.728169 0.000000 0.000000 0.000000 -16.868389 -4.803740 1.876260 -51.722411 -21.039734 -4.417396 -76.780689 39.056724 -28.165381 0.000000 0.000000 0.000000 17.354951 -7.005532 -2.090314 43.458711 -18.214843 -16.051339 -150.830892 -34.713536 107.518312 0.000000 0.000000 0.000000 
0.008154 0.793428 0.041889 -3.483855 -2.384595 15.318096 9.858634 0.179064 30.803129 -12.910051 -2.543832 -63.440603 60.933686 53.910173 53.718744 0.000000 0.000000 0.000000 -27.425902 5.557118 24.254558 28.677819 7.086510 -45.830838 -69.746106 -38.933094 99.769096 0.000000 0.000000 0.000000 3.996127 1.539745 -20.871105 -0.608116 1.032248 -38.378028 -0.017182 8.220855 54.479948 12.981535 1.424207 -85.638434 0.000000 0.000000 0.000000 -16.354654 -4.017795 1.379933 -52.192738 -21.339810 -4.065059 -78.454597 38.338227 -28.513324 0.000000 0.000000 0.000000 18.429072 -8.735021 -3.087661 43.496291 -23.580420 -17.472159 -154.608153 -34.864165 115.189403 0.000000 0.000000 0.000000 
0.007347 0.787571 0.043566 -3.613590 -1.729662 16.703036 9.554160 0.190567 31.922518 -11.923825 -2.373154 -65.515899 52.427311 51.284094 47.429297 0.000000 0.000000 0.000000 -27.083189 5.624713 25.774821 28.333958 7.013411 -46.900354 -63.022248 -37.638355 97.736384 0.000000 0.000000 0.000000 3.591044 1.515700 -21.837693 -1.503596 1.117081 -39.267969 0.171330 7.601369 55.089463 12.058040 1.449089 -85.887773 0.000000 0.000000 0.000000 -15.251975 -3.425655 1.214299 -53.540190 -21.187442 -4.359353 -81.361502 39.057323 -29.906458 0.000000 0.000000 0.000000 18.318506 -10.301816 -3.998719 44.803914 -27.676935 -19.349885 -158.237687 -35.227010 124.049692 0.000000 0.000000 0.000000 
0.006394 0.783347 0.044462 -3.759904 -1.289048 17.555444 8.816935 0.368802 32.269595 -10.639070 -1.887134 -65.653443 46.064340 49.758563 40.656711 0.000000 0.000000 0.000000 -26.087487 5.385752 26.615248 27.527983 6.540999 -46.359370 -53.404932 -36.833143 91.306564 0.000000 0.000000 0.000000 3.670588 1.566889 -22.743329 -3.702260 1.285016 -37.429741 0.925617 6.722299 53.372913 9.757019 1.591977 -83.992058 0.000000 0.000000 0.000000 -14.554189 -3.976857 1.543892 -54.809107 -20.908431 -4.146960 -83.464961 38.637662 -30.366497 0.000000 0.000000 0.000000 18.131980 -11.164604 -4.698296 47.556460 -30.111343 -21.082067 -162.779357 -36.036315 136.561896 0.000000 0.000000 0.000000 
0.005497 0.781369 0.044648 -3.946364 -1.727409 17.701031 9.113989 0.370581 32.847283 -10.751211 -1.778497 -65.939115 44.354217 48.984590 39.546650 0.000000 0.000000 0.000000 -26.138649 5.445131 26.082499 27.293343 6.447850 -45.669979 -46.589340 -35.876207 86.121311 0.000000 0.000000 0.000000 2.958382 1.529283 -22.950302 -3.892376 1.305366 -36.746871 1.282607 6.008408 52.431451 6.784083 1.964535 -83.669985 0.000000 0.000000 0.000000 -15.362618 -3.988623 1.676729 -54.394255 -20.511981 -4.154336 -87.767936 37.816576 -31.554515 0.000000 0.000000 0.000000 19.065605 -10.700843 -4.715007 48.226253 -29.621803 -21.183219 -168.147781 -36.291481 150.253246 0.000000 0.000000 0.000000 
0.004859 0.781442 0.044579 -4.284127 -2.459696 17.280174 9.691752 0.298082 32.409936 -10.984426 -1.565182 -64.210568 45.016981 49.918654 38.781059 0.000000 0.000000 0.000000 -26.220958 5.299904 23.937322 27.755703 6.116799 -42.419420 -44.088909 -36.299356 81.233373 0.000000 0.000000 0.000000 2.523774 1.405903 -21.377583 -2.523200 1.173765 -36.308318 0.363773 6.757746 50.391349 7.739304 1.780928 -80.813809 0.000000 0.000000 0.000000 -15.484893 -4.705654 1.899976 -54.144704 -20.188030 -3.933718 -91.352846 35.625001 -31.739468 0.000000 0.000000 0.000000 20.545224 -10.261169 -4.625562 47.513155 -28.101027 -20.122205 -172.622695 -34.479433 160.623361 0.000000 0.000000 0.000000 
0.004196 0.781648 0.044466 -4.208920 -4.040250 16.513036 9.238508 0.678547 31.480810 -10.905588 -0.938080 -60.588325 45.024131 51.796289 35.218932 0.000000 0.000000 0.000000 -27.495422 5.504914 21.035357 29.069108 5.793088 -37.669775 -44.574973 -37.327272 78.376168 0.000000 0.000000 0.000000 2.492129 1.454345 -20.658194 -3.301733 1.248587 -32.813908 1.143618 6.510352 45.999445 6.446811 1.861401 -76.464812 0.000000 0.000000 0.000000 -16.033140 -5.676072 2.418927 -52.814859 -17.735637 -4.211664 -93.731593 33.004136 -30.956626 0.000000 0.000000 0.000000 20.813836 -8.925958 -4.369377 48.032302 -27.308073 -19.483858 -178.315203 -32.843932 175.575544 0.000000 0.000000 0.000000 
0.003541 0.781667 0.044726 -4.639823 -4.842826 16.347771 9.842786 0.563879 30.320275 -11.226427 -0.743226 -58.072497 46.203814 53.670565 33.685673 0.000000 0.000000 0.000000 -26.932162 5.372039 20.101348 29.493339 5.720657 -35.945892 -47.615058 -39.844929 75.262234 0.000000 0.000000 0.000000 2.192920 1.308463 -18.802374 -2.068792 1.103523 -34.303637 0.059760 6.495755 45.884342 9.270530 1.510800 -78.152645 0.000000 0.000000 0.000000 -16.390665 -6.680387 3.117055 -50.579380 -16.192866 -4.884019 -97.175267 30.505335 -29.880267 0.000000 0.000000 0.000000 22.322269 -7.387779 -3.720200 47.825307 -24.006312 -18.344282 174.499481 -32.042407 -161.074682 0.000000 0.000000 0.000000 
0.002721 0.784579 0.044805 -5.368144 -6.524978 15.018575 11.125462 0.434726 29.287984 -13.074068 -0.878716 -53.161557 47.989353 57.305264 30.373092 0.000000 0.000000 0.000000 -28.228989 5.469483 17.233285 32.000465 5.079476 -29.647469 -47.397771 -40.230892 73.692079 0.000000 0.000000 0.000000 3.242999 1.444439 -17.990629 -0.462240 0.719825 -29.623515 -2.354695 9.654827 40.246779 14.579104 0.117505 -69.586560 0.000000 0.000000 0.000000 -13.341946 -6.097731 2.193045 -53.918310 -14.797694 -4.655103 -100.115908 28.846096 -31.070735 0.000000 0.000000 0.000000 19.963343 -6.735042 -3.043848 50.070526 -26.479535 -19.210942 174.765636 -32.466221 -162.607768 0.000000 0.000000 0.000000 
0.001785 0.784956 0.044874 -5.588574 -5.142352 14.192088 12.988460 -0.305035 28.611473 -14.649296 -1.669387 -50.851946 47.298647 57.988629 27.616003 0.000000 0.000000 0.000000 -27.449057 5.336817 19.515117 32.146553 5.913794 -33.860918 -57.004072 -39.325076 87.575445 0.000000 0.000000 0.000000 3.017017 1.148288 -15.907097 -0.828810 1.092454 -37.442919 -1.466505 6.494749 47.767326 13.313477 0.615885 -74.639607 0.000000 0.000000 0.000000 -15.078250 -4.428369 2.114004 -56.472371 -14.849567 -5.798640 -97.543540 32.318692 -30.120194 0.000000 0.000000 0.000000 17.042371 -5.684916 -2.501650 52.095766 -21.101021 -18.892118 170.237512 -32.029123 -146.055732 0.000000 0.000000 0.000000 
