HIERARCHY
ROOT Hips
{
	OFFSET -0.001795 -0.223333 0.028219
	CHANNELS 6 Xposition Yposition Zposition Zrotation Yrotation Xrotation 
	JOINT LeftUpLeg
	{
		OFFSET 0.069520 -0.091406 -0.006815
		CHANNELS 3 Zrotation Yrotation Xrotation
		JOINT LeftLeg
		{
			OFFSET 0.034277 -0.375199 -0.004496
			CHANNELS 3 Zrotation Yrotation Xrotation
			JOINT LeftFoot
			{
				OFFSET -0.013596 -0.397961 -0.043693
				CHANNELS 3 Zrotation Yrotation Xrotation
				JOINT LeftToe
				{
					OFFSET 0.026358 -0.055791 0.119288
					CHANNELS 3 Zrotation Yrotation Xrotation
					End Site
					{
						OFFSET 0.000000 0.000000 0.000000
					}
				}
			}
		}
	}
	JOINT RightUpLeg
	{
		OFFSET -0.067670 -0.090522 -0.004320
		CHANNELS 3 Zrotation Yrotation Xrotation
		JOINT RightLeg
		{
			OFFSET -0.038290 -0.382569 -0.008850
			CHANNELS 3 Zrotation Yrotation Xrotation
			JOINT RightFoot
			{
				OFFSET 0.015774 -0.398415 -0.042312
				CHANNELS 3 Zrotation Yrotation Xrotation
				JOINT RightToe
				{
					OFFSET -0.025372 -0.048144 0.123348
					CHANNELS 3 Zrotation Yrotation Xrotation
					End Site
					{
						OFFSET 0.000000 0.000000 0.000000
					}
				}
			}
		}
	}
	JOINT Spine
	{
		OFFSET -0.002533 0.108963 -0.026696
		CHANNELS 3 Zrotation Yrotation Xrotation
		JOINT Spine1
		{
			OFFSET 0.005487 0.135180 0.001092
			CHANNELS 3 Zrotation Yrotation Xrotation
			JOINT Spine2
			{
				OFFSET 0.001457 0.052922 0.025425
				CHANNELS 3 Zrotation Yrotation Xrotation
				JOINT Neck
				{
					OFFSET -0.002778 0.213870 -0.042857
					CHANNELS 3 Zrotation Yrotation Xrotation
					JOINT Head
					{
						OFFSET 0.005152 0.064970 0.051349
						CHANNELS 3 Zrotation Yrotation Xrotation
						End Site
						{
							OFFSET 0.000000 0.000000 0.000000
						}
					}
				}
				JOINT LeftShoulder
				{
					OFFSET 0.078845 0.121749 -0.034090
					CHANNELS 3 Zrotation Yrotation Xrotation
					JOINT LeftArm
					{
						OFFSET 0.090977 0.030469 -0.008868
						CHANNELS 3 Zrotation Yrotation Xrotation
						JOINT LeftForeArm
						{
							OFFSET 0.259612 -0.012772 -0.027456
							CHANNELS 3 Zrotation Yrotation Xrotation
							JOINT LeftHand
							{
								OFFSET 0.249234 0.008986 -0.001171
								CHANNELS 3 Zrotation Yrotation Xrotation
								End Site
								{
									OFFSET 0.000000 0.000000 0.000000
								}
							}
						}
					}
				}
				JOINT RightShoulder
				{
					OFFSET -0.081759 0.118833 -0.038615
					CHANNELS 3 Zrotation Yrotation Xrotation
					JOINT RightArm
					{
						OFFSET -0.096012 0.032551 -0.009143
						CHANNELS 3 Zrotation Yrotation Xrotation
						JOINT RightForeArm
						{
							OFFSET -0.253742 -0.013329 -0.021401
							CHANNELS 3 Zrotation Yrotation Xrotation
							JOINT RightHand
							{
								OFFSET -0.255298 0.007772 -0.005559
								CHANNELS 3 Zrotation Yrotation Xrotation
								End Site
								{
									OFFSET 0.000000 0.000000 0.000000
								}
							}
						}
					}
				}
			}
		}
	}
}
MOTION
Frames: 81
Frame Time: 0.050000
-0.002478 0.807465 0.018929 -4.395500 -7.461788 8.917712 15.064249 -0.428094 27.909126 -13.979083 -0.874190 -44.982533 87.702880 52.147763 85.268976 0.000000 0.000000 0.000000 -26.940074 4.637473 15.495758 32.586952 5.667342 -30.494385 -70.413570 -55.679831 67.993553 0.000000 0.000000 0.000000 3.681827 1.010156 -13.043488 0.066458 0.798184 -31.661906 0.242575 7.494267 40.768574 11.870563 0.531358 -66.904543 0.000000 0.000000 0.000000 -13.661310 1.873665 -1.462651 -56.219801 -10.777448 -6.196964 -80.070044 45.011151 -36.286120 0.000000 0.000000 0.000000 15.184089 -10.317080 -5.312461 52.812781 -17.084522 -16.164200 162.312885 -34.075854 -125.622323 0.000000 0.000000 0.000000 
-0.002478 0.807465 0.018929 -4.395500 -7.461788 8.917712 15.064249 -0.428094 27.909126 -13.979083 -0.874190 -44.982533 87.702880 52.147763 85.268976 0.000000 0.000000 0.000000 -26.940074 4.637473 15.495758 32.586952 5.667342 -30.494385 -70.413570 -55.679831 67.993553 0.000000 0.000000 0.000000 3.681827 1.010156 -13.043488 0.066458 0.798184 -31.661906 0.242575 7.494267 40.768574 11.870563 0.531358 -66.904543 0.000000 0.000000 0.000000 -13.661310 1.873665 -1.462651 -56.219801 -10.777448 -6.196964 -80.070044 45.011151 -36.286120 0.000000 0.000000 0.000000 15.184089 -10.317080 -5.312461 52.812781 -17.084522 -16.164200 162.312885 -34.075854 -125.622323 0.000000 0.000000 0.000000 
-0.002478 0.829697 0.018929 -3.227616 -9.218835 4.810224 17.862993 -0.643227 25.125421 -11.936772 0.021936 -36.870606 82.031313 46.379615 91.779681 0.000000 0.000000 0.000000 -24.207076 3.728232 13.794752 28.763534 6.516909 -35.115673 -86.324212 -58.164268 78.599304 0.000000 0.000000 0.000000 3.476554 0.913940 -11.437710 2.238586 0.612209 -33.687842 2.123252 7.503086 43.236998 12.127034 0.842588 -70.002898 0.000000 0.000000 0.000000 -16.450045 9.605288 -5.713405 -54.633806 -7.585598 -7.725373 -54.785727 55.081126 -29.099678 0.000000 0.000000 0.000000 14.751891 -14.191836 -7.545288 53.018568 -11.995972 -14.375376 157.177859 -60.605046 -138.931938 0.000000 0.000000 0.000000 
-0.002478 0.829103 0.018929 -3.272075 -9.348004 5.162680 18.187219 -0.686310 24.125139 -11.628602 0.116278 -36.519901 82.820670 45.509907 93.816624 0.000000 0.000000 0.000000 -24.116543 3.855999 14.495285 28.487016 7.133666 -37.638494 -90.936588 -56.437045 84.765361 0.000000 0.000000 0.000000 2.904086 0.829903 -11.042801 2.971951 0.654740 -35.301200 1.807096 7.082614 44.420667 13.302964 0.851047 -72.186269 0.000000 0.000000 0.000000 -16.782791 9.452628 -5.499447 -54.135791 -6.603411 -8.339148 -68.862339 57.216809 -38.818027 0.000000 0.000000 0.000000 15.329119 -13.436530 -7.282846 54.026969 -11.167470 -14.539585 157.681532 -59.515312 -138.607259 0.000000 0.000000 0.000000 
-0.002478 0.828317 0.018929 -3.110311 -9.942553 4.927984 18.042828 -0.549413 23.420159 -12.062376 0.168310 -34.019373 81.881688 48.110080 89.179325 0.000000 0.000000 0.000000 -24.563626 3.903944 13.670071 29.129041 7.027809 -36.039741 -91.066791 -58.018811 82.546899 0.000000 0.000000 0.000000 2.744440 0.855777 -11.299601 2.709753 0.600920 -34.193007 2.534384 7.246380 43.821652 13.200693 0.812600 -71.745591 0.000000 0.000000 0.000000 -16.973077 9.464420 -5.515863 -53.754943 -5.733162 -8.575443 -81.494100 57.306049 -47.684206 0.000000 0.000000 0.000000 15.804859 -13.175872 -7.256509 54.841504 -10.706846 -14.484676 160.244295 -56.347527 -140.601538 0.000000 0.000000 0.000000 
-0.002478 0.827574 0.018929 -3.139198 -9.124360 4.996543 18.602575 -0.755018 22.887961 -13.055265 -0.077765 -33.905411 84.217884 48.581756 89.498888 0.000000 0.000000 0.000000 -24.397586 3.767518 13.777225 28.562078 6.923148 -36.948794 -94.657823 -57.188362 86.612168 0.000000 0.000000 0.000000 1.883662 0.744993 -10.955095 3.402311 0.636004 -35.708081 2.463908 6.726061 44.959120 12.391731 1.132872 -73.224763 0.000000 0.000000 0.000000 -16.791510 9.387847 -5.426749 -54.513145 -5.912722 -8.728886 -92.554022 57.724981 -56.332156 0.000000 0.000000 0.000000 16.148590 -13.218450 -7.314902 55.301795 -10.421771 -14.604629 162.514531 -52.939335 -141.792332 0.000000 0.000000 0.000000 
-0.002478 0.824810 0.018929 -3.183907 -8.474771 5.255727 18.718727 -0.904889 23.858663 -13.209930 -0.304832 -37.342055 92.201227 47.473412 95.907055 0.000000 0.000000 0.000000 -25.330528 4.179787 15.574990 28.137293 7.496829 -40.401415 -97.982540 -53.545173 93.959867 0.000000 0.000000 0.000000 1.545435 0.795744 -12.046442 3.076358 0.776956 -36.983492 3.212476 6.167970 46.863294 10.497722 1.775994 -76.503914 0.000000 0.000000 0.000000 -16.786748 8.994330 -5.147532 -55.099463 -6.524203 -8.790458 -103.276067 57.493045 -64.789263 0.000000 0.000000 0.000000 15.905796 -13.379144 -7.312735 56.499434 -11.226882 -15.485321 168.419790 -48.398446 -149.728225 0.000000 0.000000 0.000000 
-0.002478 0.820908 0.018929 -2.734204 -6.702759 5.190987 18.953062 -1.259459 24.859234 -12.183753 -0.519746 -41.980948 97.571136 41.633643 105.603217 0.000000 0.000000 0.000000 -25.947429 4.525426 18.676101 27.370833 8.133303 -45.912361 -104.991108 -48.383313 104.749544 0.000000 0.000000 0.000000 0.782147 0.761552 -12.950759 2.183850 1.003254 -39.368838 4.262812 4.829468 49.876766 6.844260 2.516289 -80.892667 0.000000 0.000000 0.000000 -16.687996 8.176087 -4.604400 -55.698840 -8.626189 -8.351197 -108.940463 59.019262 -71.185349 0.000000 0.000000 0.000000 15.837196 -13.735353 -7.403149 57.871723 -11.561966 -16.353603 177.376589 -45.287006 -166.936022 0.000000 0.000000 0.000000 
-0.002478 0.818401 0.018929 -2.314175 -5.301864 4.376565 18.793277 -1.487161 26.459889 -11.552765 -0.792947 -46.778729 103.238725 37.589297 111.822242 0.000000 0.000000 0.000000 -27.000675 5.157221 22.713846 27.606492 9.021237 -50.858269 -105.182465 -44.289651 109.881093 0.000000 0.000000 0.000000 0.403573 0.749898 -13.795468 1.759520 1.069411 -40.788556 5.302393 4.403236 52.006599 4.317636 2.725837 -83.913204 0.000000 0.000000 0.000000 -18.424433 5.706770 -3.456311 -53.400897 -11.740947 -7.288424 -107.417099 59.856806 -71.078552 0.000000 0.000000 0.000000 16.130002 -13.095388 -6.817148 56.651283 -10.045953 -15.783232 -173.581194 -42.325618 172.293561 0.000000 0.000000 0.000000 
-0.002478 0.816666 0.018929 -1.850478 -4.392055 2.367324 18.538385 -1.544063 27.429910 -13.117632 -1.537828 -47.504884 108.362573 40.466555 109.888632 0.000000 0.000000 0.000000 -27.777390 5.543442 25.546548 28.008906 9.077784 -51.330635 -106.234327 -45.056385 109.769094 0.000000 0.000000 0.000000 0.547841 0.767937 -14.236418 1.580251 0.918670 -38.804853 5.927187 5.141113 50.264138 1.949249 2.724464 -82.368141 0.000000 0.000000 0.000000 -19.309511 3.947856 -2.982775 -51.450728 -13.279281 -6.208477 -92.933989 64.287372 -64.374426 0.000000 0.000000 0.000000 16.973994 -11.956966 -6.027416 53.838123 -7.725611 -13.933740 -156.685726 -40.635694 131.369466 0.000000 0.000000 0.000000 
-0.002478 0.817394 0.018929 -1.599079 -4.964502 0.311171 18.158479 -1.336949 29.138509 -13.839456 -1.593257 -45.726428 108.410702 43.280154 107.262742 0.000000 0.000000 0.000000 -28.408925 5.904096 26.427475 28.387508 8.844188 -48.980401 -104.457234 -46.697490 107.041418 0.000000 0.000000 0.000000 1.056480 0.831203 -14.033534 2.506958 0.722236 -37.234162 5.493294 6.698531 48.476888 2.824661 2.563349 -80.369012 0.000000 0.000000 0.000000 -21.569394 2.173685 -2.549078 -48.195271 -13.323938 -5.664173 -56.231367 64.934794 -37.197558 0.000000 0.000000 0.000000 17.721215 -10.097729 -4.867328 51.113432 -4.462800 -11.945353 -134.365179 -40.925432 92.924454 0.000000 0.000000 0.000000 
-0.002478 0.816706 0.018929 -1.544435 -5.467103 -1.182106 18.259521 -1.224800 29.463664 -15.022933 -1.620748 -42.320988 110.728133 48.242203 103.145213 0.000000 0.000000 0.000000 -28.216921 5.772766 25.920859 28.412429 7.975050 -44.861561 -104.827431 -51.819865 101.215362 0.000000 0.000000 0.000000 1.883466 0.978216 -14.423009 1.712404 0.590840 -33.372214 5.849204 8.184212 44.510763 3.662515 2.392115 -75.738674 0.000000 0.000000 0.000000 -21.891075 0.712614 -2.243047 -48.279936 -12.731972 -5.222857 -27.457854 57.906306 -16.173468 0.000000 0.000000 0.000000 18.423977 -9.708038 -4.614378 50.211253 -1.585710 -10.209736 -97.788716 -41.322591 54.865668 0.000000 0.000000 0.000000 
-0.002478 0.816414 0.018929 -1.634983 -5.700849 -2.446870 18.753799 -1.290843 30.223998 -15.952982 -1.689628 -40.286906 109.006698 49.791179 100.805186 0.000000 0.000000 0.000000 -28.052343 5.581885 25.372196 28.459588 7.096842 -41.015591 -104.125013 -54.225575 97.889225 0.000000 0.000000 0.000000 2.569929 1.041569 -13.949960 1.559000 0.582750 -32.976698 5.208361 8.539071 43.450181 2.245580 2.589922 -74.614290 0.000000 0.000000 0.000000 -23.855806 -0.052429 -2.090486 -46.398504 -11.886663 -5.250628 -12.991816 50.507200 -7.192005 0.000000 0.000000 0.000000 19.655304 -8.182752 -3.801622 49.676909 0.381589 -9.392621 -62.180496 -33.972264 25.837933 0.000000 0.000000 0.000000 
-0.002478 0.816083 0.018929 -1.579322 -6.449354 -3.596596 18.625002 -1.058512 29.746661 -16.243091 -1.227057 -35.235843 105.982771 56.383920 91.814631 0.000000 0.000000 0.000000 -27.804963 5.245244 23.506254 28.739554 5.611331 -34.137072 -93.473018 -61.056374 81.251203 0.000000 0.000000 0.000000 3.303594 1.135780 -13.611347 1.355227 0.343201 -28.142492 4.216451 10.244878 37.989589 3.378612 2.461122 -67.865791 0.000000 0.000000 0.000000 -24.249432 -0.111512 -2.758614 -45.895188 -8.663194 -5.479757 -4.334612 40.552548 -2.895213 0.000000 0.000000 0.000000 20.338853 -8.623640 -4.097713 50.286150 0.019411 -8.922303 -35.682800 -13.730646 6.702465 0.000000 0.000000 0.000000 
-0.002478 0.816700 0.018929 -1.802130 -6.806696 -4.174163 19.124264 -1.114091 30.225873 -16.822741 -1.172844 -33.729745 100.870764 56.601124 88.435664 0.000000 0.000000 0.000000 -27.339413 5.004884 22.774733 28.389850 4.767867 -30.780957 -86.993869 -62.167654 74.028479 0.000000 0.000000 0.000000 3.728297 1.223593 -13.777705 1.118745 0.336888 -27.160476 4.106408 9.931019 36.325541 1.022697 2.950393 -65.514274 0.000000 0.000000 0.000000 -25.745731 0.240621 -3.100089 -44.980220 -6.222937 -6.032499 0.594853 34.657897 -0.954223 0.000000 0.000000 0.000000 20.109059 -8.646333 -4.301982 49.888270 -1.739848 -9.278134 -21.730742 -2.775732 1.661814 0.000000 0.000000 0.000000 
-0.002478 0.816870 0.018929 -1.923956 -7.199218 -4.269092 19.191439 -1.073991 30.745470 -16.867575 -1.111765 -33.423254 99.249552 57.420553 86.445671 0.000000 0.000000 0.000000 -27.523676 5.056021 22.402935 29.196642 4.562436 -29.046249 -79.827600 -62.549687 66.686031 0.000000 0.000000 0.000000 4.130388 1.368645 -14.543211 1.133789 0.285525 -26.288562 3.669027 10.131876 35.773376 1.588092 2.837967 -64.469468 0.000000 0.000000 0.000000 -25.737741 1.138408 -3.662791 -44.372154 -4.953819 -6.341154 2.335793 32.094947 -0.413171 0.000000 0.000000 0.000000 20.285778 -8.739370 -4.409990 49.181848 -3.329844 -9.696024 -11.677958 -0.724528 0.576128 0.000000 0.000000 0.000000 
-0.002478 0.815667 0.018929 -1.785138 -7.087520 -3.699850 19.389507 -1.182048 31.233844 -17.588010 -1.420067 -35.303471 101.432326 55.739697 89.995734 0.000000 0.000000 0.000000 -27.434355 5.121396 22.772249 28.728789 4.871150 -30.741585 -84.562844 -62.152532 71.789415 0.000000 0.000000 0.000000 4.141920 1.478867 -15.679692 0.765143 0.418751 -27.322949 4.048766 10.044721 36.611597 -0.603685 3.321274 -64.082465 0.000000 0.000000 0.000000 -25.205192 1.470868 -3.752985 -44.466497 -4.112129 -6.741647 4.648544 32.690411 0.285442 0.000000 0.000000 0.000000 20.617653 -8.807891 -4.451283 48.068998 -4.730834 -10.097217 -7.896672 -5.012471 0.506411 0.000000 0.000000 0.000000 
-0.002478 0.814343 0.018929 -1.925638 -6.856400 -3.134824 20.042821 -1.504493 33.212139 -18.249528 -2.142929 -40.651742 105.751617 49.367216 100.128552 0.000000 0.000000 0.000000 -27.327586 5.535605 25.189398 28.437801 6.238673 -36.683498 -93.344750 -58.155030 85.123438 0.000000 0.000000 0.000000 3.518061 1.441448 -16.367309 1.082151 0.596107 -31.907037 5.143384 8.516820 41.797128 -3.297632 3.606545 -70.305661 0.000000 0.000000 0.000000 -26.086961 1.520260 -3.171288 -44.049391 -4.945811 -7.219179 6.590888 37.487421 1.278661 0.000000 0.000000 0.000000 20.494856 -8.015089 -4.041215 46.382949 -4.262301 -10.248090 -9.481724 -16.071934 1.382056 0.000000 0.000000 0.000000 
-0.002478 0.811372 0.018929 -1.490388 -6.567410 -2.283745 20.348690 -1.685961 33.523224 -19.467538 -2.730221 -43.103205 109.465709 47.901757 103.317340 0.000000 0.000000 0.000000 -27.350721 5.850726 26.728909 27.359568 7.035474 -41.373181 -98.991855 -56.601271 91.352092 0.000000 0.000000 0.000000 2.727870 1.392889 -17.311415 0.499537 0.785112 -33.695501 6.118266 8.361506 43.554102 -5.967548 3.975496 -71.585477 0.000000 0.000000 0.000000 -25.213008 1.586103 -3.063757 -44.379733 -5.591963 -7.270164 9.283010 39.552590 2.438257 0.000000 0.000000 0.000000 21.100223 -7.805485 -3.832530 45.158119 -3.447425 -9.985967 -10.995358 -25.304700 2.609577 0.000000 0.000000 0.000000 
-0.002478 0.808764 0.018929 -1.279724 -6.367337 -1.714149 21.002154 -2.024418 35.303547 -20.543426 -3.687625 -48.057316 108.533744 40.389352 110.772454 0.000000 0.000000 0.000000 -27.630329 6.500746 29.579938 26.598461 8.435850 -48.392605 -104.266186 -50.474487 102.258040 0.000000 0.000000 0.000000 2.169660 1.350340 -17.916903 0.510853 1.036847 -38.370417 6.900335 6.975007 49.253316 -9.699754 3.981685 -78.168388 0.000000 0.000000 0.000000 -25.531705 1.363345 -2.283194 -43.811476 -8.303562 -7.191610 9.720703 45.303441 3.484493 0.000000 0.000000 0.000000 20.173150 -6.700609 -3.072814 44.435979 -1.357008 -9.872067 -13.804333 -36.940344 5.185823 0.000000 0.000000 0.000000 
-0.002478 0.805950 0.018929 -1.005012 -6.322214 -1.148707 21.096034 -2.097460 35.739492 -21.165580 -4.108892 -49.881204 110.870400 39.377501 112.455666 0.000000 0.000000 0.000000 -27.865610 6.964655 31.264346 26.263291 9.284342 -52.521561 -104.940946 -49.065626 104.315569 0.000000 0.000000 0.000000 1.994638 1.360824 -18.384426 0.751293 1.097052 -39.914289 6.954450 7.235912 50.918591 -8.949717 3.671262 -80.165942 0.000000 0.000000 0.000000 -24.546819 1.333420 -2.176699 -43.526751 -9.788012 -6.890300 8.729301 47.547119 3.301215 0.000000 0.000000 0.000000 19.585751 -5.906886 -2.382434 42.196658 0.087511 -9.258240 -13.389405 -43.627329 6.177467 0.000000 0.000000 0.000000 
-0.002478 0.803742 0.018929 -0.631779 -6.755313 -0.692823 20.833438 -1.947578 36.315443 -21.687252 -4.358085 -51.323693 109.713735 38.437950 113.143834 0.000000 0.000000 0.000000 -28.510487 7.581062 32.241718 26.149523 10.076842 -55.564433 -104.813085 -47.600952 105.888939 0.000000 0.000000 0.000000 2.182210 1.455466 -18.880407 1.133000 1.155638 -41.102946 6.938483 7.765685 52.462782 -9.113709 3.485456 -82.132714 0.000000 0.000000 0.000000 -25.207474 0.972442 -2.010531 -42.041347 -10.622498 -6.651459 7.626995 48.565368 2.838931 0.000000 0.000000 0.000000 18.690890 -4.362790 -1.316458 39.120848 1.146176 -8.607412 -9.534511 -48.398417 5.043634 0.000000 0.000000 0.000000 
-0.002478 0.801562 0.018929 -0.411292 -6.629520 -0.378844 20.411965 -1.824236 35.597315 -21.263095 -4.136805 -50.831313 113.551657 39.095540 113.592721 0.000000 0.000000 0.000000 -28.244557 7.530091 32.502381 25.286077 9.927341 -56.647426 -105.820397 -47.509038 106.481691 0.000000 0.000000 0.000000 2.588327 1.488521 -18.616393 1.595904 1.201792 -42.348990 6.397250 8.529202 53.398910 -7.088611 3.181448 -82.963898 0.000000 0.000000 0.000000 -25.174815 0.346631 -1.813748 -41.490150 -11.700570 -6.313071 4.570048 49.356012 1.383000 0.000000 0.000000 0.000000 18.129222 -3.368534 -0.525585 35.774984 2.660007 -7.758951 -4.906651 -51.355324 3.022977 0.000000 0.000000 0.000000 
-0.002478 0.799274 0.018929 -0.478830 -6.857504 -0.254810 20.085320 -1.679097 35.746310 -20.698924 -3.932965 -51.210385 114.888627 40.190645 113.023753 0.000000 0.000000 0.000000 -28.382677 7.612098 32.246383 25.880517 10.223206 -56.478078 -106.588109 -48.642168 105.537815 0.000000 0.000000 0.000000 3.081052 1.579567 -18.623904 2.184033 1.228963 -43.079491 6.299851 9.078204 53.985531 -5.567195 2.978490 -83.583280 0.000000 0.000000 0.000000 -25.366291 -0.299478 -1.531278 -41.100561 -12.361787 -6.084027 2.241572 49.111776 0.237791 0.000000 0.000000 0.000000 17.076664 -2.551635 0.003081 33.448772 3.496216 -7.188207 -1.360240 -50.777703 1.097648 0.000000 0.000000 0.000000 
-0.002478 0.795824 0.018929 -0.398970 -6.317055 -0.052164 20.093660 -1.811542 35.573077 -20.543847 -4.059002 -51.709330 117.805224 41.116167 112.817831 0.000000 0.000000 0.000000 -27.919282 7.326612 32.398276 25.375803 9.921066 -56.757089 -108.319146 -49.299114 105.746241 0.000000 0.000000 0.000000 2.692212 1.500538 -18.752827 2.265099 1.228392 -43.438028 6.213519 8.841268 53.668410 -4.262168 2.902799 -83.202105 0.000000 0.000000 0.000000 -25.077758 -1.632484 -0.702914 -40.639992 -13.788474 -5.559425 -0.480541 49.678881 -1.030811 0.000000 0.000000 0.000000 15.858477 -1.857469 0.325742 32.235205 3.980607 -6.774303 1.397276 -50.092456 -0.365248 0.000000 0.000000 0.000000 
-0.002478 0.791499 0.018929 -0.228458 -6.227102 -0.218467 19.809313 -1.773576 36.447807 -20.171886 -4.141890 -53.082507 120.339788 40.889437 113.709104 0.000000 0.000000 0.000000 -27.919114 7.491997 33.335519 25.324978 10.106932 -57.740662 -109.162298 -50.040027 105.411101 0.000000 0.000000 0.000000 2.919581 1.632775 -19.741624 2.630036 1.128590 -42.584479 5.588545 8.688700 53.346904 -2.393514 2.805377 -83.405210 0.000000 0.000000 0.000000 -25.688382 -1.938100 -0.493159 -39.153549 -14.997913 -5.060116 -4.381066 48.311453 -2.866878 0.000000 0.000000 0.000000 14.979966 -1.492493 0.406920 30.807661 4.852386 -6.265697 2.402712 -48.327415 -1.036811 0.000000 0.000000 0.000000 
-0.002478 0.787713 0.018929 -0.258110 -6.393642 -0.518541 19.662473 -1.723240 37.545395 -19.724702 -4.078711 -53.879853 121.851299 41.036738 114.088879 0.000000 0.000000 0.000000 -28.157151 7.774557 34.109412 25.917164 10.455905 -57.943654 -109.135689 -50.975006 104.395638 0.000000 0.000000 0.000000 3.121334 1.823644 -21.148604 3.387625 1.027337 -41.997549 4.967634 8.767816 53.668574 1.034752 2.572663 -82.919943 0.000000 0.000000 0.000000 -25.263914 -2.671023 0.113232 -37.881184 -15.874993 -4.822501 -6.955689 46.932893 -3.942907 0.000000 0.000000 0.000000 13.195944 -1.031875 0.533816 30.474467 4.513608 -6.251258 0.813468 -45.139581 -0.336468 0.000000 0.000000 0.000000 
-0.002478 0.783187 0.018929 -0.016397 -6.445384 -0.787973 19.461541 -1.665110 38.443170 -19.965778 -4.187536 -53.944386 121.305623 43.052030 112.236974 0.000000 0.000000 0.000000 -28.418320 8.038121 34.808249 26.124998 10.486258 -57.673157 -107.380954 -52.888208 101.318324 0.000000 0.000000 0.000000 3.325167 2.029765 -22.640464 3.478893 0.792356 -39.456669 4.237301 9.011823 51.688706 3.942916 2.332652 -80.989274 0.000000 0.000000 0.000000 -25.783242 -3.437881 0.460585 -36.246882 -15.699956 -4.533768 -7.136369 43.903715 -3.927516 0.000000 0.000000 0.000000 12.942067 -0.938145 0.513421 28.357993 3.771317 -5.845573 -0.435299 -41.407274 -0.066295 0.000000 0.000000 0.000000 
-0.002478 0.780048 0.018929 -0.011210 -6.345025 -0.742503 19.361088 -1.690827 39.069841 -19.834182 -4.281468 -54.720994 120.480420 42.885450 112.026839 0.000000 0.000000 0.000000 -28.266919 7.933156 34.778146 25.975455 10.250928 -57.162422 -109.116599 -53.997968 101.054872 0.000000 0.000000 0.000000 3.752192 2.201448 -23.477965 3.316252 0.753738 -38.893636 3.851837 8.613842 51.412535 5.582905 2.166710 -80.299472 0.000000 0.000000 0.000000 -25.630792 -3.674484 0.777575 -34.724251 -16.446397 -4.295141 -4.676567 41.591682 -2.802664 0.000000 0.000000 0.000000 11.697152 -1.149454 0.291110 26.477196 3.525164 -5.503163 -3.716405 -37.752714 0.964211 0.000000 0.000000 0.000000 
-0.002478 0.777408 0.018929 0.200505 -6.604549 -0.628503 19.611457 -1.734652 39.897202 -21.135246 -4.828682 -55.528668 119.673913 44.644071 110.189552 0.000000 0.000000 0.000000 -29.071292 8.244778 34.295111 26.933145 10.520573 -56.309968 -109.072197 -55.167092 99.656831 0.000000 0.000000 0.000000 4.275221 2.384106 -23.922911 2.865207 0.756423 -38.363854 3.509774 8.797026 51.193276 7.323516 1.948633 -80.538227 0.000000 0.000000 0.000000 -25.622932 -4.455687 1.332218 -32.554611 -16.191773 -4.245373 -1.313385 39.294452 -1.508687 0.000000 0.000000 0.000000 11.306490 -1.465557 0.137253 24.260531 3.124436 -5.202181 -6.571027 -34.065675 1.700069 0.000000 0.000000 0.000000 
-0.002478 0.776248 0.018929 0.345357 -6.623444 -0.579648 19.454742 -1.702283 40.593381 -21.191683 -5.009333 -56.592017 116.869476 44.129333 109.627418 0.000000 0.000000 0.000000 -29.348969 8.309762 34.052801 27.278108 10.525215 -55.756022 -108.476599 -56.037642 98.315167 0.000000 0.000000 0.000000 4.701628 2.486109 -23.999964 2.119443 0.926057 -39.623032 3.551696 7.892848 52.485995 7.469071 2.019381 -81.941826 0.000000 0.000000 0.000000 -25.759813 -4.683313 1.934989 -31.006089 -16.731548 -4.323323 2.409856 39.340283 -0.073508 0.000000 0.000000 0.000000 9.714631 -1.329558 0.063115 23.251284 2.589389 -5.140372 -10.789235 -31.886197 2.822298 0.000000 0.000000 0.000000 
-0.002478 0.776865 0.018929 0.333208 -7.025359 -0.368340 19.236666 -1.543588 41.093511 -20.829502 -4.937074 -57.794799 116.934879 42.563083 111.197761 0.000000 0.000000 0.000000 -29.653344 8.356453 33.148125 27.649434 10.586877 -54.982534 -109.638315 -56.143091 98.802342 0.000000 0.000000 0.000000 5.100422 2.580765 -23.853828 1.817279 1.007707 -40.283433 3.393283 7.745928 53.183234 8.571844 1.971066 -83.294813 0.000000 0.000000 0.000000 -24.485118 -5.078074 2.468068 -29.703758 -17.155275 -4.339202 5.670628 41.086619 1.221621 0.000000 0.000000 0.000000 9.098856 -1.429554 -0.023074 21.961444 3.178716 -4.890450 -15.313477 -30.254187 3.984621 0.000000 0.000000 0.000000 
-0.002478 0.775718 0.018929 0.338201 -7.451645 0.090801 19.143026 -1.447568 42.680073 -20.613867 -5.219395 -61.128247 111.605300 38.684568 113.246136 0.000000 0.000000 0.000000 -30.244901 8.933440 33.917312 27.466592 11.059470 -56.906788 -110.040019 -52.991707 102.495092 0.000000 0.000000 0.000000 5.019381 2.537908 -23.462522 2.293916 1.213461 -43.265605 3.258396 7.431007 56.616756 9.342805 2.174383 -88.104320 0.000000 0.000000 0.000000 -24.433809 -4.838191 2.855940 -28.071855 -18.809478 -4.513027 8.157899 45.336083 2.597652 0.000000 0.000000 0.000000 8.278664 -1.420618 -0.025799 20.887009 3.829184 -4.874042 -19.985417 -30.536939 5.372700 0.000000 0.000000 0.000000 
-0.002478 0.774897 0.018929 0.343863 -7.709154 0.654442 18.841894 -1.315424 44.557590 -19.781719 -5.324717 -65.025479 103.894298 34.444005 115.497353 0.000000 0.000000 0.000000 -30.722116 9.705798 35.753525 26.896470 11.488589 -59.734093 -105.944652 -49.344893 104.426826 0.000000 0.000000 0.000000 4.947370 2.550504 -23.602832 2.893396 1.408570 -45.685952 2.869650 7.384634 59.834792 10.395183 2.413477 -92.542954 0.000000 0.000000 0.000000 -23.750336 -4.748702 3.211277 -26.432417 -19.930297 -4.745912 8.598919 48.825834 3.114167 0.000000 0.000000 0.000000 8.283661 -1.310336 0.097550 20.221810 5.189926 -4.926619 -24.748928 -33.036473 7.339866 0.000000 0.000000 0.000000 
-0.002478 0.773611 0.018929 0.519861 -8.469110 0.882420 18.263440 -0.869318 45.787077 -19.421590 -5.208085 -66.964601 100.644024 33.333035 116.074387 0.000000 0.000000 0.000000 -31.354647 10.269355 35.775610 26.370648 11.534081 -60.301119 -106.094353 -47.349476 106.622572 0.000000 0.000000 0.000000 4.908623 2.542346 -23.185880 3.804448 1.543999 -46.926357 3.045037 8.233837 61.870916 11.583885 2.482741 -95.649641 0.000000 0.000000 0.000000 -24.097529 -4.807405 3.332213 -25.128297 -20.883925 -4.784641 7.415921 50.130469 2.588736 0.000000 0.000000 0.000000 8.085752 -2.153891 -0.202126 20.035463 7.084078 -4.980514 -27.713535 -35.379053 9.035311 0.000000 0.000000 0.000000 
-0.002478 0.772536 0.018929 0.015334 -6.805320 0.659409 19.720305 -2.028247 47.092517 -19.923268 -6.348332 -69.177586 94.662110 31.774292 115.884442 0.000000 0.000000 0.000000 -32.868379 10.446964 36.440430 22.184322 10.032070 -64.952839 -97.604462 -38.392660 113.874834 0.000000 0.000000 0.000000 4.654001 2.151919 -21.432573 2.700333 1.852352 -51.241598 2.765759 5.519372 65.317180 8.323314 2.963190 -98.810788 0.000000 0.000000 0.000000 -24.316466 -4.049451 3.670051 -25.031091 -22.159287 -5.241202 5.665476 50.745605 2.166535 0.000000 0.000000 0.000000 6.586772 -2.030019 -0.283945 20.349792 8.058554 -5.211854 -28.134382 -37.262067 9.537732 0.000000 0.000000 0.000000 
-0.002478 0.772197 0.018929 0.219452 -7.039457 0.678549 19.475589 -1.853992 47.575164 -19.972370 -6.390573 -69.683405 93.845461 32.126461 115.274687 0.000000 0.000000 0.000000 -32.843251 10.602845 36.694472 21.505175 9.917996 -65.816536 -98.777603 -38.154139 114.538319 0.000000 0.000000 0.000000 4.313654 1.994696 -20.520601 3.121747 1.891044 -51.142203 2.692216 6.106849 64.864621 9.462372 3.043103 -99.789842 0.000000 0.000000 0.000000 -23.511265 -3.502747 3.196329 -25.695370 -21.510239 -5.329916 4.745667 49.296923 1.683370 0.000000 0.000000 0.000000 6.842045 -2.700879 -0.544473 19.721129 8.050586 -5.077464 -26.946496 -37.813272 9.225336 0.000000 0.000000 0.000000 
-0.002478 0.772073 0.018929 0.323172 -7.289277 1.254926 19.174212 -1.659171 47.501972 -19.587062 -6.192237 -70.571277 92.182947 31.074949 116.240712 0.000000 0.000000 0.000000 -32.639352 10.693659 36.854215 20.206304 9.615457 -67.645653 -97.908332 -35.597667 117.233252 0.000000 0.000000 0.000000 3.771936 1.841140 -19.978374 3.081815 1.990222 -51.647181 2.872716 5.672218 64.883119 8.134488 3.180780 -100.178615 0.000000 0.000000 0.000000 -23.292207 -2.400384 2.672791 -26.576812 -21.724094 -5.408814 4.116101 49.117720 1.557110 0.000000 0.000000 0.000000 5.690920 -2.847339 -0.729466 19.766027 7.916419 -5.021587 -25.334691 -37.779726 8.532408 0.000000 0.000000 0.000000 
-0.002478 0.773419 0.018929 0.335909 -7.556545 1.848466 19.179716 -1.572990 46.933883 -19.727881 -6.138337 -70.673898 92.203330 30.763837 116.667875 0.000000 0.000000 0.000000 -32.059870 10.491393 36.487025 18.977748 9.114985 -68.187073 -96.685153 -34.981732 117.480952 0.000000 0.000000 0.000000 4.024305 1.882175 -19.908773 2.564823 1.911499 -50.485962 2.864003 6.056414 63.881357 8.012468 3.179061 -100.430523 0.000000 0.000000 0.000000 -23.118713 -1.678651 2.123262 -26.000891 -21.400986 -5.283185 2.908289 48.656539 0.830325 0.000000 0.000000 0.000000 6.357409 -3.500607 -0.979670 18.250601 7.721339 -4.661793 -23.549755 -37.713382 7.667890 0.000000 0.000000 0.000000 
-0.002478 0.777412 0.018929 0.165179 -8.000154 2.211765 19.012655 -1.354955 45.660494 -19.214552 -5.440758 -69.103340 92.643293 31.048211 116.648966 0.000000 0.000000 0.000000 -31.323508 9.976393 35.042128 18.293674 8.636105 -66.639123 -96.910712 -35.888321 116.233956 0.000000 0.000000 0.000000 4.438544 1.944603 -19.711006 2.306339 1.686379 -47.444362 3.027594 6.824851 60.291406 10.069239 3.038817 -97.863757 0.000000 0.000000 0.000000 -22.646937 -1.501474 1.586716 -25.729694 -19.842145 -4.923476 2.130249 47.303783 0.161558 0.000000 0.000000 0.000000 6.525214 -4.419699 -1.416340 17.468264 5.785172 -4.376271 -24.124577 -35.133291 7.293464 0.000000 0.000000 0.000000 
-0.002478 0.781837 0.018929 -0.039551 -8.612796 2.246706 18.888587 -1.104396 43.960173 -19.146716 -4.780176 -66.053243 95.498902 33.363475 114.757677 0.000000 0.000000 0.000000 -31.126572 9.488992 32.673580 18.909250 8.526901 -62.961538 -98.058233 -37.928776 113.883203 0.000000 0.000000 0.000000 4.761705 1.994468 -19.421843 2.386913 1.361691 -43.481232 3.079685 7.819696 56.033805 9.149524 2.875616 -95.391936 0.000000 0.000000 0.000000 -21.807062 -1.162246 0.922561 -25.322397 -18.421438 -4.487247 1.866030 46.493170 -0.249602 0.000000 0.000000 0.000000 6.922989 -4.972479 -1.696136 16.125840 4.507080 -3.897188 -24.467116 -33.590792 7.004085 0.000000 0.000000 0.000000 
-0.002478 0.786441 0.018929 -0.188708 -8.832077 2.494532 18.762284 -0.994779 41.362778 -18.794556 -4.025891 -62.299701 99.516879 35.131092 113.975787 0.000000 0.000000 0.000000 -30.637370 8.643711 29.768815 19.204019 7.967841 -58.504409 -100.487965 -40.187552 111.854009 0.000000 0.000000 0.000000 5.008877 1.983658 -18.985082 1.599013 1.230343 -41.152237 3.973607 8.110901 53.219203 9.242779 2.653844 -92.961591 0.000000 0.000000 0.000000 -21.011692 -1.015730 0.547965 -24.649368 -17.279236 -4.181392 1.613216 45.527928 -0.557157 0.000000 0.000000 0.000000 6.989884 -6.450391 -2.398652 14.990228 3.009566 -3.565329 -25.808566 -31.223360 6.882420 0.000000 0.000000 0.000000 
-0.002478 0.790224 0.018929 -0.331692 -8.687588 2.659586 18.714294 -1.014545 40.130774 -18.345912 -3.678662 -60.962696 99.842151 34.863081 114.402359 0.000000 0.000000 0.000000 -30.434881 8.353388 29.014009 19.604505 7.951666 -57.537907 -100.573792 -39.609757 112.573629 0.000000 0.000000 0.000000 4.990002 1.901447 -18.454711 1.159146 1.212563 -40.263733 4.289405 8.053543 52.008956 8.443134 2.776177 -92.370589 0.000000 0.000000 0.000000 -18.991814 -0.459273 0.166072 -25.084061 -16.985386 -4.070692 1.820404 46.491883 -0.492113 0.000000 0.000000 0.000000 6.023887 -6.982167 -2.667184 14.781016 1.344579 -3.472243 -27.881626 -30.696315 7.376271 0.000000 0.000000 0.000000 
-0.002478 0.793017 0.018929 -0.242615 -8.395333 2.353799 18.910811 -1.129690 38.573316 -18.623336 -3.566548 -58.205605 103.550656 36.031354 114.104275 0.000000 0.000000 0.000000 -30.411840 7.882650 27.541317 20.314123 7.584751 -54.236280 -102.494209 -41.428854 111.232905 0.000000 0.000000 0.000000 4.904820 1.793179 -17.779083 1.232228 1.070050 -38.458000 4.021336 8.819973 50.262264 9.798205 2.634724 -90.739670 0.000000 0.000000 0.000000 -16.796779 0.105445 -0.429432 -25.011329 -17.488025 -3.650299 2.443293 46.371807 -0.417026 0.000000 0.000000 0.000000 6.206073 -7.586826 -2.922765 13.827853 1.020328 -3.179926 -28.818856 -30.086004 7.575413 0.000000 0.000000 0.000000 
-0.002478 0.795602 0.018929 -0.220435 -8.278749 1.803071 19.172847 -1.216619 38.247819 -18.961212 -3.626017 -57.020579 105.028890 36.036831 114.510798 0.000000 0.000000 0.000000 -30.539461 7.855821 27.538567 20.816268 7.563249 -53.135636 -101.675386 -41.784249 110.528890 0.000000 0.000000 0.000000 4.770833 1.719415 -17.294807 1.290846 1.079628 -38.776416 4.330239 8.624865 51.354514 11.223419 2.687845 -91.806937 0.000000 0.000000 0.000000 -16.474948 -0.402017 -0.085923 -24.077992 -17.760209 -3.637616 0.569884 47.034390 -1.290289 0.000000 0.000000 0.000000 6.749430 -7.044239 -2.665269 13.153240 1.753449 -3.060703 -30.423470 -32.237680 8.548671 0.000000 0.000000 0.000000 
-0.002478 0.797315 0.018929 -0.239269 -7.922937 1.188469 19.411138 -1.339259 37.462815 -18.945692 -3.547407 -55.417760 108.641031 35.490816 115.969723 0.000000 0.000000 0.000000 -30.166821 7.462656 27.009405 20.939823 7.184947 -51.172493 -104.888648 -43.132679 110.377944 0.000000 0.000000 0.000000 4.730597 1.638058 -16.681193 1.542292 1.081365 -39.359521 4.019322 8.821316 52.278833 13.326101 2.690176 -92.492934 0.000000 0.000000 0.000000 -15.457668 -0.909019 0.175653 -23.797442 -18.760972 -3.542392 1.787850 48.237388 -0.801558 0.000000 0.000000 0.000000 7.656550 -6.419612 -2.333190 12.013674 2.219478 -2.852510 -29.773974 -33.355451 8.566246 0.000000 0.000000 0.000000 
-0.002478 0.798322 0.018929 -0.342703 -7.659094 0.632366 19.782399 -1.483493 36.703470 -19.061111 -3.444137 -53.266245 110.960204 36.576139 115.462296 0.000000 0.000000 0.000000 -30.190101 7.188774 26.296179 21.867035 6.991312 -48.662506 -107.755944 -45.750846 108.820057 0.000000 0.000000 0.000000 4.250642 1.507769 -16.149357 2.280099 0.924302 -38.473974 3.656937 8.995919 51.504730 15.949603 2.662116 -92.395116 0.000000 0.000000 0.000000 -14.931497 -1.391943 0.331671 -22.946552 -18.973909 -3.332868 1.129815 46.885389 -1.198702 0.000000 0.000000 0.000000 8.762082 -5.450436 -1.856713 11.415952 2.611674 -2.695275 -28.812834 -33.130036 8.191747 0.000000 0.000000 0.000000 
-0.002478 0.797350 0.018929 -0.575567 -7.402007 0.714831 20.290712 -1.693670 36.459397 -19.227470 -3.596985 -53.621889 112.396826 35.252779 116.965476 0.000000 0.000000 0.000000 -30.334277 7.265836 26.711762 22.714193 7.444549 -49.643880 -109.244558 -45.550105 109.794868 0.000000 0.000000 0.000000 3.984269 1.479670 -16.306843 3.209948 0.970615 -40.309999 3.249251 8.724671 53.593669 17.035891 2.876147 -94.255109 0.000000 0.000000 0.000000 -15.284326 -1.819176 0.692526 -22.462560 -19.400982 -3.501585 2.448412 47.891836 -0.583115 0.000000 0.000000 0.000000 9.789913 -4.332690 -1.259546 11.281816 3.200970 -2.750741 -29.067657 -34.134349 8.450355 0.000000 0.000000 0.000000 
-0.002478 0.797055 0.018929 -0.700461 -6.990616 0.504028 21.032719 -2.021678 36.640891 -19.771653 -3.944963 -53.885376 111.966030 33.999084 117.918791 0.000000 0.000000 0.000000 -30.507503 7.337920 27.330962 23.739332 7.801351 -49.950577 -109.838369 -46.741266 108.950715 0.000000 0.000000 0.000000 3.735601 1.404559 -16.028733 3.856826 0.988852 -41.370334 3.083634 8.771028 54.369953 16.953995 2.938094 -94.643481 0.000000 0.000000 0.000000 -14.917803 -2.172806 0.847067 -22.985186 -19.873163 -3.530410 3.452889 48.472818 -0.105203 0.000000 0.000000 0.000000 10.214267 -3.534613 -0.803571 12.243342 2.440045 -3.022806 -29.454243 -34.246930 8.726029 0.000000 0.000000 0.000000 
-0.002478 0.797043 0.018929 -0.952313 -6.799300 0.309588 21.605594 -2.258833 36.989164 -20.036071 -4.168926 -54.333178 112.626172 33.456308 118.477800 0.000000 0.000000 0.000000 -30.680793 7.411378 27.707937 25.007967 8.198309 -49.788039 -109.702085 -48.690149 106.930503 0.000000 0.000000 0.000000 3.757014 1.421880 -16.193892 4.560031 0.924067 -41.501995 2.799748 9.121548 54.729994 18.089626 2.833079 -94.661288 0.000000 0.000000 0.000000 -15.150824 -2.696328 1.048414 -22.887344 -19.805779 -3.558139 2.672714 47.537506 -0.515124 0.000000 0.000000 0.000000 11.102194 -3.073503 -0.460189 12.315243 1.931584 -3.109286 -29.083492 -34.012136 8.583305 0.000000 0.000000 0.000000 
-0.002478 0.796834 0.018929 -0.971734 -5.803822 0.147797 22.422542 -2.732564 36.521935 -20.902128 -4.667554 -53.856147 112.863067 33.506957 118.153309 0.000000 0.000000 0.000000 -30.893694 7.436566 28.793684 25.848523 8.391021 -50.336503 -108.559938 -48.974711 106.319405 0.000000 0.000000 0.000000 3.248207 1.302364 -16.045470 5.214682 0.992150 -43.209672 2.369080 8.412688 56.641710 18.813663 2.922107 -95.581936 0.000000 0.000000 0.000000 -15.680223 -2.567500 1.109658 -23.395021 -20.758486 -3.745775 3.533174 47.171290 0.008756 0.000000 0.000000 0.000000 11.389912 -2.449000 -0.072376 12.727850 1.756336 -3.317655 -30.082680 -34.866696 9.142729 0.000000 0.000000 0.000000 
-0.002478 0.796460 0.018929 -0.769784 -5.095698 -0.035594 22.421115 -2.911457 36.625403 -20.894344 -4.860537 -54.016343 111.148219 33.751015 117.381111 0.000000 0.000000 0.000000 -31.508083 7.644560 29.739572 26.905610 8.713246 -50.779022 -106.684066 -49.494840 105.009580 0.000000 0.000000 0.000000 3.168218 1.268040 -16.058845 4.678519 0.970507 -42.996247 2.794720 8.150424 56.716452 17.936360 2.833574 -95.871779 0.000000 0.000000 0.000000 -16.408017 -3.333821 1.434063 -23.279420 -20.715334 -3.730027 2.803367 46.544244 -0.348648 0.000000 0.000000 0.000000 11.083543 -2.220333 0.064213 13.440915 0.512917 -3.546173 -29.462061 -35.350039 9.152199 0.000000 0.000000 0.000000 
-0.002478 0.796435 0.018929 -0.664975 -4.552751 0.155696 22.348200 -2.971477 35.835208 -20.808005 -4.880373 -53.653678 112.033017 34.036737 117.127240 0.000000 0.000000 0.000000 -32.025525 7.570787 29.294468 27.777381 8.721657 -50.052361 -107.035652 -49.352511 105.462744 0.000000 0.000000 0.000000 3.113939 1.218214 -15.831664 4.637093 0.940309 -42.885265 2.969615 8.344900 56.591937 16.166780 2.648096 -95.359646 0.000000 0.000000 0.000000 -17.187102 -3.930523 1.538925 -23.037444 -20.413104 -3.610054 0.907967 46.206453 -1.300541 0.000000 0.000000 0.000000 10.720024 -2.246318 0.069701 14.253497 -0.739467 -3.776065 -29.360801 -35.765150 9.367243 0.000000 0.000000 0.000000 
-0.002478 0.798390 0.018929 -0.420672 -3.777521 0.522622 22.253719 -3.014725 34.176594 -20.942246 -4.890715 -52.390722 111.368485 34.371793 116.418925 0.000000 0.000000 0.000000 -32.289450 7.305567 28.643377 27.925869 8.378929 -49.268266 -106.600740 -48.826581 105.978115 0.000000 0.000000 0.000000 2.655166 1.065980 -15.090221 4.256804 0.964665 -43.323363 3.374636 7.584446 56.808462 11.868326 2.649233 -95.556772 0.000000 0.000000 0.000000 -18.036383 -4.632137 1.883218 -23.829992 -20.280900 -3.614301 -0.128917 46.558879 -1.701408 0.000000 0.000000 0.000000 9.613961 -1.707599 0.194313 15.747501 -2.026833 -4.159364 -29.523258 -37.053300 9.874943 0.000000 0.000000 0.000000 
-0.002478 0.801840 0.018929 -0.376111 -3.691756 0.787506 21.944643 -2.856188 32.979217 -20.399116 -4.586337 -51.649637 112.988398 34.089135 117.023040 0.000000 0.000000 0.000000 -32.362592 6.999294 27.209742 28.140116 8.097043 -47.903869 -107.912570 -49.184621 106.246888 0.000000 0.000000 0.000000 2.650065 0.986482 -14.170683 3.991148 0.941515 -42.710249 3.637271 7.871927 55.600857 9.365230 2.523558 -94.704959 0.000000 0.000000 0.000000 -18.027809 -4.856518 1.781581 -25.287967 -19.653673 -3.543268 -0.408261 46.702517 -1.836679 0.000000 0.000000 0.000000 9.354414 -1.400301 0.292881 16.800900 -3.442722 -4.404899 -29.564372 -38.766247 10.458854 0.000000 0.000000 0.000000 
-0.002478 0.806802 0.018929 -0.385702 -3.477495 1.351004 21.710353 -2.699298 30.942199 -19.683324 -4.182484 -50.442819 113.516384 32.076114 118.927813 0.000000 0.000000 0.000000 -31.734830 6.336738 25.111088 27.126000 7.290720 -46.199772 -110.755845 -48.211945 108.651174 0.000000 0.000000 0.000000 2.576532 0.891456 -13.192926 3.774316 0.944451 -42.609105 3.956529 7.952089 54.870856 7.028086 2.450353 -94.550028 0.000000 0.000000 0.000000 -18.037107 -5.101409 1.740268 -26.188199 -19.363929 -3.456295 -2.455361 47.735866 -2.829062 0.000000 0.000000 0.000000 9.364441 -1.190757 0.384239 18.123738 -4.372655 -4.749711 -31.949282 -41.409456 12.341685 0.000000 0.000000 0.000000 
-0.002478 0.811260 0.018929 -0.538747 -3.832978 2.233797 21.245580 -2.384949 28.884774 -18.583383 -3.520231 -49.089804 112.845052 30.453130 120.439791 0.000000 0.000000 0.000000 -31.423037 5.934223 22.881751 26.630425 6.849606 -44.708801 -109.624645 -47.219549 109.074811 0.000000 0.000000 0.000000 2.805072 0.892501 -12.901070 4.079189 0.886817 -41.822912 3.739460 8.755409 53.474143 5.571372 2.307724 -92.174942 0.000000 0.000000 0.000000 -17.857225 -5.110760 1.488898 -27.902088 -17.777843 -3.522151 -2.136073 46.869806 -2.676942 0.000000 0.000000 0.000000 9.397471 -1.224089 0.355931 19.507458 -4.412735 -4.982639 -33.674878 -42.480412 13.643688 0.000000 0.000000 0.000000 
-0.002478 0.814117 0.018929 -0.588228 -4.063655 2.802356 20.901981 -2.184060 27.528616 -17.985666 -3.095423 -47.706769 113.387986 31.210468 119.934900 0.000000 0.000000 0.000000 -31.244107 5.688059 21.454187 26.075614 6.426439 -43.416277 -107.876277 -46.685315 108.777728 0.000000 0.000000 0.000000 2.923592 0.865628 -12.425572 3.760650 0.805526 -40.245689 3.722431 9.390154 50.895421 5.288287 2.251769 -89.224525 0.000000 0.000000 0.000000 -16.904916 -5.394691 1.406881 -29.935948 -16.071493 -3.589907 -4.229871 46.425560 -3.618454 0.000000 0.000000 0.000000 10.305032 -0.940978 0.521720 20.594806 -4.494277 -5.067487 -34.559790 -44.158322 14.729832 0.000000 0.000000 0.000000 
-0.002478 0.817120 0.018929 -0.889576 -5.020179 3.548218 20.517845 -1.915616 26.929153 -17.142702 -2.579056 -47.419428 109.873437 30.411715 120.497340 0.000000 0.000000 0.000000 -31.502789 5.626693 19.511523 26.797289 6.506488 -41.961879 -105.793761 -46.402620 107.951596 0.000000 0.000000 0.000000 3.211811 0.916379 -12.539818 3.949656 0.651171 -38.077749 3.616885 10.407836 48.307206 4.253366 2.260875 -86.409142 0.000000 0.000000 0.000000 -17.015155 -5.680366 1.312259 -30.877434 -13.657233 -3.752553 -5.302441 46.299617 -4.179824 0.000000 0.000000 0.000000 11.053025 -1.360746 0.333931 21.401468 -4.070915 -5.048429 -34.037730 -43.697153 14.458704 0.000000 0.000000 0.000000 
-0.002478 0.816704 0.018929 -0.946667 -5.966467 3.718768 20.424728 -1.741092 27.110259 -17.618463 -2.501002 -47.256735 112.772573 32.539935 119.242356 0.000000 0.000000 0.000000 -31.736624 5.619987 18.126650 27.081948 6.394040 -40.231087 -103.736309 -47.065821 106.028770 0.000000 0.000000 0.000000 3.316456 0.899624 -12.015346 4.143202 0.495550 -36.174363 3.227610 11.590225 45.431340 4.169574 2.268833 -82.506789 0.000000 0.000000 0.000000 -16.136095 -5.507678 1.037069 -32.081238 -11.724608 -3.917212 -6.111640 46.145223 -4.622193 0.000000 0.000000 0.000000 12.370826 -1.859979 0.151916 22.350414 -2.757554 -4.968529 -32.201636 -43.289781 13.640631 0.000000 0.000000 0.000000 
-0.002478 0.817844 0.018929 -1.293945 -7.076120 3.809903 20.007288 -1.515482 28.555736 -16.825944 -2.216640 -49.348031 109.455529 31.253640 120.256616 0.000000 0.000000 0.000000 -32.108187 5.791487 17.302818 28.102014 6.781501 -39.609687 -101.062620 -46.373807 105.332511 0.000000 0.000000 0.000000 3.739065 0.969545 -12.110706 4.625854 0.304406 -34.421630 2.635476 12.699869 43.662445 4.998054 2.228465 -80.399616 0.000000 0.000000 0.000000 -15.576459 -5.504738 0.942362 -33.405707 -9.348692 -4.369758 -6.681715 46.273723 -4.939841 0.000000 0.000000 0.000000 12.817235 -2.090635 0.026800 24.520457 -1.361000 -5.119038 -30.441294 -43.242309 13.040704 0.000000 0.000000 0.000000 
-0.002478 0.817580 0.018929 -1.413581 -8.362101 3.653318 19.974051 -1.288997 29.410385 -17.445550 -2.159728 -49.508255 111.297571 32.886766 119.384024 0.000000 0.000000 0.000000 -32.575918 5.839594 15.765705 29.093152 6.703458 -37.051936 -97.955357 -48.051311 101.412921 0.000000 0.000000 0.000000 3.948182 0.959047 -11.515327 4.921906 0.124551 -32.803097 2.223809 13.977941 41.408819 6.419093 2.101062 -77.418997 0.000000 0.000000 0.000000 -14.558525 -5.290247 0.750820 -35.259763 -8.293345 -4.594502 -7.038699 47.215352 -5.255002 0.000000 0.000000 0.000000 13.109985 -2.392141 -0.136736 26.555713 -0.003504 -5.146482 -27.129616 -41.714991 11.324678 0.000000 0.000000 0.000000 
-0.002478 0.817438 0.018929 -1.417690 -9.224616 3.665546 19.572877 -1.033486 29.296816 -17.380547 -1.905763 -48.904365 113.551395 34.066934 118.973490 0.000000 0.000000 0.000000 -32.495760 5.590276 13.941453 28.757888 6.090008 -34.267199 -95.754319 -48.441489 99.473288 0.000000 0.000000 0.000000 3.819415 0.955367 -11.418006 4.927785 -0.010571 -31.416880 1.974001 14.108791 40.055595 6.164374 2.143528 -74.964053 0.000000 0.000000 0.000000 -14.947550 -5.113471 0.687180 -36.312822 -8.096096 -4.671549 -7.212625 48.767208 -5.442372 0.000000 0.000000 0.000000 13.588177 -2.200695 -0.134178 28.287669 2.022510 -4.985355 -24.964836 -41.186280 10.276137 0.000000 0.000000 0.000000 
-0.002478 0.817730 0.018929 -2.141541 -10.098395 3.597739 17.147672 -0.305615 29.894408 -20.628858 -2.726652 -49.862464 123.434646 40.258191 115.975745 0.000000 0.000000 0.000000 -32.092919 5.502067 13.171941 29.154966 6.081260 -33.061681 -93.728318 -48.975473 97.375841 0.000000 0.000000 0.000000 4.605689 0.978462 -10.814908 4.721955 -0.028796 -30.856916 2.042880 14.291701 39.321167 6.860856 2.092947 -74.352380 0.000000 0.000000 0.000000 -15.823136 -5.199327 0.732735 -37.405872 -8.780766 -4.552463 -10.415356 50.247396 -7.036524 0.000000 0.000000 0.000000 14.159747 -1.740460 0.027059 30.900659 4.009164 -4.925519 -23.358280 -42.357821 9.971822 0.000000 0.000000 0.000000 
-0.002478 0.818263 0.018929 -2.023542 -9.338674 4.014835 16.162886 -0.211316 30.399392 -21.261731 -3.161668 -50.647752 121.525226 40.591301 114.938923 0.000000 0.000000 0.000000 -31.725115 5.355970 13.418392 29.547078 6.741843 -35.694915 -97.430359 -48.397576 100.472212 0.000000 0.000000 0.000000 3.591016 0.906702 -11.115614 4.490505 0.040904 -31.155174 1.866806 12.688141 39.934831 6.817476 2.175440 -75.020555 0.000000 0.000000 0.000000 -16.109337 -4.768578 0.775027 -39.337223 -10.444656 -4.448604 -16.073269 52.538712 -9.912263 0.000000 0.000000 0.000000 14.455175 -1.457055 0.024225 34.165780 4.792884 -5.189529 -23.575522 -42.335741 10.120451 0.000000 0.000000 0.000000 
-0.002478 0.820235 0.018929 -2.140453 -9.663483 4.830111 15.722352 -0.073471 30.423457 -20.354651 -2.924799 -52.292804 119.426266 38.329987 116.418339 0.000000 0.000000 0.000000 -31.386465 5.642015 14.497092 29.494792 7.407319 -38.012223 -96.682576 -47.297998 101.372756 0.000000 0.000000 0.000000 3.329342 1.003547 -12.305803 4.889540 0.014176 -31.455099 2.008334 12.663628 41.486976 8.309051 2.044704 -76.437696 0.000000 0.000000 0.000000 -16.612543 -4.705305 0.830059 -41.429530 -12.601230 -4.187922 -27.099370 54.588731 -15.959881 0.000000 0.000000 0.000000 14.752298 -1.240674 0.164355 38.382968 4.621358 -5.914424 -29.211231 -45.611261 14.011172 0.000000 0.000000 0.000000 
-0.002478 0.820874 0.018929 -2.209392 -9.196119 5.801772 14.672390 0.065087 29.836007 -20.416247 -3.040750 -52.711817 119.375168 37.907899 116.597705 0.000000 0.000000 0.000000 -30.769515 5.501949 14.640004 28.877843 7.320087 -38.786968 -98.728353 -46.676124 103.276011 0.000000 0.000000 0.000000 2.861614 0.987850 -12.755009 5.102081 0.088272 -32.461512 1.996765 12.352420 43.083081 9.099838 1.997740 -77.905518 0.000000 0.000000 0.000000 -15.992912 -4.682075 0.919521 -45.438941 -14.896906 -3.889176 -40.890437 54.714242 -23.204415 0.000000 0.000000 0.000000 15.219469 -1.636197 0.044035 42.497633 4.526404 -6.620710 -41.996882 -51.973427 23.993300 0.000000 0.000000 0.000000 
-0.002478 0.820994 0.018929 -2.310842 -8.683191 6.873542 13.357512 0.292296 30.131736 -19.777947 -3.140753 -55.157325 118.505381 37.177649 116.809758 0.000000 0.000000 0.000000 -30.835259 5.892905 16.469867 29.336196 8.013693 -41.532436 -97.840804 -44.553609 105.564788 0.000000 0.000000 0.000000 2.777385 0.977279 -12.938137 4.821306 0.359480 -34.749719 2.156383 11.896202 45.624738 9.093676 2.070223 -80.356477 0.000000 0.000000 0.000000 -16.213041 -5.318777 1.365572 -47.876433 -16.385375 -3.789491 -53.708302 51.345788 -28.110792 0.000000 0.000000 0.000000 14.919446 -1.957878 -0.054034 45.515200 1.257837 -8.357001 -72.640404 -60.897926 51.631071 0.000000 0.000000 0.000000 
-0.002478 0.817557 0.018929 -2.488386 -7.548778 7.867987 12.999613 0.182715 30.429868 -19.957263 -3.623595 -56.440356 116.371352 36.972778 116.062384 0.000000 0.000000 0.000000 -30.340393 5.986985 18.342349 29.338776 8.002658 -42.757861 -96.587779 -44.234849 105.531524 0.000000 0.000000 0.000000 2.640308 0.932079 -12.982879 4.166951 0.533789 -35.876233 1.826488 11.067404 46.674006 10.215717 1.998008 -80.727025 0.000000 0.000000 0.000000 -15.067255 -4.737392 1.183224 -51.362670 -17.846637 -3.455763 -63.392384 49.407862 -31.738874 0.000000 0.000000 0.000000 13.867388 -3.099214 -0.638269 47.661164 -3.301760 -10.334608 -120.541036 -52.699115 89.492624 0.000000 0.000000 0.000000 
-0.002478 0.812432 0.018929 -3.035671 -6.368909 10.140873 11.876724 0.294653 31.746209 -18.000158 -3.594189 -61.280223 109.932261 34.803409 116.039535 0.000000 0.000000 0.000000 -29.947010 6.270030 20.725714 29.704308 8.550878 -45.975045 -92.056794 -41.064432 107.745078 0.000000 0.000000 0.000000 2.770476 1.048547 -14.701491 3.664107 0.744296 -37.890562 1.389209 9.660251 49.429151 9.574837 2.191992 -83.144078 0.000000 0.000000 0.000000 -14.452057 -4.405092 1.318211 -53.629041 -19.050642 -3.435349 -71.500431 45.919278 -32.622611 0.000000 0.000000 0.000000 11.955925 -4.350994 -1.309365 48.589195 -7.867477 -12.447703 -140.815964 -41.570290 102.023831 0.000000 0.000000 0.000000 
-0.002478 0.805786 0.018929 -3.178067 -4.079572 11.688841 11.777962 -0.094368 31.876094 -17.171312 -4.096058 -63.364525 106.601544 33.782941 115.467614 0.000000 0.000000 0.000000 -29.096066 6.175657 23.731340 29.746633 8.395936 -48.022627 -86.954126 -39.764756 107.667185 0.000000 0.000000 0.000000 3.032746 1.093028 -16.006777 2.000038 0.853454 -38.038329 0.493234 8.109347 50.502293 9.540250 2.163469 -82.955679 0.000000 0.000000 0.000000 -12.744710 -3.683762 1.093028 -56.578780 -20.448425 -2.925605 -76.071506 43.448656 -32.404121 0.000000 0.000000 0.000000 10.798520 -5.828282 -2.038488 48.974385 -14.478562 -14.935770 -145.728254 -36.517842 101.861025 0.000000 0.000000 0.000000 
-0.002478 0.799291 0.018929 -3.630047 -3.942737 13.580081 10.610476 0.251665 32.759246 -15.370633 -3.341439 -64.440557 100.119665 34.659755 112.749592 0.000000 0.000000 0.000000 -29.114598 6.406770 24.397876 31.283436 8.452340 -46.572967 -77.747082 -40.606819 101.423899 0.000000 0.000000 0.000000 3.922971 1.260322 -17.193494 0.742372 0.963731 -37.612538 -0.133075 8.726000 50.272050 10.837894 1.787259 -81.085916 0.000000 0.000000 0.000000 -11.063306 -3.355025 0.944582 -58.045652 -19.668095 -3.396445 -77.327539 39.489151 -29.554730 0.000000 0.000000 0.000000 10.796665 -8.342973 -3.223271 48.046400 -20.782078 -16.815611 -149.271941 -33.051956 101.963614 0.000000 0.000000 0.000000 
-0.002478 0.793915 0.018929 -3.937967 -3.501118 14.479575 10.206875 0.295318 32.664537 -13.968506 -2.689292 -62.876277 92.286856 36.921966 107.229029 0.000000 0.000000 0.000000 -28.736848 6.124752 23.673901 32.048256 7.555295 -42.567758 -68.798473 -42.666826 91.461872 0.000000 0.000000 0.000000 4.584849 1.386612 -18.110590 -0.792254 0.985951 -33.979866 -1.224679 8.512208 46.585095 12.347181 1.217585 -75.559517 0.000000 0.000000 0.000000 -10.038101 -2.479172 0.505622 -58.698454 -18.913978 -3.253447 -77.280656 37.865972 -28.620827 0.000000 0.000000 0.000000 11.793843 -9.762312 -4.053940 47.953826 -25.623094 -18.046640 -157.453797 -33.483640 118.593471 0.000000 0.000000 0.000000 
-0.002478 0.789849 0.018929 -4.568677 -4.141454 15.001237 9.876642 0.540371 33.202049 -13.083683 -2.006594 -61.642625 86.086593 39.750478 100.778995 0.000000 0.000000 0.000000 -28.800462 6.165467 22.691818 33.575052 6.989077 -38.140610 -58.962972 -43.769385 79.766403 0.000000 0.000000 0.000000 4.952161 1.436772 -17.955764 -1.474895 1.034097 -32.016927 -1.962579 8.575499 43.394646 12.928512 0.691893 -70.606676 0.000000 0.000000 0.000000 -9.256623 -2.731757 0.648607 -58.842592 -17.660023 -3.449702 -76.766142 36.984626 -27.911778 0.000000 0.000000 0.000000 12.178678 -10.046323 -4.351720 48.380913 -27.745033 -18.661658 -168.229774 -33.169230 144.470114 0.000000 0.000000 0.000000 
-0.002478 0.787410 0.018929 -4.926340 -4.403909 14.280807 10.181716 0.496656 33.143430 -12.663073 -1.664882 -59.409058 83.436233 43.479695 93.702024 0.000000 0.000000 0.000000 -28.799893 5.902262 21.162419 34.451560 6.037386 -33.526278 -52.681036 -44.814556 69.849895 0.000000 0.000000 0.000000 5.304254 1.376323 -16.838044 -2.830097 1.210974 -29.876880 -2.144470 7.983329 40.367352 11.944643 0.470058 -65.794872 0.000000 0.000000 0.000000 -8.911698 -3.813948 1.150897 -58.882432 -17.263341 -3.132808 -75.732358 36.219106 -27.026191 0.000000 0.000000 0.000000 12.598704 -9.485711 -4.272862 50.156722 -27.264263 -18.913059 -179.036496 -31.733713 176.163879 0.000000 0.000000 0.000000 
-0.002478 0.786314 0.018929 -5.266046 -5.125862 13.625426 10.654352 0.498915 33.460571 -13.374715 -1.704605 -57.804835 80.667539 46.705021 87.000985 0.000000 0.000000 0.000000 -29.332354 5.920613 19.818864 35.443136 5.352387 -29.738248 -47.476248 -44.916690 62.165531 0.000000 0.000000 0.000000 5.195522 1.360903 -16.390964 -3.080497 1.240178 -28.629085 -1.976984 7.753199 38.637143 11.076366 0.476822 -63.594495 0.000000 0.000000 0.000000 -9.379413 -4.535305 1.489028 -58.326237 -16.737080 -3.095714 -77.073114 35.422052 -27.051535 0.000000 0.000000 0.000000 13.055509 -8.371954 -3.872840 51.031982 -25.617133 -18.517903 174.020015 -29.242473 -160.119689 0.000000 0.000000 0.000000 
-0.002478 0.786396 0.018929 -5.366746 -4.675217 13.057144 11.611790 0.097328 32.781318 -14.702826 -2.214227 -55.435328 78.797648 49.740430 80.307134 0.000000 0.000000 0.000000 -29.245588 5.529179 18.573773 35.809004 4.633164 -27.259521 -45.256831 -45.515025 57.366056 0.000000 0.000000 0.000000 4.550132 1.159300 -15.108881 -2.386617 1.125902 -29.151892 -2.388390 7.261225 38.248052 10.969539 0.411608 -62.516036 0.000000 0.000000 0.000000 -9.287624 -4.921775 1.663681 -58.694952 -16.643201 -3.051755 -79.439396 34.856703 -27.592333 0.000000 0.000000 0.000000 13.509663 -7.864073 -3.691499 51.497341 -24.039025 -18.041804 170.780767 -26.354927 -146.082498 0.000000 0.000000 0.000000 
-0.002478 0.785814 0.018929 -5.330274 -5.447961 12.672451 11.494658 0.249823 31.948632 -15.149384 -2.012864 -52.714027 77.561121 53.013209 74.139768 0.000000 0.000000 0.000000 -29.839537 5.555884 17.226914 36.536915 4.133855 -24.600138 -44.715837 -46.649960 53.733423 0.000000 0.000000 0.000000 4.438908 1.186819 -15.120075 -2.607222 1.141528 -27.822358 -1.771233 7.500100 37.203219 10.911858 0.298206 -61.214992 0.000000 0.000000 0.000000 -9.466566 -5.117979 1.746693 -58.444253 -15.463613 -3.480828 -83.751424 33.475869 -28.380657 0.000000 0.000000 0.000000 13.900666 -7.379543 -3.521481 52.579314 -23.370213 -18.083926 169.875601 -24.858056 -140.905891 0.000000 0.000000 0.000000 
-0.002478 0.785232 0.018929 -5.370951 -5.592272 13.018337 11.739366 0.157611 31.007749 -14.871524 -1.848675 -52.754459 80.008198 53.023385 76.303575 0.000000 0.000000 0.000000 -29.612948 5.707337 17.991291 36.175976 4.827826 -27.037339 -47.886436 -46.560078 58.800318 0.000000 0.000000 0.000000 3.889370 1.093411 -14.653247 -2.072787 1.069964 -29.346463 -1.904671 7.088627 38.177133 11.584806 0.241632 -63.032271 0.000000 0.000000 0.000000 -9.480028 -5.277538 1.921384 -58.427439 -14.266757 -4.194343 -89.437600 32.215945 -29.278516 0.000000 0.000000 0.000000 14.329502 -6.625964 -3.211222 53.880558 -22.478695 -18.379096 168.802455 -25.628320 -137.322706 0.000000 0.000000 0.000000 
-0.002478 0.807465 0.018929 -4.395500 -7.461788 8.917712 15.064249 -0.428094 27.909126 -13.979083 -0.874190 -44.982533 87.702880 52.147763 85.268976 0.000000 0.000000 0.000000 -26.940074 4.637473 15.495758 32.586952 5.667342 -30.494385 -70.413570 -55.679831 67.993553 0.000000 0.000000 0.000000 3.681827 1.010156 -13.043488 0.066458 0.798184 -31.661906 0.242575 7.494267 40.768574 11.870563 0.531358 -66.904543 0.000000 0.000000 0.000000 -13.661310 1.873665 -1.462651 -56.219801 -10.777448 -6.196964 -80.070044 45.011151 -36.286120 0.000000 0.000000 0.000000 15.184089 -10.317080 -5.312461 52.812781 -17.084522 -16.164200 162.312885 -34.075854 -125.622323 0.000000 0.000000 0.000000 
-0.002478 0.807465 0.018929 -4.395500 -7.461788 8.917712 15.064249 -0.428094 27.909126 -13.979083 -0.874190 -44.982533 87.702880 52.147763 85.268976 0.000000 0.000000 0.000000 -26.940074 4.637473 15.495758 32.586952 5.667342 -30.494385 -70.413570 -55.679831 67.993553 0.000000 0.000000 0.000000 3.681827 1.010156 -13.043488 0.066458 0.798184 -31.661906 0.242575 7.494267 40.768574 11.870563 0.531358 -66.904543 0.000000 0.000000 0.000000 -13.661310 1.873665 -1.462651 -56.219801 -10.777448 -6.196964 -80.070044 45.011151 -36.286120 0.000000 0.000000 0.000000 15.184089 -10.317080 -5.312461 52.812781 -17.084522 -16.164200 162.312885 -34.075854 -125.622323 0.000000 0.000000 0.000000 
